"Number","Name","Country","Region","Type","Activity Evidence","Last Known Eruption","Latitude","Longitude","Elevation (Meters)","Dominant Rock Type","Tectonic Setting"
"210010","West Eifel Volcanic Field","Germany","Mediterranean and Western Asia","Maar","Eruption Dated","8300 BCE","50.17","6.85","600","Foidite","Rift Zone / Continental Crust"
"210020","Chaine des Puys","France","Mediterranean and Western Asia","Lava dome","Eruption Dated","4040 BCE","45.775","2.97","1464","Basalt / Picro-Basalt","Rift Zone / Continental Crust"
"210030","Olot Volcanic Field","Spain","Mediterranean and Western Asia","Pyroclastic cone","Evidence Credible","Unknown","42.17","2.53","893","Trachybasalt / Tephrite Basanite","Intraplate / Continental Crust"
"210040","Calatrava Volcanic Field","Spain","Mediterranean and Western Asia","Pyroclastic cone","Eruption Dated","3600 BCE","38.87","-4.02","1117","Basalt / Picro-Basalt","Intraplate / Continental Crust"
"211001","Larderello","Italy","Mediterranean and Western Asia","Explosion crater","Eruption Observed","1282 CE","43.25","10.87","500","No Data","Subduction Zone / Continental Crust"
"211003","Vulsini","Italy","Mediterranean and Western Asia","Caldera","Eruption Observed","104 BCE","42.6","11.93","800","Trachyte / Trachydacite","Subduction Zone / Continental Crust"
"211004","Colli Alban","Italy","Mediterranean and Western Asia","Caldera","Evidence Uncertain","Unknown","41.73","12.7","949","Foidite","Subduction Zone / Continental Crust"
"211010","Campi Flegrei","Italy","Mediterranean and Western Asia","Caldera","Eruption Observed","1538 CE","40.827","14.139","458","Trachyte / Trachydacite","Subduction Zone / Continental Crust"
"211020","Vesuvius","Italy","Mediterranean and Western Asia","Stratovolcano","Eruption Observed","1944 CE","40.821","14.426","1281","Phono-tephrite /  Tephri-phonolite","Subduction Zone / Continental Crust"
"211030","Ischia","Italy","Mediterranean and Western Asia","Complex","Eruption Observed","1302 CE","40.73","13.897","789","Trachyte / Trachydacite","Subduction Zone / Continental Crust"
"211031","Palinuro","Italy","Mediterranean and Western Asia","Submarine","Eruption Dated","8040 BCE","39.48","14.83","-70","Phonolite","Subduction Zone / Continental Crust"
"211040","Stromboli","Italy","Mediterranean and Western Asia","Stratovolcano","Eruption Observed","2016 CE","38.789","15.213","924","Trachyandesite / Basaltic Trachyandesite","Subduction Zone / Continental Crust"
"211041","Panarea","Italy","Mediterranean and Western Asia","Stratovolcano","Evidence Uncertain","Unknown","38.638","15.064","399","Andesite / Basaltic Andesite","Subduction Zone / Continental Crust"
"211042","Lipari","Italy","Mediterranean and Western Asia","Stratovolcano","Eruption Dated","1230 CE","38.49","14.933","590","Rhyolite","Subduction Zone / Continental Crust"
"211050","Vulcano","Italy","Mediterranean and Western Asia","Stratovolcano","Eruption Observed","1890 CE","38.404","14.962","500","Trachybasalt / Tephrite Basanite","Subduction Zone / Continental Crust"
"211060","Etna","Italy","Mediterranean and Western Asia","Stratovolcano","Eruption Observed","2016 CE","37.734","15.004","3330","Trachybasalt / Tephrite Basanite","Subduction Zone / Continental Crust"
"211070","Campi Flegrei Mar Sicilia","Italy","Mediterranean and Western Asia","Submarine","Eruption Observed","1867 CE","37.1","12.7","-8","Trachybasalt / Tephrite Basanite","Rift Zone / Continental Crust"
"211071","Pantelleria","Italy","Mediterranean and Western Asia","Shield","Eruption Observed","1891 CE","36.77","12.02","836","Rhyolite","Rift Zone / Continental Crust"
"211080","Marsili","Italy","Mediterranean and Western Asia","Submarine","Eruption Dated","1050 BCE","39.284","14.399","-779","",""
"211800","Amiata","Italy","Mediterranean and Western Asia","Lava dome","Unrest / Pleistocene","Unknown","42.9","11.63","1738","","Subduction Zone / Continental Crust"
"212020","Methana","Greece","Mediterranean and Western Asia","Lava dome","Eruption Observed","258 BCE","37.615","23.336","760","Andesite / Basaltic Andesite","Subduction Zone / Continental Crust"
"212030","Milos","Greece","Mediterranean and Western Asia","Stratovolcano","Eruption Dated","140 CE","36.699","24.439","751","Rhyolite","Subduction Zone / Continental Crust"
"212040","Santorini","Greece","Mediterranean and Western Asia","Shield","Eruption Observed","1950 CE","36.404","25.396","367","Dacite","Subduction Zone / Continental Crust"
"212050","Nisyros","Greece","Mediterranean and Western Asia","Stratovolcano","Eruption Observed","1888 CE","36.586","27.16","698","Dacite","Subduction Zone / Continental Crust"
"212051","Yali","Greece","Mediterranean and Western Asia","Lava dome","Evidence Credible","Unknown","36.671","27.14","180","Rhyolite","Subduction Zone / Continental Crust"
"212805","Kos","Greece","Mediterranean and Western Asia","Caldera","Unrest / Pleistocene","Unknown","36.852","27.251","430","","Subduction Zone / Continental Crust"
"213000","Kula","Turkey","Mediterranean and Western Asia","Pyroclastic cone","Evidence Credible","Unknown","38.58","28.52","750","Trachybasalt / Tephrite Basanite","Intraplate / Continental Crust"
"213001","Karapinar Field","Turkey","Mediterranean and Western Asia","Pyroclastic cone","Evidence Credible","Unknown","37.67","33.65","1302","Trachyandesite / Basaltic Trachyandesite","Intraplate / Continental Crust"
"213002","Hasan Dagi","Turkey","Mediterranean and Western Asia","Stratovolcano","Evidence Credible","Unknown","38.13","34.17","3253","Dacite","Intraplate / Continental Crust"
"213003","Gollu Dag","Turkey","Mediterranean and Western Asia","Lava dome","Evidence Uncertain","Unknown","38.25","34.57","2143","Rhyolite","Intraplate / Continental Crust"
"213004","Acigol-Nevsehir","Turkey","Mediterranean and Western Asia","Caldera","Eruption Dated","2080 BCE","38.537","34.621","1683","Rhyolite","Intraplate / Continental Crust"
"213010","Erciyes Dagi","Turkey","Mediterranean and Western Asia","Stratovolcano","Eruption Dated","6880 BCE","38.531","35.447","3864","Dacite","Intraplate / Continental Crust"
"213011","Karaca Dag","Turkey","Mediterranean and Western Asia","Shield","Evidence Credible","Unknown","37.67","39.83","1957","Basalt / Picro-Basalt","Intraplate / Continental Crust"
"213020","Nemrut Dagi","Turkey","Mediterranean and Western Asia","Stratovolcano","Eruption Observed","1650 CE","38.654","42.229","2948","Rhyolite","Intraplate / Continental Crust"
"213030","Tenduruk Dagi","Turkey","Mediterranean and Western Asia","Shield","Eruption Observed","1855 CE","39.356","43.874","3514","Basalt / Picro-Basalt","Intraplate / Continental Crust"
"213040","Ararat","Turkey","Mediterranean and Western Asia","Stratovolcano","Eruption Observed","1840 CE","39.7","44.3","5165","Andesite / Basaltic Andesite","Intraplate / Continental Crust"
"214010","Elbrus","Russia","Mediterranean and Western Asia","Stratovolcano","Eruption Dated","50 CE","43.351","42.442","5642","Dacite","Intraplate / Continental Crust"
"214020","Kazbek","Georgia","Mediterranean and Western Asia","Stratovolcano","Eruption Dated","750 BCE","42.7","44.5","5050","Andesite / Basaltic Andesite","Intraplate / Continental Crust"
"214050","Samsari Volcanic Center","Georgia","Mediterranean and Western Asia","Lava cone","Evidence Uncertain","Unknown","41.542","43.7","3290","Andesite / Basaltic Andesite","Intraplate / Continental Crust"
"214060","Aragats","Armenia","Mediterranean and Western Asia","Stratovolcano","Evidence Credible","Unknown","40.53","44.2","4095","Andesite / Basaltic Andesite","Intraplate / Continental Crust"
"214070","Ghegam Ridge","Armenia","Mediterranean and Western Asia","Volcanic field","Eruption Dated","1900 BCE","40.275","44.75","3597","Andesite / Basaltic Andesite","Intraplate / Continental Crust"
"214080","Dar-Alages","Armenia","Mediterranean and Western Asia","Volcanic field","Eruption Dated","2000 BCE","39.704","45.551","1637","Andesite / Basaltic Andesite","Intraplate / Continental Crust"
"214090","Porak","Armenia-Azerbaijan","Mediterranean and Western Asia","Stratovolcano","Eruption Dated","778 BCE","40.028","45.74","3029","Andesite / Basaltic Andesite","Intraplate / Continental Crust"
"214100","Tskhouk-Karckar","Armenia-Azerbaijan","Mediterranean and Western Asia","Pyroclastic cone","Eruption Dated","3000 BCE","39.73","46.02","3000","Andesite / Basaltic Andesite","Intraplate / Continental Crust"
"221010","Tair, Jebel at","Yemen","Africa and Red Sea","Stratovolcano","Eruption Observed","2008 CE","15.55","41.83","244","Trachybasalt / Tephrite Basanite","Rift Zone / Oceanic Crust"
"221020","Zubair Group","Yemen","Africa and Red Sea","Shield","Eruption Observed","2013 CE","15.05","42.18","191","Basalt / Picro-Basalt","Rift Zone / Oceanic Crust"
"221021","Zukur","Yemen","Africa and Red Sea","Shield","Evidence Credible","Unknown","14.02","42.75","624","Basalt / Picro-Basalt","Rift Zone / Oceanic Crust"
"221022","Hanish","Yemen","Africa and Red Sea","Shield","Evidence Credible","Unknown","13.72","42.73","422","Basalt / Picro-Basalt","Rift Zone / Oceanic Crust"
"221030","Jalua","Eritrea","Africa and Red Sea","Stratovolcano","Evidence Credible","Unknown","15.042","39.82","713","Basalt / Picro-Basalt","Rift Zone / Intermediate Crust"
"221040","Alid","Eritrea","Africa and Red Sea","Stratovolcano","Evidence Credible","Unknown","14.88","39.92","904","Rhyolite","Rift Zone / Intermediate Crust"
"221041","Dallol","Ethiopia","Africa and Red Sea","Explosion crater","Eruption Observed","2011 CE","14.242","40.3","-48","No Data","Rift Zone / Intermediate Crust"
"221050","Gada Ale","Ethiopia","Africa and Red Sea","Stratovolcano","Evidence Credible","Unknown","13.975","40.408","287","Basalt / Picro-Basalt","Rift Zone / Intermediate Crust"
"221060","Alu-Dalafilla","Ethiopia","Africa and Red Sea","Fissure vent","Eruption Observed","2008 CE","13.793","40.553","578","Basalt / Picro-Basalt","Rift Zone / Intermediate Crust"
"221071","Bora Ale","Ethiopia","Africa and Red Sea","Stratovolcano","Evidence Credible","Unknown","13.725","40.6","668","Basalt / Picro-Basalt","Rift Zone / Intermediate Crust"
"221080","Erta Ale","Ethiopia","Africa and Red Sea","Shield","Eruption Observed","2016 CE","13.6","40.67","613","Basalt / Picro-Basalt","Rift Zone / Intermediate Crust"
"221090","Ale Bagu","Ethiopia","Africa and Red Sea","Stratovolcano","Evidence Credible","Unknown","13.52","40.63","1031","Basalt / Picro-Basalt","Rift Zone / Intermediate Crust"
"221091","Hayli Gubbi","Ethiopia","Africa and Red Sea","Shield","Evidence Credible","Unknown","13.5","40.72","521","Basalt / Picro-Basalt","Rift Zone / Intermediate Crust"
"221100","Dubbi","Eritrea","Africa and Red Sea","Stratovolcano","Eruption Observed","1861 CE","13.579","41.809","1625","Basalt / Picro-Basalt","Rift Zone / Intermediate Crust"
"221101","Nabro","Eritrea","Africa and Red Sea","Stratovolcano","Eruption Observed","2012 CE","13.37","41.7","2218","Trachyte / Trachydacite","Rift Zone / Intermediate Crust"
"221102","Mallahle","Ethiopia-Eritrea","Africa and Red Sea","Stratovolcano","Evidence Uncertain","Unknown","13.27","41.65","1875","Trachyte / Trachydacite","Rift Zone / Intermediate Crust"
"221103","Sork Ale","Ethiopia-Eritrea","Africa and Red Sea","Stratovolcano","Evidence Uncertain","Unknown","13.18","41.725","1611","Basalt / Picro-Basalt","Rift Zone / Intermediate Crust"
"221104","Asavyo","Ethiopia","Africa and Red Sea","Shield","Evidence Credible","Unknown","13.098","41.599","1338","Basalt / Picro-Basalt","Rift Zone / Intermediate Crust"
"221105","Mat Ala","Ethiopia","Africa and Red Sea","Shield","Evidence Credible","Unknown","13.106","41.161","493","Basalt / Picro-Basalt","Rift Zone / Intermediate Crust"
"221106","Tat Ali","Ethiopia","Africa and Red Sea","Shield","Evidence Credible","Unknown","13.284","41.063","655","Basalt / Picro-Basalt","Rift Zone / Intermediate Crust"
"221107","Borawli","Ethiopia","Africa and Red Sea","Stratovolcano","Evidence Credible","Unknown","13.304","40.987","784","Basalt / Picro-Basalt","Rift Zone / Intermediate Crust"
"221110","Afdera","Ethiopia","Africa and Red Sea","Stratovolcano","Evidence Uncertain","Unknown","13.088","40.853","1250","Rhyolite","Rift Zone / Intermediate Crust"
"221111","Ma Alalta","Ethiopia","Africa and Red Sea","Stratovolcano","Evidence Credible","Unknown","13.013","40.185","1745","Rhyolite","Rift Zone / Intermediate Crust"
"221112","Alayta","Ethiopia","Africa and Red Sea","Shield","Eruption Observed","1915 CE","12.888","40.573","1496","Basalt / Picro-Basalt","Rift Zone / Intermediate Crust"
"221113","Dabbahu","Ethiopia","Africa and Red Sea","Stratovolcano","Eruption Observed","2005 CE","12.595","40.48","1401","Basalt / Picro-Basalt","Rift Zone / Intermediate Crust"
"221114","Dabbayra","Ethiopia","Africa and Red Sea","Shield","Evidence Credible","Unknown","12.38","40.07","1302","Basalt / Picro-Basalt","Rift Zone / Intermediate Crust"
"221115","Manda Hararo","Ethiopia","Africa and Red Sea","Shield","Eruption Observed","2009 CE","12.17","40.82","600","Basalt / Picro-Basalt","Rift Zone / Intermediate Crust"
"221116","Groppo","Ethiopia","Africa and Red Sea","Stratovolcano","Evidence Credible","Unknown","11.73","40.25","930","Rhyolite","Rift Zone / Intermediate Crust"
"221120","Kurub","Ethiopia","Africa and Red Sea","Shield","Evidence Credible","Unknown","11.88","41.208","625","Basalt / Picro-Basalt","Rift Zone / Intermediate Crust"
"221121","Borawli","Ethiopia","Africa and Red Sea","Lava dome","Evidence Credible","Unknown","11.63","41.45","875","Rhyolite","Rift Zone / Intermediate Crust"
"221122","Manda-Inakir","Ethiopia-Djibouti","Africa and Red Sea","Fissure vent","Eruption Observed","1928 CE","12.38","42.2","600","Basalt / Picro-Basalt","Rift Zone / Intermediate Crust"
"221123","Mousa Alli","Ethiopia-Eritrea-Djibouti","Africa and Red Sea","Stratovolcano","Evidence Credible","Unknown","12.47","42.4","2028","Rhyolite","Rift Zone / Intermediate Crust"
"221124","Gufa","Eritrea-Djibouti","Africa and Red Sea","Volcanic field","Evidence Credible","Unknown","12.55","42.53","600","Basalt / Picro-Basalt","Rift Zone / Intermediate Crust"
"221125","Assab Volcanic Field","Eritrea","Africa and Red Sea","Volcanic field","Evidence Credible","Unknown","12.95","42.43","987","Basalt / Picro-Basalt","Rift Zone / Intermediate Crust"
"221126","Ardoukoba","Djibouti","Africa and Red Sea","Fissure vent","Eruption Observed","1978 CE","11.58","42.47","298","Basalt / Picro-Basalt","Rift Zone / Intermediate Crust"
"221127","Manda Gargori","Ethiopia","Africa and Red Sea","Fissure vent","Evidence Credible","Unknown","11.75","41.48","0","Basalt / Picro-Basalt","Rift Zone / Intermediate Crust"
"221141","Dama Ali","Ethiopia","Africa and Red Sea","Shield","Eruption Observed","1631 CE","11.28","41.63","1068","Basalt / Picro-Basalt","Rift Zone / Intermediate Crust"
"221150","Gabillema","Ethiopia","Africa and Red Sea","Stratovolcano","Evidence Credible","Unknown","11.08","41.27","1459","Rhyolite","Rift Zone / Intermediate Crust"
"221151","Yangudi","Ethiopia","Africa and Red Sea","Complex","Evidence Credible","Unknown","10.58","41.042","1383","Rhyolite","Rift Zone / Intermediate Crust"
"221160","Ayelu","Ethiopia","Africa and Red Sea","Stratovolcano","Evidence Credible","Unknown","10.082","40.702","2145","Rhyolite","Rift Zone / Intermediate Crust"
"221170","Adwa","Ethiopia","Africa and Red Sea","Stratovolcano","Evidence Credible","Unknown","10.07","40.84","1733","Rhyolite","Rift Zone / Intermediate Crust"
"221171","Hertali","Ethiopia","Africa and Red Sea","Fissure vent","Evidence Credible","Unknown","9.78","40.33","900","Basalt / Picro-Basalt","Rift Zone / Intermediate Crust"
"221172","Liado Hayk","Ethiopia","Africa and Red Sea","Maar","Evidence Uncertain","Unknown","9.57","40.28","878","No Data","Rift Zone / Continental Crust"
"221180","Dofan","Ethiopia","Africa and Red Sea","Stratovolcano","Evidence Credible","Unknown","9.35","40.13","1151","Rhyolite","Rift Zone / Continental Crust"
"221190","Fentale","Ethiopia","Africa and Red Sea","Stratovolcano","Eruption Observed","1820 CE","8.975","39.93","2007","Rhyolite","Rift Zone / Continental Crust"
"221191","Beru","Ethiopia","Africa and Red Sea","Volcanic field","Evidence Credible","Unknown","8.95","39.75","1100","Basalt / Picro-Basalt","Rift Zone / Continental Crust"
"221200","Kone","Ethiopia","Africa and Red Sea","Caldera","Eruption Observed","1820 CE","8.8","39.692","1619","Rhyolite","Rift Zone / Continental Crust"
"221201","Unnamed","Ethiopia","Africa and Red Sea","Pyroclastic cone","Evidence Credible","Unknown","8.698","39.64","1413","Basalt / Picro-Basalt","Rift Zone / Continental Crust"
"221210","Boset-Bericha","Ethiopia","Africa and Red Sea","Stratovolcano","Evidence Credible","Unknown","8.558","39.475","2447","Rhyolite","Rift Zone / Continental Crust"
"221220","Bishoftu Volcanic Field","Ethiopia","Africa and Red Sea","Fissure vent","Evidence Credible","Unknown","8.78","38.98","1850","Basalt / Picro-Basalt","Rift Zone / Continental Crust"
"221222","Sodore","Ethiopia","Africa and Red Sea","Pyroclastic cone","Evidence Credible","Unknown","8.43","39.35","1765","Basalt / Picro-Basalt","Intraplate / Continental Crust"
"221230","Gedamsa","Ethiopia","Africa and Red Sea","Caldera","Evidence Credible","Unknown","8.35","39.18","1984","Rhyolite","Rift Zone / Continental Crust"
"221240","Bora-Bericcio","Ethiopia","Africa and Red Sea","Pyroclastic cone","Evidence Credible","Unknown","8.221","39.05","2267","Rhyolite","Rift Zone / Continental Crust"
"221250","Tullu Moje","Ethiopia","Africa and Red Sea","Pyroclastic cone","Eruption Observed","1900 CE","8.159","39.137","2343","Rhyolite","Rift Zone / Continental Crust"
"221251","Unnamed","Ethiopia","Africa and Red Sea","Fissure vent","Evidence Credible","Unknown","8.013","39.062","1886","Basalt / Picro-Basalt","Intraplate / Continental Crust"
"221252","East Zway","Ethiopia","Africa and Red Sea","Fissure vent","Evidence Credible","Unknown","7.874","38.902","1889","Basalt / Picro-Basalt","Rift Zone / Continental Crust"
"221260","Butajiri-Silti Field","Ethiopia","Africa and Red Sea","Fissure vent","Evidence Credible","Unknown","8.05","38.35","2281","Basalt / Picro-Basalt","Rift Zone / Continental Crust"
"221270","Alutu","Ethiopia","Africa and Red Sea","Stratovolcano","Eruption Dated","50 BCE","7.77","38.78","2335","Rhyolite","Rift Zone / Continental Crust"
"221280","O'a Caldera","Ethiopia","Africa and Red Sea","Caldera","Evidence Credible","Unknown","7.47","38.58","2075","Rhyolite","Rift Zone / Continental Crust"
"221290","Corbetti Caldera","Ethiopia","Africa and Red Sea","Caldera","Evidence Credible","Unknown","7.18","38.43","2320","Rhyolite","Rift Zone / Continental Crust"
"221291","Bilate River Field","Ethiopia","Africa and Red Sea","Maar","Unrest / Holocene","Unknown","7.07","38.1","1700","No Data","Intraplate / Continental Crust"
"221292","Tepi","Ethiopia","Africa and Red Sea","Shield","Unrest / Holocene","Unknown","7.42","35.43","2728","Basalt / Picro-Basalt","Intraplate / Continental Crust"
"221293","Hobicha Caldera","Ethiopia","Africa and Red Sea","Caldera","Evidence Uncertain","Unknown","6.78","37.83","1800","Basalt / Picro-Basalt","Intraplate / Continental Crust"
"221300","Chiracha","Ethiopia","Africa and Red Sea","Stratovolcano","Evidence Uncertain","Unknown","6.712","38.085","1636","Rhyolite","Rift Zone / Continental Crust"
"221310","Tosa Sucha","Ethiopia","Africa and Red Sea","Pyroclastic cone","Evidence Credible","Unknown","5.93","37.57","1650","Basalt / Picro-Basalt","Rift Zone / Continental Crust"
"221311","Unnamed","Ethiopia","Africa and Red Sea","Pyroclastic cone","Evidence Credible","Unknown","5.65","37.67","1200","Basalt / Picro-Basalt","Rift Zone / Intermediate Crust"
"221320","Korath Range","Ethiopia","Africa and Red Sea","Tuff cone","Evidence Uncertain","Unknown","5.1","35.88","912","Trachybasalt / Tephrite Basanite","Rift Zone / Intermediate Crust"
"221330","Mega Basalt Field","Ethiopia-Kenya","Africa and Red Sea","Pyroclastic cone","Evidence Credible","Unknown","4.08","37.42","1067","Basalt / Picro-Basalt","Rift Zone / Intermediate Crust"
"222001","North Island","Kenya","Africa and Red Sea","Tuff cone","Evidence Credible","Unknown","4.059","36.049","490","Trachyandesite / Basaltic Trachyandesite","Rift Zone / Continental Crust"
"222010","Central Island","Kenya","Africa and Red Sea","Tuff cone","Evidence Credible","Unknown","3.496","36.04","518","Basalt / Picro-Basalt","Rift Zone / Continental Crust"
"222020","South Island","Kenya","Africa and Red Sea","Stratovolcano","Eruption Observed","1888 CE","2.63","36.6","800","Basalt / Picro-Basalt","Rift Zone / Continental Crust"
"222021","Marsabit","Kenya","Africa and Red Sea","Shield","Evidence Uncertain","Unknown","2.32","37.97","1707","Basalt / Picro-Basalt","Rift Zone / Continental Crust"
"222030","Barrier, The","Kenya","Africa and Red Sea","Shield","Eruption Observed","1921 CE","2.32","36.57","1032","Trachyte / Trachydacite","Rift Zone / Continental Crust"
"222040","Namarunu","Kenya","Africa and Red Sea","Shield","Eruption Dated","6550 BCE","1.98","36.43","817","Basalt / Picro-Basalt","Rift Zone / Continental Crust"
"222050","Segererua Plateau","Kenya","Africa and Red Sea","Pyroclastic cone","Evidence Credible","Unknown","1.57","37.9","699","Basalt / Picro-Basalt","Rift Zone / Continental Crust"
"222051","Emuruangogolak","Kenya","Africa and Red Sea","Shield","Eruption Dated","1910 CE","1.5","36.33","1285","Trachyte / Trachydacite","Rift Zone / Continental Crust"
"222052","Silali","Kenya","Africa and Red Sea","Shield","Eruption Dated","5050 BCE","1.15","36.23","1528","Trachyte / Trachydacite","Rift Zone / Continental Crust"
"222053","Paka","Kenya","Africa and Red Sea","Shield","Eruption Dated","7550 BCE","0.92","36.18","1697","Trachyte / Trachydacite","Rift Zone / Continental Crust"
"222054","Korosi","Kenya","Africa and Red Sea","Shield","Evidence Credible","Unknown","0.77","36.12","1446","Trachyte / Trachydacite","Rift Zone / Continental Crust"
"222055","Ol Kokwe","Kenya","Africa and Red Sea","Shield","Evidence Credible","Unknown","0.62","36.075","1130","Basalt / Picro-Basalt","Rift Zone / Continental Crust"
"222056","Nyambeni Hills","Kenya","Africa and Red Sea","Shield","Evidence Credible","Unknown","0.23","37.87","750","Basalt / Picro-Basalt","Rift Zone / Continental Crust"
"222060","Menengai","Kenya","Africa and Red Sea","Shield","Eruption Dated","6050 BCE","-0.2","36.07","2278","Trachyte / Trachydacite","Rift Zone / Continental Crust"
"222070","Homa Mountain","Kenya","Africa and Red Sea","Complex","Evidence Credible","Unknown","-0.38","34.5","1751","Foidite","Rift Zone / Continental Crust"
"222071","Elmenteita Badlands","Kenya","Africa and Red Sea","Pyroclastic cone","Evidence Credible","Unknown","-0.52","36.27","2126","Basalt / Picro-Basalt","Rift Zone / Continental Crust"
"222080","Eburru, Ol Doinyo","Kenya","Africa and Red Sea","Complex","Evidence Credible","Unknown","-0.65","36.22","2856","Rhyolite","Rift Zone / Continental Crust"
"222090","Olkaria","Kenya","Africa and Red Sea","Pyroclastic cone","Eruption Dated","1770 CE","-0.904","36.292","2434","Rhyolite","Rift Zone / Continental Crust"
"222100","Longonot","Kenya","Africa and Red Sea","Stratovolcano","Eruption Dated","1863 CE","-0.914","36.446","2776","Trachyte / Trachydacite","Rift Zone / Continental Crust"
"222110","Suswa","Kenya","Africa and Red Sea","Shield","Evidence Credible","Unknown","-1.151","36.357","2356","Phonolite","Rift Zone / Continental Crust"
"222120","Lengai, Ol Doinyo","Tanzania","Africa and Red Sea","Stratovolcano","Eruption Observed","2013 CE","-2.764","35.914","2962","Foidite","Rift Zone / Continental Crust"
"222130","Chyulu Hills","Kenya","Africa and Red Sea","Volcanic field","Eruption Dated","1855 CE","-2.68","37.88","2188","Trachybasalt / Tephrite Basanite","Rift Zone / Continental Crust"
"222150","Kilimanjaro","Tanzania","Africa and Red Sea","Stratovolcano","Evidence Credible","Unknown","-3.07","37.35","5895","Phonolite","Rift Zone / Continental Crust"
"222160","Meru","Tanzania","Africa and Red Sea","Stratovolcano","Eruption Observed","1910 CE","-3.25","36.75","4565","Phonolite","Rift Zone / Continental Crust"
"222161","Igwisi Hills","Tanzania","Africa and Red Sea","Pyroclastic cone","Eruption Dated","10450 BCE","-4.889","31.933","1146","Foidite","Rift Zone / Continental Crust"
"222164","Ngozi","Tanzania","Africa and Red Sea","Caldera","Eruption Dated","1450 CE","-8.989","33.554","2614","Trachyte / Trachydacite","Rift Zone / Continental Crust"
"222166","Rungwe","Tanzania","Africa and Red Sea","Stratovolcano","Eruption Dated","1250 CE","-9.135","33.668","2953","Trachyte / Trachydacite","Rift Zone / Continental Crust"
"222170","Kyejo","Tanzania","Africa and Red Sea","Stratovolcano","Eruption Observed","1800 CE","-9.229","33.792","2176","Trachyte / Trachydacite","Rift Zone / Continental Crust"
"222803","Bogoria","Kenya","Africa and Red Sea","Shield","Unrest / Pleistocene","Unknown","0.25","36.08","0","","Rift Zone / Continental Crust"
"223001","Fort Portal","Uganda","Africa and Red Sea","Tuff cone","Eruption Dated","2120 BCE","0.7","30.25","1615","Foidite","Rift Zone / Continental Crust"
"223002","Kyatwa","Uganda","Africa and Red Sea","Tuff cone","Evidence Uncertain","Unknown","0.45","30.25","1430","Foidite","Rift Zone / Continental Crust"
"223003","Katwe-Kikorongo","Uganda","Africa and Red Sea","Tuff cone","Evidence Credible","Unknown","-0.08","29.92","1067","Foidite","Rift Zone / Continental Crust"
"223004","Bunyaruguru","Uganda","Africa and Red Sea","Maar","Evidence Credible","Unknown","-0.2","30.08","1554","Foidite","Rift Zone / Continental Crust"
"223005","Katunga","Uganda","Africa and Red Sea","Tuff cone","Evidence Credible","Unknown","-0.471","30.191","1707","Foidite","Rift Zone / Continental Crust"
"223020","Nyamuragira","DR Congo","Africa and Red Sea","Shield","Eruption Observed","2015 CE","-1.408","29.2","3058","Trachybasalt / Tephrite Basanite","Rift Zone / Continental Crust"
"223030","Nyiragongo","DR Congo","Africa and Red Sea","Stratovolcano","Eruption Observed","2016 CE","-1.52","29.25","3470","Foidite","Rift Zone / Continental Crust"
"223040","Karisimbi","DR Congo-Rwanda","Africa and Red Sea","Stratovolcano","Eruption Dated","8050 BCE","-1.506","29.45","4490","Trachybasalt / Tephrite Basanite","Rift Zone / Continental Crust"
"223050","Visoke","DR Congo-Rwanda","Africa and Red Sea","Stratovolcano","Eruption Observed","1957 CE","-1.458","29.485","3696","Trachyandesite / Basaltic Trachyandesite","Rift Zone / Continental Crust"
"223060","Muhavura","Uganda-Rwanda","Africa and Red Sea","Stratovolcano","Evidence Credible","Unknown","-1.383","29.678","4103","Trachybasalt / Tephrite Basanite","Rift Zone / Continental Crust"
"223070","Bufumbira","Uganda","Africa and Red Sea","Pyroclastic cone","Evidence Uncertain","Unknown","-1.23","29.72","2440","Phono-tephrite /  Tephri-phonolite","Rift Zone / Continental Crust"
"223080","Tshibinda","DR Congo","Africa and Red Sea","Pyroclastic cone","Evidence Credible","Unknown","-2.32","28.75","1460","Basalt / Picro-Basalt","Rift Zone / Continental Crust"
"224002","San Carlos","Equatorial Guinea","Africa and Red Sea","Shield","Evidence Credible","Unknown","3.35","8.52","2260","Basalt / Picro-Basalt","Intraplate / Continental Crust"
"224003","San Joaquin","Equatorial Guinea","Africa and Red Sea","Shield","Evidence Credible","Unknown","3.35","8.63","2009","Basalt / Picro-Basalt","Intraplate / Continental Crust"
"224004","Santa Isabel","Equatorial Guinea","Africa and Red Sea","Shield","Eruption Observed","1923 CE","3.58","8.75","3007","Basalt / Picro-Basalt","Intraplate / Continental Crust"
"224010","Cameroon","Cameroon","Africa and Red Sea","Stratovolcano","Eruption Observed","2000 CE","4.203","9.17","4095","Trachybasalt / Tephrite Basanite","Intraplate / Continental Crust"
"224011","Tombel Graben","Cameroon","Africa and Red Sea","Pyroclastic cone","Evidence Credible","Unknown","4.758","9.717","500","Trachybasalt / Tephrite Basanite","Intraplate / Continental Crust"
"224030","Oku Volcanic Field","Cameroon","Africa and Red Sea","Stratovolcano","Evidence Uncertain","Unknown","6.25","10.5","3011","Basalt / Picro-Basalt","Intraplate / Continental Crust"
"224040","Ngaoundere Plateau","Cameroon","Africa and Red Sea","Volcanic field","Evidence Uncertain","Unknown","7.25","13.67","0","Trachybasalt / Tephrite Basanite","Intraplate / Continental Crust"
"224050","Biu Plateau","Nigeria","Africa and Red Sea","Volcanic field","Evidence Uncertain","Unknown","10.75","12","0","Basalt / Picro-Basalt","Intraplate / Continental Crust"
"225001","Todra Volcanic Field","Niger","Africa and Red Sea","Pyroclastic cone","Evidence Credible","Unknown","17.68","8.5","1780","Basalt / Picro-Basalt","Intraplate / Continental Crust"
"225002","Tin Zaouatene Volcanic Field","Mali","Africa and Red Sea","Volcanic field","Evidence Credible","Unknown","19.83","2.83","0","Trachybasalt / Tephrite Basanite","Intraplate / Continental Crust"
"225003","In Ezzane Volcanic Field","Algeria-Niger","Africa and Red Sea","Volcanic field","Evidence Uncertain","Unknown","23","10.83","0","Trachybasalt / Tephrite Basanite","Intraplate / Continental Crust"
"225004","Tahalra Volcanic Field","Algeria","Africa and Red Sea","Pyroclastic cone","Evidence Credible","Unknown","22.67","5","1467","Trachybasalt / Tephrite Basanite","Intraplate / Continental Crust"
"225005","Atakor Volcanic Field","Algeria","Africa and Red Sea","Pyroclastic cone","Evidence Credible","Unknown","23.33","5.83","2918","Trachybasalt / Tephrite Basanite","Intraplate / Continental Crust"
"225006","Manzaz Volcanic Field","Algeria","Africa and Red Sea","Pyroclastic cone","Evidence Credible","Unknown","23.92","5.83","1672","Trachybasalt / Tephrite Basanite","Intraplate / Continental Crust"
"225009","Toh, Tarso","Chad","Africa and Red Sea","Volcanic field","Evidence Credible","Unknown","21.33","16.33","2000","Basalt / Picro-Basalt","Intraplate / Continental Crust"
"225010","Tousside, Tarso","Chad","Africa and Red Sea","Stratovolcano","Evidence Credible","Unknown","21.03","16.45","3265","Trachyte / Trachydacite","Intraplate / Continental Crust"
"225020","Voon, Tarso","Chad","Africa and Red Sea","Stratovolcano","Unrest / Holocene","Unknown","20.92","17.28","3100","Trachyte / Trachydacite","Intraplate / Continental Crust"
"225021","Koussi, Emi","Chad","Africa and Red Sea","Pyroclastic shield","Evidence Credible","Unknown","19.8","18.53","3415","Trachyte / Trachydacite","Intraplate / Continental Crust"
"225030","Marra, Jebel","Sudan","Africa and Red Sea","Volcanic field","Eruption Dated","2000 BCE","12.95","24.27","3042","Basalt / Picro-Basalt","Intraplate / Continental Crust"
"225040","Kutum Volcanic Field","Sudan","Africa and Red Sea","Pyroclastic cone","Evidence Uncertain","Unknown","14.57","25.85","0","Basalt / Picro-Basalt","Intraplate / Continental Crust"
"225050","Meidob Volcanic Field","Sudan","Africa and Red Sea","Pyroclastic cone","Eruption Dated","2950 BCE","15.32","26.47","2000","Trachybasalt / Tephrite Basanite","Intraplate / Continental Crust"
"225060","Bayuda Volcanic Field","Sudan","Africa and Red Sea","Pyroclastic cone","Eruption Dated","850 CE","18.33","32.75","670","Trachybasalt / Tephrite Basanite","Intraplate / Continental Crust"
"230010","Sharat Kovakab","Syria","Middle East and Indian Ocean","Volcanic field","Evidence Credible","Unknown","36.53","40.85","534","Basalt / Picro-Basalt","Rift Zone / Continental Crust"
"230020","Unnamed","Syria","Middle East and Indian Ocean","Volcanic field","Eruption Observed","1222 CE","36.67","37","0","Basalt / Picro-Basalt","Rift Zone / Continental Crust"
"231001","Harrat Ash Shamah","Syria-Jordan-Saudi Arabia","Middle East and Indian Ocean","Volcanic field","Eruption Observed","1850 CE","32.333","37.583","1100","Basalt / Picro-Basalt","Intraplate / Continental Crust"
"231010","Rahah, Harrat ar","Saudi Arabia","Middle East and Indian Ocean","Volcanic field","Evidence Credible","Unknown","27.8","36.17","1950","Basalt / Picro-Basalt","Intraplate / Continental Crust"
"231020","Uwayrid, Harrat","Saudi Arabia","Middle East and Indian Ocean","Volcanic field","Eruption Dated","640 CE","27.08","37.25","1920","Basalt / Picro-Basalt","Intraplate / Continental Crust"
"231040","Lunayyir, Harrat","Saudi Arabia","Middle East and Indian Ocean","Volcanic field","Eruption Observed","1000 CE","25.17","37.75","1370","Basalt / Picro-Basalt","Intraplate / Continental Crust"
"231050","Ithnayn, Harrat","Saudi Arabia","Middle East and Indian Ocean","Volcanic field","Evidence Credible","Unknown","26.58","40.2","1625","Basalt / Picro-Basalt","Intraplate / Continental Crust"
"231060","Khaybar, Harrat","Saudi Arabia","Middle East and Indian Ocean","Volcanic field","Eruption Observed","650 CE","25","39.92","2093","Basalt / Picro-Basalt","Intraplate / Continental Crust"
"231070","Rahat, Harrat","Saudi Arabia","Middle East and Indian Ocean","Volcanic field","Eruption Observed","1256 CE","23.08","39.78","1744","Basalt / Picro-Basalt","Intraplate / Continental Crust"
"231071","Kishb, Harrat","Saudi Arabia","Middle East and Indian Ocean","Volcanic field","Evidence Credible","Unknown","22.8","41.38","1475","Trachybasalt / Tephrite Basanite","Intraplate / Continental Crust"
"231072","Birk, Harrat al","Saudi Arabia","Middle East and Indian Ocean","Volcanic field","Evidence Credible","Unknown","18.37","41.63","587","Basalt / Picro-Basalt","Intraplate / Continental Crust"
"231080","Yar, Jabal","Saudi Arabia","Middle East and Indian Ocean","Volcanic field","Eruption Observed","1810 CE","17.05","42.83","305","Basalt / Picro-Basalt","Intraplate / Continental Crust"
"231090","Arhab, Harra of","Yemen","Middle East and Indian Ocean","Volcanic field","Eruption Observed","500 CE","15.63","44.08","3100","Trachybasalt / Tephrite Basanite","Intraplate / Continental Crust"
"231100","Marha, Jabal el-","Yemen","Middle East and Indian Ocean","Tuff cone","Evidence Uncertain","Unknown","15.245","44.236","2506","Basalt / Picro-Basalt","Intraplate / Continental Crust"
"231110","Haylan, Jabal","Yemen","Middle East and Indian Ocean","Volcanic field","Eruption Dated","1200 BCE","15.4","45.1","1550","Basalt / Picro-Basalt","Intraplate / Continental Crust"
"231120","Dhamar, Harras of","Yemen","Middle East and Indian Ocean","Volcanic field","Eruption Observed","1937 CE","14.57","44.67","3500","Basalt / Picro-Basalt","Intraplate / Continental Crust"
"231160","Sawad, Harra Es-","Yemen","Middle East and Indian Ocean","Volcanic field","Eruption Observed","1253 CE","13.58","46.12","1737","Trachybasalt / Tephrite Basanite","Intraplate / Continental Crust"
"231170","Bal Haf, Harra of","Yemen","Middle East and Indian Ocean","Volcanic field","Evidence Credible","Unknown","14.067","48.3","604","Basalt / Picro-Basalt","Intraplate / Continental Crust"
"231180","Bir Borhut","Yemen","Middle East and Indian Ocean","Volcanic field","Evidence Uncertain","Unknown","15.55","50.63","0","Basalt / Picro-Basalt","Intraplate / Continental Crust"
"232001","Sahand","Iran","Middle East and Indian Ocean","Stratovolcano","Evidence Credible","Unknown","37.75","46.43","3707","Andesite / Basaltic Andesite","Intraplate / Continental Crust"
"232002","Sabalan","Iran","Middle East and Indian Ocean","Stratovolcano","Evidence Credible","Unknown","38.268","47.835","4784","Andesite / Basaltic Andesite","Intraplate / Continental Crust"
"232010","Damavand","Iran","Middle East and Indian Ocean","Stratovolcano","Eruption Dated","5350 BCE","35.951","52.109","5670","Trachyandesite / Basaltic Trachyandesite","Intraplate / Continental Crust"
"232020","Qal'eh Hasan Ali","Iran","Middle East and Indian Ocean","Maar","Evidence Uncertain","Unknown","29.4","57.57","0","Trachybasalt / Tephrite Basanite","Intraplate / Continental Crust"
"232030","Bazman","Iran","Middle East and Indian Ocean","Stratovolcano","Unrest / Holocene","Unknown","28.07","60","3490","Andesite / Basaltic Andesite","Intraplate / Continental Crust"
"232040","Kuh-e Nader","Iran","Middle East and Indian Ocean","Volcanic field","Evidence Uncertain","Unknown","28.17","60.67","1500","Basalt / Picro-Basalt","Intraplate / Continental Crust"
"232050","Taftan","Iran","Middle East and Indian Ocean","Stratovolcano","Evidence Credible","Unknown","28.6","61.13","3940","Andesite / Basaltic Andesite","Intraplate / Continental Crust"
"233001","Grille, La","Comoros","Middle East and Indian Ocean","Shield","Evidence Credible","Unknown","-11.47","43.33","1087","Trachybasalt / Tephrite Basanite","Intraplate / Oceanic Crust"
"233005","Mayotte Island","France","Middle East and Indian Ocean","Shield","Eruption Dated","2050 BCE","-12.83","45.17","660","Basalt / Picro-Basalt","Intraplate / Oceanic Crust"
"233010","Karthala","Comoros","Middle East and Indian Ocean","Shield","Eruption Observed","2007 CE","-11.75","43.38","2361","Basalt / Picro-Basalt","Intraplate / Oceanic Crust"
"233011","Ambre-Bobaomby","Madagascar","Middle East and Indian Ocean","Volcanic field","Evidence Credible","Unknown","-12.6","49.15","1475","Basalt / Picro-Basalt","Intraplate / Continental Crust"
"233012","Nosy-Be","Madagascar","Middle East and Indian Ocean","Pyroclastic cone","Evidence Credible","Unknown","-13.32","48.48","214","Foidite","Intraplate / Continental Crust"
"233013","Ankaizina Field","Madagascar","Middle East and Indian Ocean","Pyroclastic cone","Evidence Credible","Unknown","-14.3","48.67","2878","Basalt / Picro-Basalt","Intraplate / Continental Crust"
"233014","Itasy Volcanic Field","Madagascar","Middle East and Indian Ocean","Pyroclastic cone","Eruption Dated","6050 BCE","-19","46.77","1800","Trachyte / Trachydacite","Intraplate / Continental Crust"
"233015","Ankaratra Field","Madagascar","Middle East and Indian Ocean","Pyroclastic cone","Evidence Credible","Unknown","-19.4","47.2","2644","Trachybasalt / Tephrite Basanite","Intraplate / Continental Crust"
"233020","Fournaise, Piton de la","France","Middle East and Indian Ocean","Shield","Eruption Observed","2016 CE","-21.244","55.708","2632","Basalt / Picro-Basalt","Intraplate / Oceanic Crust"
"234000","Boomerang Seamount","France","Middle East and Indian Ocean","Submarine","Eruption Dated","1995 CE","-37.721","77.825","-650","Basalt / Picro-Basalt","Rift Zone / Oceanic Crust"
"234001","Amsterdam Island","France","Middle East and Indian Ocean","Stratovolcano","Evidence Credible","Unknown","-37.83","77.52","881","Basalt / Picro-Basalt","Rift Zone / Oceanic Crust"
"234002","St. Paul","France","Middle East and Indian Ocean","Stratovolcano","Eruption Observed","1793 CE","-38.72","77.53","268","Basalt / Picro-Basalt","Rift Zone / Oceanic Crust"
"234010","Heard","Australia","Middle East and Indian Ocean","Stratovolcano","Eruption Observed","2016 CE","-53.106","73.513","2745","Trachybasalt / Tephrite Basanite","Intraplate / Oceanic Crust"
"234011","McDonald Islands","Australia","Middle East and Indian Ocean","Complex","Eruption Observed","2005 CE","-53.03","72.6","230","Phonolite","Intraplate / Oceanic Crust"
"234020","Kerguelen Islands","France","Middle East and Indian Ocean","Stratovolcano","Evidence Uncertain","Unknown","-49.58","69.5","1840","Trachyandesite / Basaltic Trachyandesite","Intraplate / Oceanic Crust"
"234030","Est, Ile de l'","France","Middle East and Indian Ocean","Stratovolcano","Evidence Uncertain","Unknown","-46.43","52.2","1090","Basalt / Picro-Basalt","Rift Zone / Oceanic Crust"
"234040","Possession, Ile de la","France","Middle East and Indian Ocean","Stratovolcano","Evidence Credible","Unknown","-46.42","51.75","934","Basalt / Picro-Basalt","Rift Zone / Oceanic Crust"
"234050","Cochons, Ile aux","France","Middle East and Indian Ocean","Stratovolcano","Evidence Credible","Unknown","-46.1","50.23","775","Basalt / Picro-Basalt","Rift Zone / Oceanic Crust"
"234060","Prince Edward Island","South Africa","Middle East and Indian Ocean","Shield","Evidence Credible","Unknown","-46.63","37.95","672","Basalt / Picro-Basalt","Rift Zone / Oceanic Crust"
"234070","Marion Island","South Africa","Middle East and Indian Ocean","Shield","Eruption Observed","2004 CE","-46.9","37.75","1230","Basalt / Picro-Basalt","Rift Zone / Oceanic Crust"
"241010","Kaikohe-Bay of Islands","New Zealand","New Zealand to Fiji","Volcanic field","Eruption Dated","400 CE","-35.3","173.9","388","Trachybasalt / Tephrite Basanite","Subduction Zone / Continental Crust"
"241011","Whangarei","New Zealand","New Zealand to Fiji","Pyroclastic cone","Evidence Uncertain","Unknown","-35.75","174.27","397","Trachybasalt / Tephrite Basanite","Subduction Zone / Continental Crust"
"241020","Auckland Field","New Zealand","New Zealand to Fiji","Volcanic field","Eruption Dated","1350 CE","-36.9","174.87","260","Trachybasalt / Tephrite Basanite","Subduction Zone / Continental Crust"
"241021","Mayor Island","New Zealand","New Zealand to Fiji","Shield","Eruption Dated","5060 BCE","-37.28","176.25","355","Rhyolite","Subduction Zone / Continental Crust"
"241030","Taranaki [Egmont]","New Zealand","New Zealand to Fiji","Stratovolcano","Eruption Observed","1854 CE","-39.3","174.07","2518","Andesite / Basaltic Andesite","Subduction Zone / Continental Crust"
"241040","White Island","New Zealand","New Zealand to Fiji","Stratovolcano","Eruption Observed","2016 CE","-37.52","177.18","321","Andesite / Basaltic Andesite","Subduction Zone / Continental Crust"
"241050","Okataina","New Zealand","New Zealand to Fiji","Lava dome","Eruption Observed","1981 CE","-38.12","176.5","1111","Rhyolite","Subduction Zone / Continental Crust"
"241060","Reporoa","New Zealand","New Zealand to Fiji","Caldera","Eruption Dated","1180 CE","-38.42","176.33","592","Rhyolite","Subduction Zone / Continental Crust"
"241061","Maroa","New Zealand","New Zealand to Fiji","Caldera","Eruption Dated","180 CE","-38.42","176.08","897","Rhyolite","Subduction Zone / Continental Crust"
"241070","Taupo","New Zealand","New Zealand to Fiji","Caldera","Eruption Dated","260 CE","-38.82","176","760","Rhyolite","Subduction Zone / Continental Crust"
"241080","Tongariro","New Zealand","New Zealand to Fiji","Stratovolcano","Eruption Observed","2012 CE","-39.157","175.632","1978","Andesite / Basaltic Andesite","Subduction Zone / Continental Crust"
"241100","Ruapehu","New Zealand","New Zealand to Fiji","Stratovolcano","Eruption Observed","2007 CE","-39.28","175.57","2797","Andesite / Basaltic Andesite","Subduction Zone / Continental Crust"
"241101","Clark","New Zealand","New Zealand to Fiji","Submarine","Unrest / Holocene","Unknown","-36.446","177.839","-860","Basalt / Picro-Basalt","Subduction Zone / Oceanic Crust"
"241102","Tangaroa","New Zealand","New Zealand to Fiji","Submarine","Unrest / Holocene","Unknown","-36.321","178.028","-600","Basalt / Picro-Basalt","Subduction Zone / Oceanic Crust"
"241110","Rumble V","New Zealand","New Zealand to Fiji","Submarine","Unrest / Holocene","Unknown","-36.142","178.196","-400","Andesite / Basaltic Andesite","Subduction Zone / Oceanic Crust"
"241120","Rumble IV","New Zealand","New Zealand to Fiji","Submarine","Unrest / Holocene","Unknown","-36.13","178.05","-500","Andesite / Basaltic Andesite","Subduction Zone / Oceanic Crust"
"241130","Rumble III","New Zealand","New Zealand to Fiji","Submarine","Eruption Observed","2008 CE","-35.745","178.478","-220","Andesite / Basaltic Andesite","Subduction Zone / Oceanic Crust"
"241131","Rumble II West","New Zealand","New Zealand to Fiji","Submarine","Unrest / Holocene","Unknown","-35.353","178.527","-1200","Andesite / Basaltic Andesite","Subduction Zone / Oceanic Crust"
"241140","Healy","New Zealand","New Zealand to Fiji","Submarine","Eruption Dated","1360 CE","-35.004","178.973","-980","Dacite","Subduction Zone / Oceanic Crust"
"241150","Brothers","New Zealand","New Zealand to Fiji","Submarine","Unrest / Holocene","Unknown","-34.875","179.075","-1350","Dacite","Subduction Zone / Oceanic Crust"
"241815","Moutohora Island","New Zealand","New Zealand to Fiji","Complex","Unrest / Pleistocene","Unknown","-37.858","176.98","354","","Subduction Zone / Continental Crust"
"241816","Rotorua","New Zealand","New Zealand to Fiji","Caldera","Unrest / Pleistocene","Unknown","-38.08","176.27","757","","Subduction Zone / Continental Crust"
"242001","Wright","New Zealand","New Zealand to Fiji","Submarine","Unrest / Holocene","Unknown","-31.85","-179.18","-900","Basalt / Picro-Basalt","Subduction Zone / Oceanic Crust"
"242005","Havre Seamount","New Zealand","New Zealand to Fiji","Submarine","Eruption Observed","2012 CE","-31.08","-179.033","-897","","Subduction Zone / Oceanic Crust"
"242010","Curtis Island","New Zealand","New Zealand to Fiji","Submarine","Unrest / Holocene","Unknown","-30.543","-178.556","47","Andesite / Basaltic Andesite","Subduction Zone / Oceanic Crust"
"242021","Macauley","New Zealand","New Zealand to Fiji","Caldera","Eruption Dated","4360 BCE","-30.21","-178.475","238","Basalt / Picro-Basalt","Subduction Zone / Oceanic Crust"
"242022","Giggenbach","New Zealand","New Zealand to Fiji","Submarine","Unrest / Holocene","Unknown","-30.036","-178.712","-65","Basalt / Picro-Basalt","Subduction Zone / Oceanic Crust"
"242030","Raoul Island","New Zealand","New Zealand to Fiji","Stratovolcano","Eruption Observed","2006 CE","-29.27","-177.92","516","Andesite / Basaltic Andesite","Subduction Zone / Oceanic Crust"
"242050","Monowai","New Zealand","New Zealand to Fiji","Submarine","Eruption Observed","2012 CE","-25.887","-177.188","-132","Basalt / Picro-Basalt","Subduction Zone / Oceanic Crust"
"243001","Unnamed","Undersea Features","New Zealand to Fiji","Submarine","Unrest / Holocene","Unknown","-24.8","-177.02","-385","Basalt / Picro-Basalt","Subduction Zone / Oceanic Crust"
"243010","Unnamed","Tonga","New Zealand to Fiji","Submarine","Eruption Observed","1932 CE","-21.38","-175.65","-500","No Data","Subduction Zone / Oceanic Crust"
"243011","Unnamed","Tonga","New Zealand to Fiji","Submarine","Evidence Credible","Unknown","-21.15","-175.75","-65","Andesite / Basaltic Andesite","Subduction Zone / Oceanic Crust"
"243030","Unnamed","Tonga","New Zealand to Fiji","Submarine","Eruption Observed","1999 CE","-20.85","-175.53","-13","No Data","Subduction Zone / Oceanic Crust"
"243040","Hunga Tonga-Hunga Ha'apai","Tonga","New Zealand to Fiji","Submarine","Eruption Observed","2015 CE","-20.536","-175.382","114","Andesite / Basaltic Andesite","Subduction Zone / Oceanic Crust"
"243050","Falcon Island","Tonga","New Zealand to Fiji","Submarine","Eruption Observed","1936 CE","-20.32","-175.42","-17","Andesite / Basaltic Andesite","Subduction Zone / Oceanic Crust"
"243060","Tofua","Tonga","New Zealand to Fiji","Caldera","Eruption Observed","2014 CE","-19.75","-175.07","515","Andesite / Basaltic Andesite","Subduction Zone / Oceanic Crust"
"243061","Kao","Tonga","New Zealand to Fiji","Stratovolcano","Evidence Credible","Unknown","-19.67","-175.03","1030","Andesite / Basaltic Andesite","Subduction Zone / Oceanic Crust"
"243070","Metis Shoal","Tonga","New Zealand to Fiji","Submarine","Eruption Observed","1995 CE","-19.18","-174.87","43","Dacite","Subduction Zone / Oceanic Crust"
"243080","Home Reef","Tonga","New Zealand to Fiji","Submarine","Eruption Observed","2006 CE","-18.992","-174.775","-10","Dacite","Subduction Zone / Oceanic Crust"
"243090","Late","Tonga","New Zealand to Fiji","Stratovolcano","Eruption Observed","1854 CE","-18.806","-174.65","540","Andesite / Basaltic Andesite","Subduction Zone / Oceanic Crust"
"243091","Unnamed","Tonga","New Zealand to Fiji","Submarine","Eruption Observed","2001 CE","-18.325","-174.365","-40","Dacite","Subduction Zone / Oceanic Crust"
"243100","Fonualei","Tonga","New Zealand to Fiji","Stratovolcano","Eruption Observed","1957 CE","-18.02","-174.325","180","Dacite","Subduction Zone / Oceanic Crust"
"243101","Tafahi","Tonga","New Zealand to Fiji","Stratovolcano","Evidence Uncertain","Unknown","-15.85","-173.72","560","Andesite / Basaltic Andesite","Subduction Zone / Oceanic Crust"
"243102","Curacoa","Tonga","New Zealand to Fiji","Submarine","Eruption Observed","1979 CE","-15.62","-173.67","-33","Dacite","Subduction Zone / Oceanic Crust"
"243110","Niuafo'ou","Tonga","New Zealand to Fiji","Shield","Eruption Observed","1985 CE","-15.6","-175.63","260","Basalt / Picro-Basalt","Subduction Zone / Oceanic Crust"
"243111","Dugong","Tonga","New Zealand to Fiji","Submarine","Evidence Uncertain","Unknown","-15.431","-175.725","-1170","",""
"243112","Lobster","Tonga","New Zealand to Fiji","Submarine","Evidence Uncertain","Unknown","-15.333","-176.283","-1500","",""
"243120","Tafu-Maka","Tonga","New Zealand to Fiji","Submarine","Eruption Observed","2008 CE","-15.37","-174.23","-1400","Basalt / Picro-Basalt","Rift Zone / Oceanic Crust"
"243130","West Mata","Tonga","New Zealand to Fiji","Submarine","Eruption Observed","2009 CE","-15.1","-173.75","-1174","Andesite / Basaltic Andesite","Subduction Zone / Oceanic Crust"
"243140","Niuatahi","Tonga","New Zealand to Fiji","Caldera","Unrest / Holocene","Unknown","-15.379","-174.003","-1270","","Subduction Zone / Oceanic Crust"
"244000","Vailulu'u","United States","New Zealand to Fiji","Submarine","Eruption Observed","2003 CE","-14.215","-169.058","-592","Basalt / Picro-Basalt","Subduction Zone / Oceanic Crust"
"244001","Ta'u","United States","New Zealand to Fiji","Shield","Evidence Credible","Unknown","-14.23","-169.454","931","Basalt / Picro-Basalt","Subduction Zone / Oceanic Crust"
"244010","Ofu-Olosega","United States","New Zealand to Fiji","Shield","Eruption Observed","1866 CE","-14.175","-169.618","639","Basalt / Picro-Basalt","Subduction Zone / Oceanic Crust"
"244020","Tutuila","United States","New Zealand to Fiji","Tuff cone","Evidence Credible","Unknown","-14.295","-170.7","653","Basalt / Picro-Basalt","Subduction Zone / Oceanic Crust"
"244030","Upolu","Samoa","New Zealand to Fiji","Shield","Evidence Credible","Unknown","-13.935","-171.72","1100","Basalt / Picro-Basalt","Subduction Zone / Oceanic Crust"
"244040","Savai'i","Samoa","New Zealand to Fiji","Shield","Eruption Observed","1911 CE","-13.612","-172.525","1858","Basalt / Picro-Basalt","Subduction Zone / Oceanic Crust"
"244050","Wallis Islands","France","New Zealand to Fiji","Shield","Evidence Credible","Unknown","-13.3","-176.17","143","Basalt / Picro-Basalt","Subduction Zone / Oceanic Crust"
"245010","Taveuni","Fiji","New Zealand to Fiji","Shield","Eruption Dated","1550 CE","-16.82","-179.97","1241","Basalt / Picro-Basalt","Subduction Zone / Crust Thickness Unknown"
"245020","Koro","Fiji","New Zealand to Fiji","Pyroclastic cone","Evidence Uncertain","Unknown","-17.32","179.4","522","Basalt / Picro-Basalt","Subduction Zone / Crust Thickness Unknown"
"245030","Nabukelevu","Fiji","New Zealand to Fiji","Lava dome","Eruption Dated","1660 CE","-19.12","177.98","805","Andesite / Basaltic Andesite","Subduction Zone / Crust Thickness Unknown"
"250010","St. Andrew Strait","Papua New Guinea","Melanesia and Australia","Complex","Eruption Observed","1957 CE","-2.38","147.35","270","Rhyolite","Subduction Zone / Oceanic Crust"
"250020","Baluan","Papua New Guinea","Melanesia and Australia","Stratovolcano","Evidence Uncertain","Unknown","-2.57","147.28","254","Basalt / Picro-Basalt","Subduction Zone / Continental Crust"
"250030","Unnamed","Papua New Guinea","Melanesia and Australia","Submarine","Eruption Dated","1972 CE","-3.03","147.78","-1300","No Data","Rift Zone / Continental Crust"
"251001","Blup Blup","Papua New Guinea","Melanesia and Australia","Stratovolcano","Evidence Credible","Unknown","-3.507","144.605","402","Andesite / Basaltic Andesite","Subduction Zone / Continental Crust"
"251002","Kadovar","Papua New Guinea","Melanesia and Australia","Stratovolcano","Evidence Credible","Unknown","-3.608","144.588","365","Andesite / Basaltic Andesite","Subduction Zone / Continental Crust"
"251010","Bam","Papua New Guinea","Melanesia and Australia","Stratovolcano","Eruption Observed","1960 CE","-3.613","144.818","685","Andesite / Basaltic Andesite","Subduction Zone / Continental Crust"
"251011","Boisa","Papua New Guinea","Melanesia and Australia","Stratovolcano","Evidence Uncertain","Unknown","-3.994","144.963","240","Basalt / Picro-Basalt","Subduction Zone / Continental Crust"
"251020","Manam","Papua New Guinea","Melanesia and Australia","Stratovolcano","Eruption Observed","2016 CE","-4.08","145.037","1807","Basalt / Picro-Basalt","Subduction Zone / Continental Crust"
"251030","Karkar","Papua New Guinea","Melanesia and Australia","Stratovolcano","Eruption Observed","2014 CE","-4.649","145.964","1839","Andesite / Basaltic Andesite","Subduction Zone / Continental Crust"
"251041","Hankow Reef","Papua New Guinea","Melanesia and Australia","Submarine","Evidence Uncertain","Unknown","-4.883","146.717","-5","No Data","Subduction Zone / Continental Crust"
"251050","Long Island","Papua New Guinea","Melanesia and Australia","Complex","Eruption Observed","1993 CE","-5.358","147.12","1280","Andesite / Basaltic Andesite","Subduction Zone / Continental Crust"
"251060","Umboi","Papua New Guinea","Melanesia and Australia","Complex","Evidence Credible","Unknown","-5.589","147.875","1548","Basalt / Picro-Basalt","Subduction Zone / Continental Crust"
"251070","Ritter Island","Papua New Guinea","Melanesia and Australia","Stratovolcano","Eruption Observed","2007 CE","-5.519","148.115","75","Basalt / Picro-Basalt","Subduction Zone / Continental Crust"
"251080","Sakar","Papua New Guinea","Melanesia and Australia","Stratovolcano","Evidence Uncertain","Unknown","-5.414","148.094","992","Basalt / Picro-Basalt","Subduction Zone / Continental Crust"
"252010","Langila","Papua New Guinea","Melanesia and Australia","Complex","Eruption Observed","2016 CE","-5.525","148.42","1330","Basalt / Picro-Basalt","Subduction Zone / Continental Crust"
"252021","Mundua","Papua New Guinea","Melanesia and Australia","Complex","Evidence Credible","Unknown","-4.63","149.35","179","Basalt / Picro-Basalt","Subduction Zone / Continental Crust"
"252030","Garove","Papua New Guinea","Melanesia and Australia","Stratovolcano","Evidence Credible","Unknown","-4.692","149.5","368","Andesite / Basaltic Andesite","Subduction Zone / Oceanic Crust"
"252040","Dakataua","Papua New Guinea","Melanesia and Australia","Caldera","Eruption Dated","1895 CE","-5.094","150.094","408","Andesite / Basaltic Andesite","Subduction Zone / Continental Crust"
"252050","Bola","Papua New Guinea","Melanesia and Australia","Stratovolcano","Evidence Credible","Unknown","-5.141","150.038","1116","Andesite / Basaltic Andesite","Subduction Zone / Continental Crust"
"252060","Garua Harbour","Papua New Guinea","Melanesia and Australia","Volcanic field","Evidence Uncertain","Unknown","-5.3","150.07","565","Rhyolite","Subduction Zone / Continental Crust"
"252070","Krummel-Garbuna-Welcker","Papua New Guinea","Melanesia and Australia","Stratovolcano","Eruption Observed","2008 CE","-5.416","150.027","564","Andesite / Basaltic Andesite","Subduction Zone / Continental Crust"
"252071","Lolo","Papua New Guinea","Melanesia and Australia","Stratovolcano","Evidence Uncertain","Unknown","-5.466","150.509","796","Andesite / Basaltic Andesite","Subduction Zone / Continental Crust"
"252080","Witori","Papua New Guinea","Melanesia and Australia","Caldera","Eruption Observed","2012 CE","-5.576","150.516","724","Dacite","Subduction Zone / Continental Crust"
"252090","Sulu Range","Papua New Guinea","Melanesia and Australia","Stratovolcano","Unrest / Holocene","Unknown","-5.5","150.942","610","Andesite / Basaltic Andesite","Subduction Zone / Continental Crust"
"252100","Hargy","Papua New Guinea","Melanesia and Australia","Stratovolcano","Eruption Dated","950 CE","-5.33","151.1","1148","Dacite","Subduction Zone / Continental Crust"
"252110","Bamus","Papua New Guinea","Melanesia and Australia","Stratovolcano","Eruption Observed","1886 CE","-5.2","151.23","2248","Andesite / Basaltic Andesite","Subduction Zone / Continental Crust"
"252120","Ulawun","Papua New Guinea","Melanesia and Australia","Stratovolcano","Eruption Observed","2016 CE","-5.05","151.33","2334","Basalt / Picro-Basalt","Subduction Zone / Continental Crust"
"252130","Lolobau","Papua New Guinea","Melanesia and Australia","Caldera","Eruption Observed","1912 CE","-4.92","151.158","858","Basalt / Picro-Basalt","Subduction Zone / Continental Crust"
"252140","Rabaul","Papua New Guinea","Melanesia and Australia","Pyroclastic shield","Eruption Observed","2014 CE","-4.271","152.203","688","Dacite","Subduction Zone / Continental Crust"
"252150","Tavui","Papua New Guinea","Melanesia and Australia","Caldera","Eruption Dated","4946 BCE","-4.12","152.2","200","Rhyolite","Subduction Zone / Continental Crust"
"252801","Narage","Papua New Guinea","Melanesia and Australia","Stratovolcano","Unrest / Pleistocene","Unknown","-4.55","149.125","307","","Subduction Zone / Oceanic Crust"
"253000","Doma Peaks","Papua New Guinea","Melanesia and Australia","Stratovolcano","Evidence Uncertain","Unknown","-5.9","143.15","3568","Andesite / Basaltic Andesite","Subduction Zone / Continental Crust"
"253002","Yelia","Papua New Guinea","Melanesia and Australia","Stratovolcano","Evidence Uncertain","Unknown","-7.05","145.858","3384","Andesite / Basaltic Andesite","Subduction Zone / Continental Crust"
"253003","Koranga","Papua New Guinea","Melanesia and Australia","Maar","Evidence Credible","Unknown","-7.33","146.708","1500","Dacite","Subduction Zone / Continental Crust"
"253004","Madilogo","Papua New Guinea","Melanesia and Australia","Pyroclastic cone","Evidence Credible","Unknown","-9.2","147.57","850","Trachybasalt / Tephrite Basanite","Subduction Zone / Continental Crust"
"253010","Lamington","Papua New Guinea","Melanesia and Australia","Stratovolcano","Eruption Observed","1956 CE","-8.95","148.15","1680","Andesite / Basaltic Andesite","Subduction Zone / Continental Crust"
"253011","Hydrographers Range","Papua New Guinea","Melanesia and Australia","Stratovolcano","Evidence Credible","Unknown","-9","148.37","1915","Andesite / Basaltic Andesite","Subduction Zone / Continental Crust"
"253021","Managlase Plateau","Papua New Guinea","Melanesia and Australia","Volcanic field","Evidence Credible","Unknown","-9.08","148.33","1342","Trachybasalt / Tephrite Basanite","Subduction Zone / Continental Crust"
"253030","Victory","Papua New Guinea","Melanesia and Australia","Stratovolcano","Eruption Observed","1935 CE","-9.2","149.07","1925","Andesite / Basaltic Andesite","Subduction Zone / Continental Crust"
"253031","Sessagara","Papua New Guinea","Melanesia and Australia","Pyroclastic cone","Evidence Credible","Unknown","-9.48","149.13","370","Trachyandesite / Basaltic Trachyandesite","Subduction Zone / Continental Crust"
"253040","Waiowa","Papua New Guinea","Melanesia and Australia","Pyroclastic cone","Eruption Observed","1944 CE","-9.57","149.075","640","Trachyandesite / Basaltic Trachyandesite","Subduction Zone / Continental Crust"
"253041","Goodenough","Papua New Guinea","Melanesia and Australia","Volcanic field","Evidence Credible","Unknown","-9.48","150.35","220","Andesite / Basaltic Andesite","Subduction Zone / Continental Crust"
"253050","Iamalele","Papua New Guinea","Melanesia and Australia","Lava dome","Evidence Credible","Unknown","-9.52","150.53","200","Andesite / Basaltic Andesite","Subduction Zone / Continental Crust"
"253060","Dawson Strait Group","Papua New Guinea","Melanesia and Australia","Volcanic field","Eruption Dated","1350 CE","-9.62","150.88","500","Rhyolite","Subduction Zone / Continental Crust"
"254010","Lihir","Papua New Guinea","Melanesia and Australia","Compound","Evidence Credible","Unknown","-3.125","152.642","700","Trachybasalt / Tephrite Basanite","Subduction Zone / Crust Thickness Unknown"
"254020","Ambitle","Papua New Guinea","Melanesia and Australia","Stratovolcano","Eruption Dated","350 BCE","-4.08","153.65","450","Phono-tephrite /  Tephri-phonolite","Subduction Zone / Crust Thickness Unknown"
"254801","Tanga","Papua New Guinea","Melanesia and Australia","Stratovolcano","Unrest / Pleistocene","Unknown","-3.5","153.22","472","","Subduction Zone / Crust Thickness Unknown"
"255000","Tore","Papua New Guinea","Melanesia and Australia","Lava cone","Evidence Credible","Unknown","-5.83","154.93","2200","Andesite / Basaltic Andesite","Subduction Zone / Crust Thickness Unknown"
"255010","Balbi","Papua New Guinea","Melanesia and Australia","Stratovolcano","Evidence Credible","Unknown","-5.92","154.98","2715","Andesite / Basaltic Andesite","Subduction Zone / Crust Thickness Unknown"
"255011","Billy Mitchell","Papua New Guinea","Melanesia and Australia","Pyroclastic shield","Eruption Dated","1580 CE","-6.092","155.225","1544","Andesite / Basaltic Andesite","Subduction Zone / Crust Thickness Unknown"
"255020","Bagana","Papua New Guinea","Melanesia and Australia","Lava cone","Eruption Observed","2016 CE","-6.137","155.196","1855","Andesite / Basaltic Andesite","Subduction Zone / Crust Thickness Unknown"
"255021","Takuan Group","Papua New Guinea","Melanesia and Australia","Compound","Evidence Credible","Unknown","-6.442","155.608","2210","Andesite / Basaltic Andesite","Subduction Zone / Crust Thickness Unknown"
"255030","Loloru","Papua New Guinea","Melanesia and Australia","Pyroclastic shield","Eruption Dated","1050 BCE","-6.52","155.62","1887","Andesite / Basaltic Andesite","Subduction Zone / Crust Thickness Unknown"
"255050","Simbo","Solomon Islands","Melanesia and Australia","Stratovolcano","Eruption Dated","1910 CE","-8.292","156.52","335","Andesite / Basaltic Andesite","Subduction Zone / Crust Thickness Unknown"
"255052","Kana Keoki","Solomon Islands","Melanesia and Australia","Submarine","Evidence Credible","Unknown","-8.75","157.03","-700","Dacite","Subduction Zone / Crust Thickness Unknown"
"255053","Coleman Seamount","Solomon Islands","Melanesia and Australia","Submarine","Evidence Credible","Unknown","-8.83","157.17","0","No Data","Subduction Zone / Crust Thickness Unknown"
"255060","Kavachi","Solomon Islands","Melanesia and Australia","Submarine","Eruption Observed","2007 CE","-9.02","157.95","-20","Andesite / Basaltic Andesite","Subduction Zone / Crust Thickness Unknown"
"255061","Unnamed","Solomon Islands","Melanesia and Australia","Submarine","Evidence Credible","Unknown","-8.92","158.03","-240","Andesite / Basaltic Andesite","Subduction Zone / Crust Thickness Unknown"
"255062","Gallego","Solomon Islands","Melanesia and Australia","Volcanic field","Evidence Uncertain","Unknown","-9.35","159.73","1000","Andesite / Basaltic Andesite","Subduction Zone / Crust Thickness Unknown"
"255070","Savo","Solomon Islands","Melanesia and Australia","Stratovolcano","Eruption Observed","1847 CE","-9.13","159.82","485","Andesite / Basaltic Andesite","Subduction Zone / Crust Thickness Unknown"
"255803","Nonda","Solomon Islands","Melanesia and Australia","Stratovolcano","Unrest / Pleistocene","Unknown","-7.67","156.6","760","","Subduction Zone / Crust Thickness Unknown"
"256010","Tinakula","Solomon Islands","Melanesia and Australia","Stratovolcano","Eruption Observed","2012 CE","-10.38","165.8","851","Andesite / Basaltic Andesite","Subduction Zone / Crust Thickness Unknown"
"257001","Motlav","Vanuatu","Melanesia and Australia","Stratovolcano","Evidence Credible","Unknown","-13.67","167.67","411","Basalt / Picro-Basalt","Subduction Zone / Intermediate Crust"
"257010","Suretamatai","Vanuatu","Melanesia and Australia","Complex","Eruption Observed","1966 CE","-13.8","167.47","921","Andesite / Basaltic Andesite","Subduction Zone / Intermediate Crust"
"257020","Gaua","Vanuatu","Melanesia and Australia","Stratovolcano","Eruption Observed","2011 CE","-14.27","167.5","797","Andesite / Basaltic Andesite","Subduction Zone / Intermediate Crust"
"257021","Mere Lava","Vanuatu","Melanesia and Australia","Stratovolcano","Evidence Credible","Unknown","-14.45","168.05","1028","Basalt / Picro-Basalt","Subduction Zone / Intermediate Crust"
"257030","Aoba","Vanuatu","Melanesia and Australia","Shield","Eruption Observed","2011 CE","-15.4","167.83","1496","Basalt / Picro-Basalt","Subduction Zone / Intermediate Crust"
"257040","Ambrym","Vanuatu","Melanesia and Australia","Pyroclastic shield","Eruption Observed","2016 CE","-16.25","168.12","1334","Basalt / Picro-Basalt","Subduction Zone / Intermediate Crust"
"257050","Lopevi","Vanuatu","Melanesia and Australia","Stratovolcano","Eruption Observed","2007 CE","-16.507","168.346","1413","Basalt / Picro-Basalt","Subduction Zone / Intermediate Crust"
"257060","Epi","Vanuatu","Melanesia and Australia","Stratovolcano","Eruption Observed","2004 CE","-16.68","168.37","833","Basalt / Picro-Basalt","Subduction Zone / Intermediate Crust"
"257070","Kuwae","Vanuatu","Melanesia and Australia","Caldera","Eruption Observed","1974 CE","-16.829","168.536","-2","Basalt / Picro-Basalt","Subduction Zone / Intermediate Crust"
"257080","NE Shepherd Islands","Vanuatu","Melanesia and Australia","Stratovolcano","Evidence Uncertain","Unknown","-16.992","168.592","216","Basalt / Picro-Basalt","Subduction Zone / Intermediate Crust"
"257081","North Vate","Vanuatu","Melanesia and Australia","Stratovolcano","Evidence Credible","Unknown","-17.47","168.353","594","Basalt / Picro-Basalt","Subduction Zone / Intermediate Crust"
"257090","Traitor's Head","Vanuatu","Melanesia and Australia","Stratovolcano","Eruption Observed","1881 CE","-18.754","169.238","817","Basalt / Picro-Basalt","Subduction Zone / Intermediate Crust"
"257100","Yasur","Vanuatu","Melanesia and Australia","Stratovolcano","Eruption Observed","2016 CE","-19.53","169.442","361","Andesite / Basaltic Andesite","Subduction Zone / Intermediate Crust"
"257110","Aneityum","Vanuatu","Melanesia and Australia","Stratovolcano","Evidence Uncertain","Unknown","-20.2","169.78","852","Basalt / Picro-Basalt","Subduction Zone / Intermediate Crust"
"258001","Eastern Gemini Seamount","France","Melanesia and Australia","Submarine","Eruption Observed","1996 CE","-20.98","170.28","-80","Basalt / Picro-Basalt","Rift Zone / Oceanic Crust"
"258010","Matthew Island","France","Melanesia and Australia","Stratovolcano","Eruption Observed","1956 CE","-22.33","171.32","177","Andesite / Basaltic Andesite","Subduction Zone / Crust Thickness Unknown"
"258020","Hunter Island","France","Melanesia and Australia","Stratovolcano","Eruption Observed","1903 CE","-22.4","172.05","297","Andesite / Basaltic Andesite","Subduction Zone / Crust Thickness Unknown"
"259010","Newer Volcanics Province","Australia","Melanesia and Australia","Shield","Eruption Dated","2900 BCE","-37.77","142.5","1011","Trachybasalt / Tephrite Basanite","Intraplate / Continental Crust"
"260001","Narcondum","India","Indonesia","Stratovolcano","Evidence Credible","Unknown","13.43","94.28","710","Andesite / Basaltic Andesite","Subduction Zone / Continental Crust"
"260010","Barren Island","India","Indonesia","Stratovolcano","Eruption Observed","2016 CE","12.278","93.858","354","Basalt / Picro-Basalt","Subduction Zone / Continental Crust"
"261020","Seulawah Agam","Indonesia","Indonesia","Stratovolcano","Eruption Observed","1839 CE","5.448","95.658","1810","Andesite / Basaltic Andesite","Subduction Zone / Continental Crust"
"261030","Peuet Sague","Indonesia","Indonesia","Complex","Eruption Observed","2000 CE","4.914","96.329","2801","Andesite / Basaltic Andesite","Subduction Zone / Continental Crust"
"261050","Telong, Bur ni","Indonesia","Indonesia","Stratovolcano","Eruption Observed","1937 CE","4.769","96.821","2617","Andesite / Basaltic Andesite","Subduction Zone / Continental Crust"
"261070","Singkut","Indonesia","Indonesia","Caldera","Eruption Observed","1881 CE","3.248","98.501","2181","Andesite / Basaltic Andesite","Subduction Zone / Continental Crust"
"261080","Sinabung","Indonesia","Indonesia","Stratovolcano","Eruption Observed","2016 CE","3.17","98.392","2460","Andesite / Basaltic Andesite","Subduction Zone / Continental Crust"
"261090","Toba","Indonesia","Indonesia","Caldera","Evidence Credible","Unknown","2.58","98.83","2157","Dacite","Subduction Zone / Continental Crust"
"261110","Sibualbuali","Indonesia","Indonesia","Stratovolcano","Evidence Uncertain","Unknown","1.556","99.255","1819","Dacite","Subduction Zone / Continental Crust"
"261111","Lubukraya","Indonesia","Indonesia","Stratovolcano","Evidence Uncertain","Unknown","1.478","99.209","1862","Andesite / Basaltic Andesite","Subduction Zone / Continental Crust"
"261120","Sorikmarapi","Indonesia","Indonesia","Stratovolcano","Eruption Observed","1986 CE","0.686","99.539","2145","Andesite / Basaltic Andesite","Subduction Zone / Continental Crust"
"261121","Malintang","Indonesia","Indonesia","Stratovolcano","Evidence Credible","Unknown","0.47","99.67","1983","Andesite / Basaltic Andesite","Subduction Zone / Continental Crust"
"261130","Talakmau","Indonesia","Indonesia","Complex","Evidence Credible","Unknown","0.079","99.98","2919","Andesite / Basaltic Andesite","Subduction Zone / Continental Crust"
"261131","Sarik-Gajah","Indonesia","Indonesia","Pyroclastic cone","Evidence Uncertain","Unknown","0.08","100.2","0","Andesite / Basaltic Andesite","Subduction Zone / Continental Crust"
"261140","Marapi","Indonesia","Indonesia","Complex","Eruption Observed","2015 CE","-0.381","100.473","2891","Andesite / Basaltic Andesite","Subduction Zone / Continental Crust"
"261150","Tandikat-Singgalang","Indonesia","Indonesia","Stratovolcano","Eruption Observed","1924 CE","-0.39","100.331","2854","Andesite / Basaltic Andesite","Subduction Zone / Continental Crust"
"261160","Talang","Indonesia","Indonesia","Stratovolcano","Eruption Observed","2007 CE","-0.978","100.679","2597","Andesite / Basaltic Andesite","Subduction Zone / Continental Crust"
"261170","Kerinci","Indonesia","Indonesia","Stratovolcano","Eruption Observed","2016 CE","-1.697","101.264","3800","Andesite / Basaltic Andesite","Subduction Zone / Continental Crust"
"261171","Kunyit","Indonesia","Indonesia","Stratovolcano","Unrest / Holocene","Unknown","-2.274","101.483","2151","Dacite","Subduction Zone / Continental Crust"
"261172","Hutapanjang","Indonesia","Indonesia","Stratovolcano","Evidence Credible","Unknown","-2.33","101.6","2021","No Data","Subduction Zone / Continental Crust"
"261180","Sumbing","Indonesia","Indonesia","Stratovolcano","Eruption Observed","1921 CE","-2.414","101.728","2507","Andesite / Basaltic Andesite","Subduction Zone / Continental Crust"
"261191","Pendan","Indonesia","Indonesia","Unknown","Evidence Credible","Unknown","-2.82","102.02","0","No Data","Subduction Zone / Continental Crust"
"261200","Belirang-Beriti","Indonesia","Indonesia","Compound","Unrest / Holocene","Unknown","-2.82","102.18","1958","Basalt / Picro-Basalt","Subduction Zone / Continental Crust"
"261210","Daun, Bukit","Indonesia","Indonesia","Stratovolcano","Unrest / Holocene","Unknown","-3.38","102.37","2467","Basalt / Picro-Basalt","Subduction Zone / Continental Crust"
"261220","Kaba","Indonesia","Indonesia","Stratovolcano","Eruption Observed","2000 CE","-3.52","102.62","1952","Andesite / Basaltic Andesite","Subduction Zone / Continental Crust"
"261230","Dempo","Indonesia","Indonesia","Stratovolcano","Eruption Observed","2009 CE","-4.03","103.13","3173","Andesite / Basaltic Andesite","Subduction Zone / Continental Crust"
"261231","Patah","Indonesia","Indonesia","Stratovolcano?","Unrest / Holocene","Unknown","-4.27","103.3","2817","No Data","Subduction Zone / Continental Crust"
"261240","Lumut Balai, Bukit","Indonesia","Indonesia","Stratovolcano?","Unrest / Holocene","Unknown","-4.22","103.62","2055","Andesite / Basaltic Andesite","Subduction Zone / Continental Crust"
"261250","Besar","Indonesia","Indonesia","Stratovolcano?","Eruption Observed","1940 CE","-4.43","103.67","1899","Andesite / Basaltic Andesite","Subduction Zone / Continental Crust"
"261251","Ranau","Indonesia","Indonesia","Caldera","Evidence Uncertain","Unknown","-4.83","103.92","1881","Dacite","Subduction Zone / Continental Crust"
"261260","Sekincau Belirang","Indonesia","Indonesia","Caldera","Unrest / Holocene","Unknown","-5.107","104.317","1717","Andesite / Basaltic Andesite","Subduction Zone / Continental Crust"
"261270","Suoh","Indonesia","Indonesia","Caldera","Eruption Observed","1933 CE","-5.25","104.27","1000","No Data","Subduction Zone / Continental Crust"
"261280","Hulubelu","Indonesia","Indonesia","Caldera","Unrest / Holocene","Unknown","-5.334","104.59","849","Andesite / Basaltic Andesite","Subduction Zone / Continental Crust"
"261290","Rajabasa","Indonesia","Indonesia","Stratovolcano","Unrest / Holocene","Unknown","-5.78","105.625","1281","Andesite / Basaltic Andesite","Subduction Zone / Continental Crust"
"261800","Pulau Weh","Indonesia","Indonesia","Stratovolcano","Unrest / Pleistocene","Unknown","5.82","95.28","617","","Subduction Zone / Continental Crust"
"261809","Geureudong","Indonesia","Indonesia","Stratovolcano","Unrest / Pleistocene","Unknown","4.813","96.82","2885","","Subduction Zone / Continental Crust"
"261810","Kembar","Indonesia","Indonesia","Shield","Unrest / Pleistocene","Unknown","3.85","97.664","2245","","Subduction Zone / Continental Crust"
"262000","Krakatau","Indonesia","Indonesia","Caldera","Eruption Observed","2014 CE","-6.102","105.423","813","Andesite / Basaltic Andesite","Subduction Zone / Continental Crust"
"263010","Pulosari","Indonesia","Indonesia","Stratovolcano","Evidence Credible","Unknown","-6.342","105.975","1346","Andesite / Basaltic Andesite","Subduction Zone / Continental Crust"
"263020","Karang","Indonesia","Indonesia","Stratovolcano","Evidence Uncertain","Unknown","-6.27","106.042","1778","Andesite / Basaltic Andesite","Subduction Zone / Continental Crust"
"263040","Perbakti-Gagak","Indonesia","Indonesia","Stratovolcano","Eruption Observed","1939 CE","-6.75","106.7","1699","Andesite / Basaltic Andesite","Subduction Zone / Continental Crust"
"263050","Salak","Indonesia","Indonesia","Stratovolcano","Eruption Observed","1938 CE","-6.72","106.73","2211","Andesite / Basaltic Andesite","Subduction Zone / Continental Crust"
"263060","Gede-Pangrango","Indonesia","Indonesia","Stratovolcano","Eruption Observed","1957 CE","-6.77","106.965","3008","Andesite / Basaltic Andesite","Subduction Zone / Continental Crust"
"263070","Patuha","Indonesia","Indonesia","Stratovolcano","Evidence Credible","Unknown","-7.16","107.4","2434","Andesite / Basaltic Andesite","Subduction Zone / Continental Crust"
"263080","Wayang-Windu","Indonesia","Indonesia","Lava dome","Unrest / Pleistocene","Unknown","-7.213","107.637","2184","Andesite / Basaltic Andesite","Subduction Zone / Continental Crust"
"263090","Tangkubanparahu","Indonesia","Indonesia","Stratovolcano","Eruption Observed","2013 CE","-6.77","107.6","2084","Andesite / Basaltic Andesite","Subduction Zone / Continental Crust"
"263100","Papandayan","Indonesia","Indonesia","Stratovolcano","Eruption Observed","2002 CE","-7.32","107.73","2665","Andesite / Basaltic Andesite","Subduction Zone / Continental Crust"
"263110","Kendang","Indonesia","Indonesia","Stratovolcano","Evidence Credible","Unknown","-7.245","107.709","2594","Andesite / Basaltic Andesite","Subduction Zone / Continental Crust"
"263130","Guntur","Indonesia","Indonesia","Complex","Eruption Observed","1847 CE","-7.143","107.84","2249","Andesite / Basaltic Andesite","Subduction Zone / Continental Crust"
"263131","Tampomas","Indonesia","Indonesia","Stratovolcano","Evidence Credible","Unknown","-6.77","107.95","1684","Andesite / Basaltic Andesite","Subduction Zone / Continental Crust"
"263140","Galunggung","Indonesia","Indonesia","Stratovolcano","Eruption Observed","1984 CE","-7.25","108.058","2168","Basalt / Picro-Basalt","Subduction Zone / Continental Crust"
"263150","Talagabodas","Indonesia","Indonesia","Stratovolcano","Unrest / Holocene","Unknown","-7.208","108.07","2201","Basalt / Picro-Basalt","Subduction Zone / Continental Crust"
"263170","Cereme","Indonesia","Indonesia","Stratovolcano","Eruption Observed","1951 CE","-6.892","108.4","3078","Andesite / Basaltic Andesite","Subduction Zone / Continental Crust"
"263180","Slamet","Indonesia","Indonesia","Stratovolcano","Eruption Observed","2014 CE","-7.242","109.208","3428","Basalt / Picro-Basalt","Subduction Zone / Continental Crust"
"263200","Dieng Volcanic Complex","Indonesia","Indonesia","Complex","Eruption Observed","2009 CE","-7.2","109.92","2565","Andesite / Basaltic Andesite","Subduction Zone / Continental Crust"
"263210","Sundoro","Indonesia","Indonesia","Stratovolcano","Eruption Observed","1971 CE","-7.3","109.992","3136","Andesite / Basaltic Andesite","Subduction Zone / Continental Crust"
"263220","Sumbing","Indonesia","Indonesia","Stratovolcano","Eruption Observed","1730 CE","-7.384","110.07","3371","Andesite / Basaltic Andesite","Subduction Zone / Continental Crust"
"263230","Ungaran","Indonesia","Indonesia","Stratovolcano","Evidence Credible","Unknown","-7.18","110.33","2050","Trachyandesite / Basaltic Trachyandesite","Subduction Zone / Continental Crust"
"263231","Telomoyo","Indonesia","Indonesia","Stratovolcano","Evidence Credible","Unknown","-7.37","110.4","1894","Andesite / Basaltic Andesite","Subduction Zone / Continental Crust"
"263240","Merbabu","Indonesia","Indonesia","Stratovolcano","Eruption Observed","1797 CE","-7.45","110.43","3145","Basalt / Picro-Basalt","Subduction Zone / Continental Crust"
"263250","Merapi","Indonesia","Indonesia","Stratovolcano","Eruption Observed","2014 CE","-7.542","110.442","2968","Andesite / Basaltic Andesite","Subduction Zone / Continental Crust"
"263251","Muria","Indonesia","Indonesia","Stratovolcano","Eruption Dated","160 BCE","-6.62","110.88","1625","Trachybasalt / Tephrite Basanite","Subduction Zone / Continental Crust"
"263260","Lawu","Indonesia","Indonesia","Stratovolcano","Eruption Observed","1885 CE","-7.625","111.192","3265","Andesite / Basaltic Andesite","Subduction Zone / Continental Crust"
"263270","Wilis","Indonesia","Indonesia","Stratovolcano","Evidence Credible","Unknown","-7.808","111.758","2563","Andesite / Basaltic Andesite","Subduction Zone / Continental Crust"
"263280","Kelut","Indonesia","Indonesia","Stratovolcano","Eruption Observed","2014 CE","-7.93","112.308","1731","Andesite / Basaltic Andesite","Subduction Zone / Continental Crust"
"263281","Kawi-Butak","Indonesia","Indonesia","Stratovolcano","Evidence Credible","Unknown","-7.92","112.45","2651","No Data","Subduction Zone / Continental Crust"
"263290","Arjuno-Welirang","Indonesia","Indonesia","Stratovolcano","Eruption Observed","1952 CE","-7.725","112.58","3339","Andesite / Basaltic Andesite","Subduction Zone / Continental Crust"
"263291","Penanggungan","Indonesia","Indonesia","Stratovolcano","Evidence Credible","Unknown","-7.62","112.63","1653","Andesite / Basaltic Andesite","Subduction Zone / Continental Crust"
"263292","Malang Plain","Indonesia","Indonesia","Maar","Evidence Credible","Unknown","-8.02","112.68","680","No Data","Subduction Zone / Continental Crust"
"263300","Semeru","Indonesia","Indonesia","Stratovolcano","Eruption Observed","2016 CE","-8.108","112.92","3676","Andesite / Basaltic Andesite","Subduction Zone / Continental Crust"
"263310","Tengger Caldera","Indonesia","Indonesia","Stratovolcano","Eruption Observed","2016 CE","-7.942","112.95","2329","Trachyandesite / Basaltic Trachyandesite","Subduction Zone / Continental Crust"
"263320","Lamongan","Indonesia","Indonesia","Stratovolcano","Eruption Observed","1898 CE","-7.979","113.342","1651","Basalt / Picro-Basalt","Subduction Zone / Continental Crust"
"263321","Lurus","Indonesia","Indonesia","Complex","Evidence Uncertain","Unknown","-7.73","113.58","539","Andesite / Basaltic Andesite","Subduction Zone / Continental Crust"
"263330","Iyang-Argapura","Indonesia","Indonesia","Complex","Evidence Credible","Unknown","-7.97","113.57","3088","Andesite / Basaltic Andesite","Subduction Zone / Continental Crust"
"263340","Raung","Indonesia","Indonesia","Stratovolcano","Eruption Observed","2015 CE","-8.119","114.056","3260","Andesite / Basaltic Andesite","Subduction Zone / Continental Crust"
"263350","Ijen","Indonesia","Indonesia","Stratovolcano","Eruption Observed","1999 CE","-8.058","114.242","2769","Andesite / Basaltic Andesite","Subduction Zone / Continental Crust"
"263351","Baluran","Indonesia","Indonesia","Stratovolcano","Evidence Uncertain","Unknown","-7.85","114.37","1247","Andesite / Basaltic Andesite","Subduction Zone / Continental Crust"
"263805","Kamojang, Kawah","Indonesia","Indonesia","Stratovolcano","Unrest / Pleistocene","Unknown","-7.125","107.8","1730","","Subduction Zone / Continental Crust"
"264001","Buyan-Bratan","Indonesia","Indonesia","Caldera","Evidence Credible","Unknown","-8.283","115.133","2244","Andesite / Basaltic Andesite","Subduction Zone / Continental Crust"
"264010","Batur","Indonesia","Indonesia","Caldera","Eruption Observed","2000 CE","-8.242","115.375","1717","Andesite / Basaltic Andesite","Subduction Zone / Continental Crust"
"264020","Agung","Indonesia","Indonesia","Stratovolcano","Eruption Observed","1964 CE","-8.342","115.508","3142","Andesite / Basaltic Andesite","Subduction Zone / Continental Crust"
"264030","Rinjani","Indonesia","Indonesia","Stratovolcano","Eruption Observed","2016 CE","-8.42","116.47","3726","Andesite / Basaltic Andesite","Subduction Zone / Continental Crust"
"264040","Tambora","Indonesia","Indonesia","Stratovolcano","Eruption Observed","1967 CE","-8.25","118","2850","Trachybasalt / Tephrite Basanite","Subduction Zone / Continental Crust"
"264050","Sangeang Api","Indonesia","Indonesia","Complex","Eruption Observed","2015 CE","-8.2","119.07","1949","Trachybasalt / Tephrite Basanite","Subduction Zone / Continental Crust"
"264060","Sano, Wai","Indonesia","Indonesia","Caldera","Evidence Credible","Unknown","-8.72","120.02","903","Dacite","Subduction Zone / Continental Crust"
"264070","Poco Leok","Indonesia","Indonesia","Stratovolcano","Unrest / Holocene","Unknown","-8.68","120.48","1675","Andesite / Basaltic Andesite","Subduction Zone / Crust Thickness Unknown"
"264071","Ranakah","Indonesia","Indonesia","Lava dome","Eruption Observed","1991 CE","-8.62","120.52","2350","Andesite / Basaltic Andesite","Subduction Zone / Continental Crust"
"264080","Inierie","Indonesia","Indonesia","Stratovolcano","Eruption Dated","8050 BCE","-8.875","120.95","2245","Andesite / Basaltic Andesite","Subduction Zone / Crust Thickness Unknown"
"264090","Inielika","Indonesia","Indonesia","Complex","Eruption Observed","2001 CE","-8.73","120.98","1559","Andesite / Basaltic Andesite","Subduction Zone / Crust Thickness Unknown"
"264100","Ebulobo","Indonesia","Indonesia","Stratovolcano","Eruption Observed","1969 CE","-8.82","121.18","2124","Andesite / Basaltic Andesite","Subduction Zone / Crust Thickness Unknown"
"264110","Iya","Indonesia","Indonesia","Stratovolcano","Eruption Observed","1969 CE","-8.897","121.645","637","Basalt / Picro-Basalt","Subduction Zone / Crust Thickness Unknown"
"264120","Sukaria Caldera","Indonesia","Indonesia","Caldera","Unrest / Holocene","Unknown","-8.792","121.77","1500","No Data","Subduction Zone / Crust Thickness Unknown"
"264140","Kelimutu","Indonesia","Indonesia","Complex","Eruption Observed","1968 CE","-8.77","121.82","1639","Andesite / Basaltic Andesite","Subduction Zone / Crust Thickness Unknown"
"264150","Paluweh","Indonesia","Indonesia","Stratovolcano","Eruption Observed","2014 CE","-8.32","121.708","875","Andesite / Basaltic Andesite","Subduction Zone / Crust Thickness Unknown"
"264160","Egon","Indonesia","Indonesia","Stratovolcano","Eruption Observed","2008 CE","-8.676","122.455","1661","Andesite / Basaltic Andesite","Subduction Zone / Crust Thickness Unknown"
"264170","Ilimuda","Indonesia","Indonesia","Stratovolcano","Unrest / Holocene","Unknown","-8.479","122.761","881","Andesite / Basaltic Andesite","Subduction Zone / Crust Thickness Unknown"
"264180","Lewotobi","Indonesia","Indonesia","Stratovolcano","Eruption Observed","2003 CE","-8.542","122.775","1703","Andesite / Basaltic Andesite","Subduction Zone / Crust Thickness Unknown"
"264200","Leroboleng","Indonesia","Indonesia","Complex","Eruption Observed","2003 CE","-8.365","122.833","1095","Andesite / Basaltic Andesite","Subduction Zone / Crust Thickness Unknown"
"264220","Iliboleng","Indonesia","Indonesia","Stratovolcano","Eruption Observed","1993 CE","-8.342","123.258","1659","Basalt / Picro-Basalt","Subduction Zone / Crust Thickness Unknown"
"264230","Lewotolo","Indonesia","Indonesia","Stratovolcano","Eruption Observed","2012 CE","-8.272","123.505","1423","Andesite / Basaltic Andesite","Subduction Zone / Crust Thickness Unknown"
"264240","Ililabalekan","Indonesia","Indonesia","Stratovolcano","Unrest / Holocene","Unknown","-8.55","123.38","1018","Basalt / Picro-Basalt","Subduction Zone / Crust Thickness Unknown"
"264250","Iliwerung","Indonesia","Indonesia","Complex","Eruption Observed","2013 CE","-8.53","123.57","1018","Basalt / Picro-Basalt","Subduction Zone / Crust Thickness Unknown"
"264260","Tara, Batu","Indonesia","Indonesia","Stratovolcano","Eruption Observed","2015 CE","-7.791","123.585","633","Trachybasalt / Tephrite Basanite","Subduction Zone / Oceanic Crust"
"264270","Sirung","Indonesia","Indonesia","Complex","Eruption Observed","2015 CE","-8.508","124.13","862","Andesite / Basaltic Andesite","Subduction Zone / Crust Thickness Unknown"
"264800","Ilikedeka","Indonesia","Indonesia","Stratovolcano","Unrest / Pleistocene","Unknown","-8.301","122.907","823","","Subduction Zone / Crust Thickness Unknown"
"265030","Gunungapi Wetar","Indonesia","Indonesia","Stratovolcano","Eruption Observed","1699 CE","-6.642","126.65","282","Andesite / Basaltic Andesite","Subduction Zone / Oceanic Crust"
"265040","Wurlali","Indonesia","Indonesia","Stratovolcano","Eruption Observed","1892 CE","-7.125","128.675","868","Andesite / Basaltic Andesite","Subduction Zone / Oceanic Crust"
"265050","Teon","Indonesia","Indonesia","Stratovolcano","Eruption Observed","1904 CE","-6.976","129.144","728","Andesite / Basaltic Andesite","Subduction Zone / Oceanic Crust"
"265060","Nila","Indonesia","Indonesia","Stratovolcano","Eruption Observed","1968 CE","-6.73","129.5","781","Andesite / Basaltic Andesite","Subduction Zone / Oceanic Crust"
"265070","Serua","Indonesia","Indonesia","Stratovolcano","Eruption Observed","1921 CE","-6.312","130.017","608","Andesite / Basaltic Andesite","Subduction Zone / Oceanic Crust"
"265080","Manuk","Indonesia","Indonesia","Stratovolcano","Unrest / Holocene","Unknown","-5.543","130.303","257","Andesite / Basaltic Andesite","Subduction Zone / Oceanic Crust"
"265090","Banda Api","Indonesia","Indonesia","Caldera","Eruption Observed","1988 CE","-4.523","129.881","596","Dacite","Subduction Zone / Oceanic Crust"
"266010","Colo","Indonesia","Indonesia","Stratovolcano","Eruption Observed","1983 CE","-0.162","121.601","404","Trachyandesite / Basaltic Trachyandesite","Subduction Zone / Continental Crust"
"266020","Ambang","Indonesia","Indonesia","Complex","Eruption Observed","2005 CE","0.75","124.42","1795","Andesite / Basaltic Andesite","Subduction Zone / Continental Crust"
"266030","Soputan","Indonesia","Indonesia","Stratovolcano","Eruption Observed","2016 CE","1.112","124.737","1785","Andesite / Basaltic Andesite","Subduction Zone / Continental Crust"
"266040","Riendengan-Sempu","Indonesia","Indonesia","Caldera","Unrest / Holocene","Unknown","1.13","124.758","1549","No Data","Subduction Zone / Continental Crust"
"266070","Tondano Caldera","Indonesia","Indonesia","Caldera","Unrest / Holocene","Unknown","1.23","124.83","1202","Andesite / Basaltic Andesite","Subduction Zone / Continental Crust"
"266100","Lokon-Empung","Indonesia","Indonesia","Stratovolcano","Eruption Observed","2015 CE","1.358","124.792","1580","Basalt / Picro-Basalt","Subduction Zone / Continental Crust"
"266110","Mahawu","Indonesia","Indonesia","Stratovolcano","Eruption Observed","1977 CE","1.352","124.865","1299","Andesite / Basaltic Andesite","Subduction Zone / Continental Crust"
"266120","Klabat","Indonesia","Indonesia","Stratovolcano","Unrest / Holocene","Unknown","1.454","125.031","1968","Andesite / Basaltic Andesite","Subduction Zone / Continental Crust"
"266130","Tangkoko-Duasudara","Indonesia","Indonesia","Stratovolcano","Eruption Observed","1880 CE","1.518","125.185","1334","Andesite / Basaltic Andesite","Subduction Zone / Continental Crust"
"267010","Ruang","Indonesia","Indonesia","Stratovolcano","Eruption Observed","2002 CE","2.3","125.37","725","Andesite / Basaltic Andesite","Subduction Zone / Oceanic Crust"
"267020","Karangetang","Indonesia","Indonesia","Stratovolcano","Eruption Observed","2016 CE","2.78","125.4","1784","Andesite / Basaltic Andesite","Subduction Zone / Oceanic Crust"
"267030","Banua Wuhu","Indonesia","Indonesia","Submarine","Eruption Observed","1919 CE","3.138","125.491","-5","Andesite / Basaltic Andesite","Subduction Zone / Oceanic Crust"
"267040","Awu","Indonesia","Indonesia","Stratovolcano","Eruption Observed","2004 CE","3.67","125.5","1320","Andesite / Basaltic Andesite","Subduction Zone / Oceanic Crust"
"268001","Tarakan","Indonesia","Indonesia","Pyroclastic cone","Evidence Credible","Unknown","1.83","127.83","318","Basalt / Picro-Basalt","Subduction Zone / Oceanic Crust"
"268010","Dukono","Indonesia","Indonesia","Complex","Eruption Observed","2016 CE","1.693","127.894","1229","Andesite / Basaltic Andesite","Subduction Zone / Oceanic Crust"
"268020","Tobaru","Indonesia","Indonesia","Unknown","Evidence Credible","Unknown","1.63","127.67","1035","Andesite / Basaltic Andesite","Subduction Zone / Oceanic Crust"
"268030","Ibu","Indonesia","Indonesia","Stratovolcano","Eruption Observed","2016 CE","1.488","127.63","1325","Andesite / Basaltic Andesite","Subduction Zone / Oceanic Crust"
"268040","Gamkonora","Indonesia","Indonesia","Stratovolcano","Eruption Observed","2007 CE","1.38","127.53","1635","Andesite / Basaltic Andesite","Subduction Zone / Oceanic Crust"
"268050","Todoko-Ranu","Indonesia","Indonesia","Caldera","Evidence Credible","Unknown","1.25","127.47","979","Andesite / Basaltic Andesite","Subduction Zone / Oceanic Crust"
"268051","Jailolo","Indonesia","Indonesia","Stratovolcano","Evidence Credible","Unknown","1.08","127.439","993","Andesite / Basaltic Andesite","Subduction Zone / Oceanic Crust"
"268052","Hiri","Indonesia","Indonesia","Stratovolcano","Evidence Credible","Unknown","0.9","127.32","630","Basalt / Picro-Basalt","Subduction Zone / Oceanic Crust"
"268060","Gamalama","Indonesia","Indonesia","Stratovolcano","Eruption Observed","2016 CE","0.8","127.33","1715","Andesite / Basaltic Andesite","Subduction Zone / Oceanic Crust"
"268061","Tidore","Indonesia","Indonesia","Stratovolcano","Evidence Credible","Unknown","0.658","127.4","1730","Andesite / Basaltic Andesite","Subduction Zone / Oceanic Crust"
"268062","Mare","Indonesia","Indonesia","Stratovolcano","Evidence Credible","Unknown","0.57","127.4","308","Andesite / Basaltic Andesite","Subduction Zone / Oceanic Crust"
"268063","Moti","Indonesia","Indonesia","Stratovolcano","Evidence Credible","Unknown","0.45","127.4","950","Andesite / Basaltic Andesite","Subduction Zone / Oceanic Crust"
"268070","Makian","Indonesia","Indonesia","Stratovolcano","Eruption Observed","1988 CE","0.32","127.4","1357","Andesite / Basaltic Andesite","Subduction Zone / Oceanic Crust"
"268071","Tigalalu","Indonesia","Indonesia","Stratovolcano","Evidence Credible","Unknown","0.07","127.42","422","Andesite / Basaltic Andesite","Subduction Zone / Oceanic Crust"
"268072","Amasing","Indonesia","Indonesia","Stratovolcano","Evidence Credible","Unknown","-0.53","127.48","1030","Andesite / Basaltic Andesite","Subduction Zone / Oceanic Crust"
"268073","Bibinoi","Indonesia","Indonesia","Stratovolcano","Evidence Credible","Unknown","-0.77","127.72","900","Andesite / Basaltic Andesite","Subduction Zone / Oceanic Crust"
"269010","Bombalai","Malaysia","Indonesia","Pyroclastic cone","Evidence Uncertain","Unknown","4.4","117.88","531","Basalt / Picro-Basalt","Subduction Zone / Continental Crust"
"270010","Jolo","Philippines","Philippines and SE Asia","Pyroclastic cone","Eruption Observed","1897 CE","6.013","121.057","811","Basalt / Picro-Basalt","Subduction Zone / Crust Thickness Unknown"
"271010","Balut","Philippines","Philippines and SE Asia","Stratovolcano","Unrest / Holocene","Unknown","5.4","125.375","862","Andesite / Basaltic Andesite","Subduction Zone / Continental Crust"
"271011","Parker","Philippines","Philippines and SE Asia","Stratovolcano","Eruption Observed","1641 CE","6.113","124.892","1824","Andesite / Basaltic Andesite","Subduction Zone / Continental Crust"
"271020","Matutum","Philippines","Philippines and SE Asia","Stratovolcano","Eruption Dated","1290 CE","6.37","125.07","2286","Andesite / Basaltic Andesite","Subduction Zone / Continental Crust"
"271030","Apo","Philippines","Philippines and SE Asia","Stratovolcano","Unrest / Holocene","Unknown","6.989","125.269","2938","Andesite / Basaltic Andesite","Subduction Zone / Continental Crust"
"271031","Leonard Range","Philippines","Philippines and SE Asia","Stratovolcano","Eruption Dated","120 CE","7.382","126.047","1080","Andesite / Basaltic Andesite","Subduction Zone / Continental Crust"
"271040","Makaturing","Philippines","Philippines and SE Asia","Stratovolcano","Eruption Observed","1882 CE","7.647","124.32","1940","Basalt / Picro-Basalt","Subduction Zone / Continental Crust"
"271050","Latukan","Philippines","Philippines and SE Asia","Stratovolcano","Evidence Uncertain","Unknown","7.65","124.45","2338","Basalt / Picro-Basalt","Subduction Zone / Continental Crust"
"271060","Ragang","Philippines","Philippines and SE Asia","Stratovolcano","Eruption Observed","1873 CE","7.7","124.5","2815","Basalt / Picro-Basalt","Subduction Zone / Continental Crust"
"271061","Kalatungan","Philippines","Philippines and SE Asia","Stratovolcano","Evidence Uncertain","Unknown","7.95","124.8","2824","Basalt / Picro-Basalt","Subduction Zone / Continental Crust"
"271070","Musuan","Philippines","Philippines and SE Asia","Lava dome","Eruption Observed","1886 CE","7.877","125.068","646","Andesite / Basaltic Andesite","Subduction Zone / Continental Crust"
"271071","Malindang","Philippines","Philippines and SE Asia","Stratovolcano","Evidence Credible","Unknown","8.22","123.63","2404","Basalt / Picro-Basalt","Subduction Zone / Continental Crust"
"271072","Balatukan","Philippines","Philippines and SE Asia","Compound","Unrest / Pleistocene","Unknown","8.77","124.98","2450","Basalt / Picro-Basalt","Subduction Zone / Continental Crust"
"271080","Camiguin","Philippines","Philippines and SE Asia","Stratovolcano","Eruption Observed","1953 CE","9.203","124.673","1552","Andesite / Basaltic Andesite","Subduction Zone / Continental Crust"
"271090","Paco-Maniayao","Philippines","Philippines and SE Asia","Stratovolcano","Unrest / Pleistocene","Unknown","9.593","125.52","664","Andesite / Basaltic Andesite","Subduction Zone / Continental Crust"
"272010","Cuernos de Negros","Philippines","Philippines and SE Asia","Complex","Unrest / Holocene","Unknown","9.25","123.17","1862","Andesite / Basaltic Andesite","Subduction Zone / Continental Crust"
"272020","Kanlaon","Philippines","Philippines and SE Asia","Stratovolcano","Eruption Observed","2016 CE","10.412","123.132","2435","Andesite / Basaltic Andesite","Subduction Zone / Continental Crust"
"272030","Mandalagan","Philippines","Philippines and SE Asia","Complex","Unrest / Holocene","Unknown","10.65","123.25","1885","Andesite / Basaltic Andesite","Subduction Zone / Continental Crust"
"272040","Silay","Philippines","Philippines and SE Asia","Stratovolcano","Unrest / Holocene","Unknown","10.77","123.23","1510","Andesite / Basaltic Andesite","Subduction Zone / Continental Crust"
"272050","Cabalan","Philippines","Philippines and SE Asia","Stratovolcano","Eruption Dated","1820 CE","10.285","125.218","912","Andesite / Basaltic Andesite","Subduction Zone / Continental Crust"
"272070","Mahagnao","Philippines","Philippines and SE Asia","Stratovolcano","Unrest / Holocene","Unknown","10.882","124.888","860","Andesite / Basaltic Andesite","Subduction Zone / Continental Crust"
"272080","Biliran","Philippines","Philippines and SE Asia","Compound","Eruption Observed","1939 CE","11.523","124.535","1301","Andesite / Basaltic Andesite","Subduction Zone / Continental Crust"
"273010","Bulusan","Philippines","Philippines and SE Asia","Stratovolcano","Eruption Observed","2016 CE","12.77","124.05","1565","Andesite / Basaltic Andesite","Subduction Zone / Continental Crust"
"273020","Pocdol Mountains","Philippines","Philippines and SE Asia","Compound","Unrest / Holocene","Unknown","13.05","123.958","1102","Andesite / Basaltic Andesite","Subduction Zone / Continental Crust"
"273030","Mayon","Philippines","Philippines and SE Asia","Stratovolcano","Eruption Observed","2014 CE","13.257","123.685","2462","Andesite / Basaltic Andesite","Subduction Zone / Continental Crust"
"273031","Masaraga","Philippines","Philippines and SE Asia","Stratovolcano","Evidence Credible","Unknown","13.32","123.6","1328","Andesite / Basaltic Andesite","Subduction Zone / Continental Crust"
"273041","Iriga","Philippines","Philippines and SE Asia","Stratovolcano","Evidence Credible","Unknown","13.457","123.457","1196","Andesite / Basaltic Andesite","Subduction Zone / Continental Crust"
"273042","Isarog","Philippines","Philippines and SE Asia","Stratovolcano","Eruption Dated","3500 BCE","13.658","123.38","1966","Andesite / Basaltic Andesite","Subduction Zone / Continental Crust"
"273044","Malindig","Philippines","Philippines and SE Asia","Stratovolcano","Evidence Credible","Unknown","13.24","122.018","1157","Andesite / Basaltic Andesite","Subduction Zone / Continental Crust"
"273050","Banahaw","Philippines","Philippines and SE Asia","Complex","Evidence Credible","Unknown","14.07","121.48","2158","Andesite / Basaltic Andesite","Subduction Zone / Continental Crust"
"273060","San Pablo Volcanic Field","Philippines","Philippines and SE Asia","Stratovolcano","Eruption Dated","1350 CE","14.12","121.3","1090","Trachyandesite / Basaltic Trachyandesite","Subduction Zone / Continental Crust"
"273070","Taal","Philippines","Philippines and SE Asia","Caldera","Eruption Observed","1977 CE","14.002","120.993","311","Andesite / Basaltic Andesite","Subduction Zone / Continental Crust"
"273080","Laguna Caldera","Philippines","Philippines and SE Asia","Caldera","Unrest / Holocene","Unknown","14.42","121.27","743","Andesite / Basaltic Andesite","Subduction Zone / Continental Crust"
"273081","Mariveles","Philippines","Philippines and SE Asia","Stratovolcano","Eruption Dated","2050 BCE","14.52","120.47","1388","Andesite / Basaltic Andesite","Subduction Zone / Continental Crust"
"273082","Natib","Philippines","Philippines and SE Asia","Stratovolcano","Evidence Uncertain","Unknown","14.72","120.4","1253","Andesite / Basaltic Andesite","Subduction Zone / Continental Crust"
"273083","Pinatubo","Philippines","Philippines and SE Asia","Stratovolcano","Eruption Observed","1993 CE","15.13","120.35","1486","Dacite","Subduction Zone / Continental Crust"
"273084","Arayat","Philippines","Philippines and SE Asia","Stratovolcano","Evidence Uncertain","Unknown","15.2","120.742","1026","Basalt / Picro-Basalt","Subduction Zone / Continental Crust"
"273085","Amorong","Philippines","Philippines and SE Asia","Lava dome","Unrest / Holocene","Unknown","15.828","120.805","376","Trachyandesite / Basaltic Trachyandesite","Subduction Zone / Continental Crust"
"273086","Santo Tomas","Philippines","Philippines and SE Asia","Stratovolcano","Unrest / Pleistocene","Unknown","16.33","120.55","2260","Andesite / Basaltic Andesite","Subduction Zone / Continental Crust"
"273087","Patoc","Philippines","Philippines and SE Asia","Stratovolcano","Unrest / Holocene","Unknown","17.147","120.98","1865","Andesite / Basaltic Andesite","Subduction Zone / Continental Crust"
"273088","Ambalatungan Group","Philippines","Philippines and SE Asia","Compound","Unrest / Holocene","Unknown","17.32","121.1","2329","Dacite","Subduction Zone / Continental Crust"
"273090","Cagua","Philippines","Philippines and SE Asia","Stratovolcano","Eruption Observed","1860 CE","18.222","122.123","1133","Andesite / Basaltic Andesite","Subduction Zone / Continental Crust"
"273801","Malinao","Philippines","Philippines and SE Asia","Stratovolcano","Unrest / Pleistocene","Unknown","13.416","123.608","1548","","Subduction Zone / Continental Crust"
"273804","Labo","Philippines","Philippines and SE Asia","Compound","Unrest / Pleistocene","Unknown","14.02","122.792","1544","","Subduction Zone / Continental Crust"
"273806","Panay","Philippines","Philippines and SE Asia","Stratovolcano","Unrest / Pleistocene","Unknown","13.723","120.893","501","","Subduction Zone / Continental Crust"
"274010","Camiguin de Babuyanes","Philippines","Philippines and SE Asia","Stratovolcano","Eruption Observed","1857 CE","18.83","121.86","712","Andesite / Basaltic Andesite","Subduction Zone / Crust Thickness Unknown"
"274020","Didicas","Philippines","Philippines and SE Asia","Compound","Eruption Observed","1978 CE","19.077","122.202","228","Andesite / Basaltic Andesite","Subduction Zone / Crust Thickness Unknown"
"274030","Babuyan Claro","Philippines","Philippines and SE Asia","Stratovolcano","Eruption Observed","1924 CE","19.523","121.94","1080","Andesite / Basaltic Andesite","Subduction Zone / Crust Thickness Unknown"
"274050","Unnamed","Philippines","Philippines and SE Asia","Submarine","Eruption Observed","1854 CE","20.33","121.75","-24","No Data","Subduction Zone / Crust Thickness Unknown"
"274060","Iraya","Philippines","Philippines and SE Asia","Stratovolcano","Eruption Observed","1454 CE","20.469","122.01","1009","Andesite / Basaltic Andesite","Subduction Zone / Crust Thickness Unknown"
"275001","Hainan Dao","China","Philippines and SE Asia","Pyroclastic cone","Eruption Observed","1933 CE","19.7","110.1","0","Basalt / Picro-Basalt","Intraplate / Continental Crust"
"275010","Leizhou Bandao","China","Philippines and SE Asia","Volcanic field","Evidence Credible","Unknown","20.78","110.17","259","Basalt / Picro-Basalt","Intraplate / Continental Crust"
"275020","Cu-Lao Re Group","Vietnam","Philippines and SE Asia","Volcanic field","Evidence Credible","Unknown","15.38","109.12","181","Basalt / Picro-Basalt","Intraplate / Continental Crust"
"275030","Toroeng Prong","Vietnam","Philippines and SE Asia","Pyroclastic cone","Evidence Uncertain","Unknown","14.93","108","800","Basalt / Picro-Basalt","Intraplate / Continental Crust"
"275040","Haut Dong Nai","Vietnam","Philippines and SE Asia","Volcanic field","Evidence Uncertain","Unknown","11.6","108.2","1000","Basalt / Picro-Basalt","Intraplate / Continental Crust"
"275050","Bas Dong Nai","Vietnam","Philippines and SE Asia","Volcanic field","Evidence Uncertain","Unknown","10.8","107.2","392","Basalt / Picro-Basalt","Intraplate / Continental Crust"
"275060","Cendres, Ile des","Vietnam","Philippines and SE Asia","Submarine","Eruption Observed","1923 CE","10.158","109.014","-20","Basalt / Picro-Basalt","Intraplate / Continental Crust"
"275070","Veteran","Vietnam","Philippines and SE Asia","Submarine","Unrest / Holocene","Unknown","9.83","109.05","0","No Data","Intraplate / Continental Crust"
"275080","Popa","Burma","Philippines and SE Asia","Stratovolcano","Eruption Dated","442 BCE","20.92","95.25","1518","Basalt / Picro-Basalt","Intraplate / Continental Crust"
"275090","Lower Chindwin","Burma","Philippines and SE Asia","Volcanic field","Evidence Uncertain","Unknown","22.28","95.1","385","Basalt / Picro-Basalt","Intraplate / Continental Crust"
"275100","Singu Plateau","Burma","Philippines and SE Asia","Fissure vent","Evidence Credible","Unknown","22.7","95.98","507","Trachyandesite / Basaltic Trachyandesite","Intraplate / Continental Crust"
"275110","Tengchong","China","Philippines and SE Asia","Pyroclastic cone","Eruption Dated","5750 BCE","25.23","98.5","2865","Basalt / Picro-Basalt","Intraplate / Continental Crust"
"281020","Unnamed","Taiwan","Japan, Taiwan, Marianas","Submarine","Evidence Uncertain","Unknown","21.83","121.18","-115","No Data","Subduction Zone / Continental Crust"
"281030","Unnamed","Taiwan","Japan, Taiwan, Marianas","Submarine","Eruption Observed","1853 CE","24","121.83","0","No Data","Subduction Zone / Continental Crust"
"281031","Kueishantao","Taiwan","Japan, Taiwan, Marianas","Stratovolcano","Eruption Observed","1785 CE","24.841","121.953","361","Andesite / Basaltic Andesite","Subduction Zone / Continental Crust"
"281032","Tatun Group","Taiwan","Japan, Taiwan, Marianas","Lava dome","Eruption Dated","648 CE","25.17","121.52","1120","Andesite / Basaltic Andesite","Subduction Zone / Continental Crust"
"282010","Submarine Volcano NNE of Iriomotejima","Japan","Japan, Taiwan, Marianas","Submarine","Eruption Observed","1924 CE","24.57","123.93","-200","Rhyolite","Subduction Zone / Oceanic Crust"
"282020","Io-Torishima","Japan","Japan, Taiwan, Marianas","Complex","Eruption Observed","1968 CE","27.881","128.223","212","Andesite / Basaltic Andesite","Subduction Zone / Oceanic Crust"
"282021","Yokoate-jima","Japan","Japan, Taiwan, Marianas","Stratovolcano","Eruption Observed","1835 CE","28.797","128.997","495","Andesite / Basaltic Andesite","Subduction Zone / Oceanic Crust"
"282022","Akuseki-jima","Japan","Japan, Taiwan, Marianas","Stratovolcano","Evidence Uncertain","Unknown","29.461","129.597","584","Andesite / Basaltic Andesite","Subduction Zone / Oceanic Crust"
"282030","Suwanosejima","Japan","Japan, Taiwan, Marianas","Stratovolcano","Eruption Observed","2016 CE","29.638","129.714","796","Andesite / Basaltic Andesite","Subduction Zone / Oceanic Crust"
"282040","Nakanoshima","Japan","Japan, Taiwan, Marianas","Stratovolcano","Eruption Observed","1914 CE","29.859","129.857","979","Andesite / Basaltic Andesite","Subduction Zone / Oceanic Crust"
"282041","Kogaja-jima","Japan","Japan, Taiwan, Marianas","Lava dome","Evidence Uncertain","Unknown","29.879","129.625","301","Andesite / Basaltic Andesite","Subduction Zone / Oceanic Crust"
"282043","Kuchinoshima","Japan","Japan, Taiwan, Marianas","Stratovolcano","Eruption Dated","1190 CE","29.968","129.926","628","Andesite / Basaltic Andesite","Subduction Zone / Oceanic Crust"
"282050","Kuchinoerabujima","Japan","Japan, Taiwan, Marianas","Stratovolcano","Eruption Observed","2015 CE","30.443","130.217","657","Andesite / Basaltic Andesite","Subduction Zone / Oceanic Crust"
"282060","Kikai","Japan","Japan, Taiwan, Marianas","Caldera","Eruption Observed","2013 CE","30.789","130.308","704","Rhyolite","Subduction Zone / Oceanic Crust"
"282070","Ata","Japan","Japan, Taiwan, Marianas","Caldera","Eruption Observed","885 CE","31.22","130.57","924","Andesite / Basaltic Andesite","Subduction Zone / Continental Crust"
"282080","Aira","Japan","Japan, Taiwan, Marianas","Caldera","Eruption Observed","2016 CE","31.593","130.657","1117","Andesite / Basaltic Andesite","Subduction Zone / Continental Crust"
"282081","Yonemaru-Sumiyoshiike","Japan","Japan, Taiwan, Marianas","Maar","Eruption Dated","6200 BCE","31.771","130.592","40","Basalt / Picro-Basalt","Subduction Zone / Continental Crust"
"282090","Kirishimayama","Japan","Japan, Taiwan, Marianas","Shield","Eruption Observed","2011 CE","31.934","130.862","1700","Andesite / Basaltic Andesite","Subduction Zone / Continental Crust"
"282091","Fukue","Japan","Japan, Taiwan, Marianas","Shield","Eruption Dated","400 BCE","32.657","128.849","315","Basalt / Picro-Basalt","Subduction Zone / Continental Crust"
"282100","Unzendake","Japan","Japan, Taiwan, Marianas","Complex","Eruption Observed","1996 CE","32.761","130.299","1483","Andesite / Basaltic Andesite","Subduction Zone / Continental Crust"
"282110","Asosan","Japan","Japan, Taiwan, Marianas","Caldera","Eruption Observed","2016 CE","32.884","131.104","1592","Andesite / Basaltic Andesite","Subduction Zone / Continental Crust"
"282120","Kujusan","Japan","Japan, Taiwan, Marianas","Stratovolcano","Eruption Observed","1996 CE","33.086","131.249","1791","Andesite / Basaltic Andesite","Subduction Zone / Continental Crust"
"282130","Yufu-Tsurumi","Japan","Japan, Taiwan, Marianas","Lava dome","Eruption Observed","867 CE","33.282","131.39","1584","Andesite / Basaltic Andesite","Subduction Zone / Continental Crust"
"283001","Abu","Japan","Japan, Taiwan, Marianas","Shield","Eruption Dated","6850 BCE","34.5","131.6","641","Andesite / Basaltic Andesite","Subduction Zone / Continental Crust"
"283002","Sanbesan","Japan","Japan, Taiwan, Marianas","Stratovolcano","Eruption Dated","650 CE","35.139","132.621","1126","Dacite","Subduction Zone / Continental Crust"
"283003","Oki-Dogo","Japan","Japan, Taiwan, Marianas","Shield","Evidence Credible","Unknown","36.176","133.334","151","Basalt / Picro-Basalt","Subduction Zone / Continental Crust"
"283010","Izu-Tobu","Japan","Japan, Taiwan, Marianas","Pyroclastic cone","Eruption Observed","1989 CE","34.9","139.098","1406","Basalt / Picro-Basalt","Subduction Zone / Continental Crust"
"283020","Hakoneyama","Japan","Japan, Taiwan, Marianas","Complex","Eruption Dated","2015 CE","35.233","139.021","1438","Andesite / Basaltic Andesite","Subduction Zone / Continental Crust"
"283030","Fujisan","Japan","Japan, Taiwan, Marianas","Stratovolcano","Eruption Observed","1708 CE","35.361","138.728","3776","Basalt / Picro-Basalt","Subduction Zone / Continental Crust"
"283031","Yokodake","Japan","Japan, Taiwan, Marianas","Stratovolcano","Eruption Dated","1200 CE","36.087","138.32","2480","Andesite / Basaltic Andesite","Subduction Zone / Continental Crust"
"283040","Ontakesan","Japan","Japan, Taiwan, Marianas","Complex","Eruption Observed","2014 CE","35.893","137.48","3067","Andesite / Basaltic Andesite","Subduction Zone / Continental Crust"
"283050","Hakusan","Japan","Japan, Taiwan, Marianas","Stratovolcano","Eruption Observed","1659 CE","36.155","136.771","2702","Andesite / Basaltic Andesite","Subduction Zone / Continental Crust"
"283060","Norikuradake","Japan","Japan, Taiwan, Marianas","Stratovolcano","Eruption Dated","50 BCE","36.106","137.554","3026","Andesite / Basaltic Andesite","Subduction Zone / Continental Crust"
"283069","Akandanayama","Japan","Japan, Taiwan, Marianas","Stratovolcano","Evidence Credible","Unknown","36.2","137.573","2109","",""
"283070","Yakedake","Japan","Japan, Taiwan, Marianas","Stratovolcano","Eruption Observed","1995 CE","36.227","137.587","2455","Andesite / Basaltic Andesite","Subduction Zone / Continental Crust"
"283071","Washiba-Kumonotaira","Japan","Japan, Taiwan, Marianas","Shield","Evidence Credible","Unknown","36.408","137.594","2924","Andesite / Basaltic Andesite","Subduction Zone / Continental Crust"
"283080","Midagahara","Japan","Japan, Taiwan, Marianas","Stratovolcano","Eruption Observed","1839 CE","36.571","137.59","2621","Andesite / Basaltic Andesite","Subduction Zone / Continental Crust"
"283090","Niigata-Yakeyama","Japan","Japan, Taiwan, Marianas","Lava dome","Eruption Observed","1998 CE","36.921","138.036","2400","Andesite / Basaltic Andesite","Subduction Zone / Continental Crust"
"283100","Myokosan","Japan","Japan, Taiwan, Marianas","Stratovolcano","Eruption Dated","750 BCE","36.891","138.114","2454","Andesite / Basaltic Andesite","Subduction Zone / Continental Crust"
"283110","Asamayama","Japan","Japan, Taiwan, Marianas","Complex","Eruption Observed","2015 CE","36.406","138.523","2568","Andesite / Basaltic Andesite","Subduction Zone / Continental Crust"
"283120","Kusatsu-Shiranesan","Japan","Japan, Taiwan, Marianas","Stratovolcano","Eruption Observed","1983 CE","36.618","138.528","2165","Andesite / Basaltic Andesite","Subduction Zone / Continental Crust"
"283121","Shiga","Japan","Japan, Taiwan, Marianas","Shield","Evidence Uncertain","Unknown","36.688","138.519","2041","Andesite / Basaltic Andesite","Subduction Zone / Continental Crust"
"283122","Harunasan","Japan","Japan, Taiwan, Marianas","Stratovolcano","Eruption Dated","550 CE","36.477","138.851","1449","Andesite / Basaltic Andesite","Subduction Zone / Continental Crust"
"283130","Akagisan","Japan","Japan, Taiwan, Marianas","Stratovolcano","Evidence Uncertain","Unknown","36.56","139.193","1828","Andesite / Basaltic Andesite","Subduction Zone / Continental Crust"
"283131","Hiuchigatake","Japan","Japan, Taiwan, Marianas","Stratovolcano","Eruption Observed","1544 CE","36.955","139.285","2356","Andesite / Basaltic Andesite","Subduction Zone / Continental Crust"
"283140","Nikko-Shiranesan","Japan","Japan, Taiwan, Marianas","Shield","Eruption Observed","1952 CE","36.799","139.376","2578","Andesite / Basaltic Andesite","Subduction Zone / Continental Crust"
"283141","Nantai","Japan","Japan, Taiwan, Marianas","Stratovolcano","Eruption Dated","9540 BCE","36.762","139.494","2486","Andesite / Basaltic Andesite","Subduction Zone / Continental Crust"
"283142","Omanago Group","Japan","Japan, Taiwan, Marianas","Lava dome","Eruption Dated","3050 BCE","36.795","139.507","2341","Dacite","Subduction Zone / Continental Crust"
"283143","Takaharayama","Japan","Japan, Taiwan, Marianas","Stratovolcano","Eruption Dated","4570 BCE","36.9","139.777","1795","Andesite / Basaltic Andesite","Subduction Zone / Continental Crust"
"283150","Nasudake","Japan","Japan, Taiwan, Marianas","Stratovolcano","Eruption Observed","1963 CE","37.125","139.963","1915","Andesite / Basaltic Andesite","Subduction Zone / Continental Crust"
"283151","Numazawa","Japan","Japan, Taiwan, Marianas","Shield","Eruption Dated","3400 BCE","37.444","139.566","835","Dacite","Subduction Zone / Continental Crust"
"283160","Bandaisan","Japan","Japan, Taiwan, Marianas","Stratovolcano","Eruption Observed","1888 CE","37.601","140.072","1816","Andesite / Basaltic Andesite","Subduction Zone / Continental Crust"
"283170","Adatarayama","Japan","Japan, Taiwan, Marianas","Stratovolcano","Eruption Observed","1996 CE","37.647","140.281","1728","Andesite / Basaltic Andesite","Subduction Zone / Continental Crust"
"283180","Azumayama","Japan","Japan, Taiwan, Marianas","Stratovolcano","Eruption Observed","1977 CE","37.735","140.244","1949","Andesite / Basaltic Andesite","Subduction Zone / Continental Crust"
"283190","Zaozan","Japan","Japan, Taiwan, Marianas","Complex","Eruption Observed","1940 CE","38.144","140.44","1841","Andesite / Basaltic Andesite","Subduction Zone / Continental Crust"
"283191","Hijiori","Japan","Japan, Taiwan, Marianas","Caldera","Evidence Credible","Unknown","38.599","140.162","552","Dacite","Subduction Zone / Continental Crust"
"283200","Naruko","Japan","Japan, Taiwan, Marianas","Caldera","Eruption Observed","837 CE","38.729","140.734","470","Rhyolite","Subduction Zone / Continental Crust"
"283210","Kurikomayama","Japan","Japan, Taiwan, Marianas","Stratovolcano","Eruption Observed","1950 CE","38.961","140.788","1627","Andesite / Basaltic Andesite","Subduction Zone / Continental Crust"
"283220","Chokaisan","Japan","Japan, Taiwan, Marianas","Stratovolcano","Eruption Observed","1974 CE","39.099","140.049","2236","Andesite / Basaltic Andesite","Subduction Zone / Continental Crust"
"283230","Akita-Komagatake","Japan","Japan, Taiwan, Marianas","Stratovolcano","Eruption Observed","1971 CE","39.761","140.799","1637","Basalt / Picro-Basalt","Subduction Zone / Continental Crust"
"283240","Iwatesan","Japan","Japan, Taiwan, Marianas","Complex","Eruption Observed","1919 CE","39.853","141.001","2038","Basalt / Picro-Basalt","Subduction Zone / Continental Crust"
"283250","Hachimantai","Japan","Japan, Taiwan, Marianas","Stratovolcano","Eruption Dated","5350 BCE","39.958","140.854","1613","Andesite / Basaltic Andesite","Subduction Zone / Continental Crust"
"283260","Akita-Yakeyama","Japan","Japan, Taiwan, Marianas","Stratovolcano","Eruption Observed","1997 CE","39.964","140.757","1366","Andesite / Basaltic Andesite","Subduction Zone / Continental Crust"
"283262","Megata","Japan","Japan, Taiwan, Marianas","Maar","Eruption Dated","2050 BCE","39.95","139.73","291","Andesite / Basaltic Andesite","Subduction Zone / Continental Crust"
"283270","Iwakisan","Japan","Japan, Taiwan, Marianas","Stratovolcano","Eruption Observed","1863 CE","40.656","140.303","1625","Andesite / Basaltic Andesite","Subduction Zone / Continental Crust"
"283271","Towada","Japan","Japan, Taiwan, Marianas","Caldera","Eruption Observed","915 CE","40.51","140.88","1011","Andesite / Basaltic Andesite","Subduction Zone / Continental Crust"
"283280","Hakkodasan","Japan","Japan, Taiwan, Marianas","Stratovolcano","Eruption Dated","1550 CE","40.659","140.877","1585","Andesite / Basaltic Andesite","Subduction Zone / Continental Crust"
"283290","Osorezan","Japan","Japan, Taiwan, Marianas","Stratovolcano","Eruption Observed","1787 CE","41.276","141.124","878","Andesite / Basaltic Andesite","Subduction Zone / Continental Crust"
"283879","Onikobe","Japan","Japan, Taiwan, Marianas","Caldera","Unrest / Pleistocene","Unknown","38.83","140.695","769","","Subduction Zone / Continental Crust"
"283892","Mutsu-Hiuchi-dake","Japan","Japan, Taiwan, Marianas","Stratovolcano","Unrest / Pleistocene","Unknown","41.436","141.056","781","","Subduction Zone / Continental Crust"
"284010","Izu-Oshima","Japan","Japan, Taiwan, Marianas","Stratovolcano","Eruption Observed","1990 CE","34.724","139.394","758","Basalt / Picro-Basalt","Subduction Zone / Oceanic Crust"
"284011","Toshima","Japan","Japan, Taiwan, Marianas","Stratovolcano","Eruption Dated","4550 BCE","34.52","139.279","508","Basalt / Picro-Basalt","Subduction Zone / Oceanic Crust"
"284020","Niijima","Japan","Japan, Taiwan, Marianas","Lava dome","Eruption Observed","886 CE","34.397","139.27","432","Rhyolite","Subduction Zone / Oceanic Crust"
"284030","Kozushima","Japan","Japan, Taiwan, Marianas","Lava dome","Eruption Observed","838 CE","34.219","139.153","572","Rhyolite","Subduction Zone / Oceanic Crust"
"284040","Miyakejima","Japan","Japan, Taiwan, Marianas","Stratovolcano","Eruption Observed","2010 CE","34.094","139.526","775","Basalt / Picro-Basalt","Subduction Zone / Oceanic Crust"
"284041","Mikurajima","Japan","Japan, Taiwan, Marianas","Stratovolcano","Eruption Dated","4100 BCE","33.874","139.602","851","Basalt / Picro-Basalt","Subduction Zone / Oceanic Crust"
"284042","Kurose Hole","Japan","Japan, Taiwan, Marianas","Submarine","Evidence Uncertain","Unknown","33.4","139.68","-107","Dacite","Subduction Zone / Oceanic Crust"
"284050","Hachijojima","Japan","Japan, Taiwan, Marianas","Stratovolcano","Eruption Observed","1606 CE","33.137","139.766","854","Basalt / Picro-Basalt","Subduction Zone / Oceanic Crust"
"284060","Aogashima","Japan","Japan, Taiwan, Marianas","Stratovolcano","Eruption Observed","1785 CE","32.458","139.759","423","Basalt / Picro-Basalt","Subduction Zone / Oceanic Crust"
"284061","Kita-Bayonnaise","Japan","Japan, Taiwan, Marianas","Submarine","Evidence Uncertain","Unknown","32.1","139.85","-360","Rhyolite","Subduction Zone / Oceanic Crust"
"284070","Myojinsho","Japan","Japan, Taiwan, Marianas","Submarine","Eruption Observed","1970 CE","31.888","139.918","11","Dacite","Subduction Zone / Oceanic Crust"
"284080","Sumisujima","Japan","Japan, Taiwan, Marianas","Submarine","Eruption Observed","1916 CE","31.44","140.051","136","Dacite","Subduction Zone / Oceanic Crust"
"284090","Izu-Torishima","Japan","Japan, Taiwan, Marianas","Stratovolcano","Eruption Observed","2002 CE","30.484","140.303","394","Basalt / Picro-Basalt","Subduction Zone / Oceanic Crust"
"284091","Sofugan","Japan","Japan, Taiwan, Marianas","Stratovolcano","Evidence Uncertain","Unknown","29.794","140.342","99","Basalt / Picro-Basalt","Subduction Zone / Oceanic Crust"
"284093","Suiyo Seamount","Japan","Japan, Taiwan, Marianas","Submarine","Unrest / Holocene","Unknown","28.575","140.633","-991","Andesite / Basaltic Andesite","Subduction Zone / Crust Thickness Unknown"
"284094","Mokuyo Seamount","Japan","Japan, Taiwan, Marianas","Submarine","Unrest / Holocene","Unknown","28.327","140.572","-933","Andesite / Basaltic Andesite","Subduction Zone / Crust Thickness Unknown"
"284095","Doyo Seamount","Japan","Japan, Taiwan, Marianas","Submarine","Unrest / Holocene","Unknown","27.68","140.8","-590","Basalt / Picro-Basalt","Subduction Zone / Crust Thickness Unknown"
"284096","Nishinoshima","Japan","Japan, Taiwan, Marianas","Caldera","Eruption Observed","2015 CE","27.247","140.874","25","Andesite / Basaltic Andesite","Subduction Zone / Crust Thickness Unknown"
"284097","Kaikata Seamount","Japan","Japan, Taiwan, Marianas","Submarine","Unrest / Holocene","Unknown","26.667","140.929","-165","Andesite / Basaltic Andesite","Subduction Zone / Crust Thickness Unknown"
"284100","Kaitoku Seamount","Japan","Japan, Taiwan, Marianas","Submarine","Eruption Observed","1984 CE","26.06","140.933","-173","Basalt / Picro-Basalt","Subduction Zone / Crust Thickness Unknown"
"284110","Kita-Ioto","Japan","Japan, Taiwan, Marianas","Stratovolcano","Eruption Observed","1945 CE","25.424","141.284","792","Basalt / Picro-Basalt","Subduction Zone / Crust Thickness Unknown"
"284120","Ioto","Japan","Japan, Taiwan, Marianas","Caldera","Eruption Observed","2012 CE","24.751","141.289","169","Trachyandesite / Basaltic Trachyandesite","Subduction Zone / Crust Thickness Unknown"
"284121","Kita-Fukutokutai","Japan","Japan, Taiwan, Marianas","Submarine","Eruption Observed","1954 CE","24.417","141.417","-73","No Data","Subduction Zone / Crust Thickness Unknown"
"284130","Fukutoku-Oka-no-Ba","Japan","Japan, Taiwan, Marianas","Submarine","Eruption Observed","2010 CE","24.285","141.481","-29","Trachyandesite / Basaltic Trachyandesite","Subduction Zone / Crust Thickness Unknown"
"284131","Minami Hiyoshi","Japan","Japan, Taiwan, Marianas","Submarine","Eruption Observed","1975 CE","23.5","141.935","-107","Trachyandesite / Basaltic Trachyandesite","Subduction Zone / Crust Thickness Unknown"
"284132","Nikko","Japan","Japan, Taiwan, Marianas","Submarine","Unrest / Holocene","Unknown","23.078","142.326","-392","Basalt / Picro-Basalt","Subduction Zone / Crust Thickness Unknown"
"284133","Fukujin","United States","Japan, Taiwan, Marianas","Submarine","Eruption Observed","1974 CE","21.93","143.47","-217","Andesite / Basaltic Andesite","Subduction Zone / Crust Thickness Unknown"
"284134","Kasuga 1","United States","Japan, Taiwan, Marianas","Submarine","Eruption Observed","1959 CE","21.765","143.71","-598","Andesite / Basaltic Andesite","Subduction Zone / Crust Thickness Unknown"
"284135","Kasuga 2","United States","Japan, Taiwan, Marianas","Submarine","Evidence Credible","Unknown","21.6","143.637","-274","Basalt / Picro-Basalt","Subduction Zone / Crust Thickness Unknown"
"284136","NW Eifuku","United States","Japan, Taiwan, Marianas","Submarine","Unrest / Holocene","Unknown","21.485","144.043","-1535","Basalt / Picro-Basalt","Subduction Zone / Crust Thickness Unknown"
"284137","Daikoku","United States","Japan, Taiwan, Marianas","Submarine","Unrest / Holocene","Unknown","21.324","144.194","-323","Andesite / Basaltic Andesite","Subduction Zone / Crust Thickness Unknown"
"284140","Farallon de Pajaros","United States","Japan, Taiwan, Marianas","Stratovolcano","Eruption Observed","1967 CE","20.538","144.896","360","Andesite / Basaltic Andesite","Subduction Zone / Crust Thickness Unknown"
"284141","Ahyi","United States","Japan, Taiwan, Marianas","Submarine","Eruption Dated","2014 CE","20.42","145.03","-75","Andesite / Basaltic Andesite","Subduction Zone / Crust Thickness Unknown"
"284142","Supply Reef","United States","Japan, Taiwan, Marianas","Submarine","Eruption Dated","1989 CE","20.13","145.1","-8","Andesite / Basaltic Andesite","Subduction Zone / Crust Thickness Unknown"
"284143","Maug Islands","United States","Japan, Taiwan, Marianas","Stratovolcano","Unrest / Holocene","Unknown","20.02","145.22","227","Basalt / Picro-Basalt","Subduction Zone / Crust Thickness Unknown"
"284150","Asuncion","United States","Japan, Taiwan, Marianas","Stratovolcano","Eruption Observed","1906 CE","19.671","145.406","857","Andesite / Basaltic Andesite","Subduction Zone / Crust Thickness Unknown"
"284160","Agrigan","United States","Japan, Taiwan, Marianas","Stratovolcano","Eruption Observed","1917 CE","18.77","145.67","965","Basalt / Picro-Basalt","Subduction Zone / Crust Thickness Unknown"
"284170","Pagan","United States","Japan, Taiwan, Marianas","Stratovolcano","Eruption Observed","2012 CE","18.13","145.8","570","Basalt / Picro-Basalt","Subduction Zone / Crust Thickness Unknown"
"284180","Alamagan","United States","Japan, Taiwan, Marianas","Stratovolcano","Eruption Dated","870 CE","17.6","145.83","744","Andesite / Basaltic Andesite","Subduction Zone / Crust Thickness Unknown"
"284190","Guguan","United States","Japan, Taiwan, Marianas","Stratovolcano","Eruption Observed","1883 CE","17.307","145.845","287","Andesite / Basaltic Andesite","Subduction Zone / Crust Thickness Unknown"
"284191","Zealandia Bank","United States","Japan, Taiwan, Marianas","Stratovolcano","Unrest / Holocene","Unknown","16.88","145.85","0","Basalt / Picro-Basalt","Subduction Zone / Crust Thickness Unknown"
"284192","Sarigan","United States","Japan, Taiwan, Marianas","Stratovolcano","Evidence Credible","Unknown","16.708","145.78","538","Andesite / Basaltic Andesite","Subduction Zone / Crust Thickness Unknown"
"284193","South Sarigan Seamount","United States","Japan, Taiwan, Marianas","Submarine","Eruption Observed","2010 CE","16.58","145.78","-184","No Data","Subduction Zone / Crust Thickness Unknown"
"284200","Anatahan","United States","Japan, Taiwan, Marianas","Stratovolcano","Eruption Observed","2008 CE","16.35","145.67","790","Andesite / Basaltic Andesite","Subduction Zone / Crust Thickness Unknown"
"284201","East Diamante","United States","Japan, Taiwan, Marianas","Submarine","Unrest / Holocene","Unknown","15.93","145.67","-127","Dacite","Subduction Zone / Crust Thickness Unknown"
"284202","Ruby","United States","Japan, Taiwan, Marianas","Submarine","Eruption Observed","1995 CE","15.62","145.57","-230","Basalt / Picro-Basalt","Subduction Zone / Crust Thickness Unknown"
"284210","Esmeralda Bank","United States","Japan, Taiwan, Marianas","Submarine","Unrest / Holocene","Unknown","15","145.25","-43","Basalt / Picro-Basalt","Subduction Zone / Crust Thickness Unknown"
"284211","NW Rota-1","United States","Japan, Taiwan, Marianas","Submarine","Eruption Observed","2010 CE","14.601","144.775","-517","Basalt / Picro-Basalt","Subduction Zone / Crust Thickness Unknown"
"284220","Forecast Seamount","United States","Japan, Taiwan, Marianas","Submarine","Unrest / Holocene","Unknown","13.4","143.92","0","No Data","Subduction Zone / Crust Thickness Unknown"
"284230","Seamount X","United States","Japan, Taiwan, Marianas","Submarine","Unrest / Holocene","Unknown","13.25","144.02","-1230","Basalt / Picro-Basalt","Subduction Zone / Crust Thickness Unknown"
"284305","Mariana Back-Arc Segment at 15.5N","United States","Japan, Taiwan, Marianas","Submarine","","2015 CE","15.406","144.506","-4100","","Subduction Zone / Oceanic Crust"
"285010","Oshima-Oshima","Japan","Japan, Taiwan, Marianas","Stratovolcano","Eruption Observed","1790 CE","41.51","139.367","732","Basalt / Picro-Basalt","Subduction Zone / Continental Crust"
"285011","Esan","Japan","Japan, Taiwan, Marianas","Lava dome","Eruption Observed","1874 CE","41.805","141.166","618","Andesite / Basaltic Andesite","Subduction Zone / Continental Crust"
"285020","Hokkaido-Komagatake","Japan","Japan, Taiwan, Marianas","Stratovolcano","Eruption Observed","2000 CE","42.063","140.677","1131","Andesite / Basaltic Andesite","Subduction Zone / Continental Crust"
"285030","Toya","Japan","Japan, Taiwan, Marianas","Stratovolcano","Eruption Observed","2001 CE","42.544","140.839","733","Basalt / Picro-Basalt","Subduction Zone / Continental Crust"
"285031","Niseko","Japan","Japan, Taiwan, Marianas","Stratovolcano","Eruption Dated","4900 BCE","42.88","140.63","1308","Andesite / Basaltic Andesite","Subduction Zone / Continental Crust"
"285032","Yoteizan","Japan","Japan, Taiwan, Marianas","Stratovolcano","Eruption Dated","1050 BCE","42.827","140.811","1898","Andesite / Basaltic Andesite","Subduction Zone / Continental Crust"
"285034","Kuttara","Japan","Japan, Taiwan, Marianas","Stratovolcano","Eruption Dated","1820 CE","42.491","141.16","549","Basalt / Picro-Basalt","Subduction Zone / Continental Crust"
"285040","Shikotsu","Japan","Japan, Taiwan, Marianas","Caldera","Eruption Observed","1981 CE","42.688","141.38","1320","Andesite / Basaltic Andesite","Subduction Zone / Continental Crust"
"285041","Rishirizan","Japan","Japan, Taiwan, Marianas","Stratovolcano","Eruption Dated","5830 BCE","45.179","141.242","1721","Andesite / Basaltic Andesite","Subduction Zone / Continental Crust"
"285050","Tokachidake","Japan","Japan, Taiwan, Marianas","Stratovolcano","Eruption Observed","2004 CE","43.418","142.686","2077","Andesite / Basaltic Andesite","Subduction Zone / Continental Crust"
"285060","Taisetsuzan","Japan","Japan, Taiwan, Marianas","Stratovolcano","Eruption Dated","1739 CE","43.664","142.854","2291","Andesite / Basaltic Andesite","Subduction Zone / Continental Crust"
"285061","Maruyama","Japan","Japan, Taiwan, Marianas","Stratovolcano","Eruption Observed","1898 CE","43.453","143.036","2013","Andesite / Basaltic Andesite","Subduction Zone / Continental Crust"
"285062","Shikaribetsu Group","Japan","Japan, Taiwan, Marianas","Lava dome","Evidence Uncertain","Unknown","43.312","143.096","1401","Andesite / Basaltic Andesite","Subduction Zone / Continental Crust"
"285070","Akan","Japan","Japan, Taiwan, Marianas","Caldera","Eruption Observed","2008 CE","43.384","144.013","1499","Andesite / Basaltic Andesite","Subduction Zone / Continental Crust"
"285080","Kussharo","Japan","Japan, Taiwan, Marianas","Caldera","Eruption Dated","1320 CE","43.608","144.443","574","Dacite","Subduction Zone / Continental Crust"
"285081","Mashu","Japan","Japan, Taiwan, Marianas","Caldera","Eruption Dated","1080 CE","43.572","144.561","857","Andesite / Basaltic Andesite","Subduction Zone / Continental Crust"
"285082","Rausudake","Japan","Japan, Taiwan, Marianas","Stratovolcano","Eruption Dated","1800 CE","44.076","145.122","1660","Andesite / Basaltic Andesite","Subduction Zone / Continental Crust"
"285083","Tenchozan","Japan","Japan, Taiwan, Marianas","Crater rows","Eruption Dated","Unknown","44.044","145.086","1046","",""
"285090","Shiretoko-Iozan","Japan","Japan, Taiwan, Marianas","Stratovolcano","Eruption Observed","1936 CE","44.133","145.161","1562","Andesite / Basaltic Andesite","Subduction Zone / Continental Crust"
"285805","Nigorikawa","Japan","Japan, Taiwan, Marianas","Caldera","Unrest / Pleistocene","Unknown","42.12","140.45","356","","Subduction Zone / Continental Crust"
"290010","Tomariyama [Golovnin]","Japan - administered by Russia","Kuril Islands","Caldera","Eruption Observed","1848 CE","43.844","145.504","535","Andesite / Basaltic Andesite","Subduction Zone / Intermediate Crust"
"290020","Raususan [Mendeleev]","Japan - administered by Russia","Kuril Islands","Stratovolcano","Eruption Observed","1880 CE","43.979","145.733","882","Andesite / Basaltic Andesite","Subduction Zone / Intermediate Crust"
"290021","Ruruidake [Smirnov]","Japan - administered by Russia","Kuril Islands","Stratovolcano","Evidence Credible","Unknown","44.454","146.139","1486","Andesite / Basaltic Andesite","Subduction Zone / Intermediate Crust"
"290030","Chachadake [Tiatia]","Japan - administered by Russia","Kuril Islands","Stratovolcano","Eruption Observed","1981 CE","44.353","146.252","1822","Basalt / Picro-Basalt","Subduction Zone / Intermediate Crust"
"290040","Berutarubesan [Berutarube]","Japan - administered by Russia","Kuril Islands","Stratovolcano","Evidence Credible","Unknown","44.462","146.932","1221","Andesite / Basaltic Andesite","Subduction Zone / Intermediate Crust"
"290041","Moekeshiwan [Lvinaya Past]","Japan - administered by Russia","Kuril Islands","Stratovolcano","Eruption Dated","7480 BCE","44.608","146.994","528","Andesite / Basaltic Andesite","Subduction Zone / Intermediate Crust"
"290050","Etorofu-Atosanupuri [Atosanupuri]","Japan - administered by Russia","Kuril Islands","Stratovolcano","Eruption Observed","1932 CE","44.808","147.131","1206","Andesite / Basaltic Andesite","Subduction Zone / Intermediate Crust"
"290060","Nishihitokappuyama [Bogatyr Ridge]","Japan - administered by Russia","Kuril Islands","Stratovolcano","Evidence Credible","Unknown","44.833","147.342","1634","Andesite / Basaltic Andesite","Subduction Zone / Intermediate Crust"
"290061","Unnamed","Japan - administered by Russia","Kuril Islands","Submarine","Evidence Uncertain","Unknown","45.022","147.019","-195","No Data","Subduction Zone / Intermediate Crust"
"290070","Etorofu-Yakeyama [Grozny Group]","Japan - administered by Russia","Kuril Islands","Complex","Eruption Observed","2013 CE","45.012","147.871","1158","Andesite / Basaltic Andesite","Subduction Zone / Intermediate Crust"
"290072","Odamoisan [Tebenkov]","Japan - administered by Russia","Kuril Islands","Stratovolcano","Evidence Uncertain","Unknown","45.026","147.922","1208","","Subduction Zone / Intermediate Crust"
"290080","Sashiusudake [Baransky]","Japan - administered by Russia","Kuril Islands","Stratovolcano","Eruption Observed","1951 CE","45.1","148.019","1125","Andesite / Basaltic Andesite","Subduction Zone / Intermediate Crust"
"290090","Chirippusan [Chirip]","Japan - administered by Russia","Kuril Islands","Stratovolcano","Eruption Observed","1860 CE","45.338","147.92","1587","Basalt / Picro-Basalt","Subduction Zone / Intermediate Crust"
"290091","Rucharuyama [Golets-Tornyi Group]","Japan - administered by Russia","Kuril Islands","Pyroclastic cone","Evidence Uncertain","Unknown","45.25","148.35","442","Andesite / Basaltic Andesite","Subduction Zone / Intermediate Crust"
"290100","Moyorodake [Medvezhia]","Japan - administered by Russia","Kuril Islands","Stratovolcano","Eruption Observed","1999 CE","45.389","148.838","1124","Andesite / Basaltic Andesite","Subduction Zone / Intermediate Crust"
"290110","Rakkibetsudake [Demon]","Japan - administered by Russia","Kuril Islands","Stratovolcano","Evidence Credible","Unknown","45.5","148.85","1205","No Data","Subduction Zone / Intermediate Crust"
"290111","Ivao Group","Russia","Kuril Islands","Pyroclastic cone","Evidence Credible","Unknown","45.77","149.68","1426","No Data","Subduction Zone / Intermediate Crust"
"290112","Rudakov","Russia","Kuril Islands","Stratovolcano","Evidence Uncertain","Unknown","45.874","149.819","532","Andesite / Basaltic Andesite","Subduction Zone / Intermediate Crust"
"290113","Tri Sestry","Russia","Kuril Islands","Stratovolcano","Evidence Uncertain","Unknown","45.93","149.92","998","Andesite / Basaltic Andesite","Subduction Zone / Intermediate Crust"
"290120","Kolokol Group","Russia","Kuril Islands","Stratovolcano","Eruption Observed","1973 CE","46.042","150.083","1328","Andesite / Basaltic Andesite","Subduction Zone / Intermediate Crust"
"290150","Chirpoi","Russia","Kuril Islands","Caldera","Eruption Observed","2016 CE","46.525","150.875","742","Andesite / Basaltic Andesite","Subduction Zone / Oceanic Crust"
"290160","Unnamed","Russia","Kuril Islands","Submarine","Eruption Dated","1972 CE","46.47","151.28","-502","No Data","Subduction Zone / Oceanic Crust"
"290161","Milna","Russia","Kuril Islands","Stratovolcano","Eruption Observed","1914 CE","46.815","151.786","1504","Andesite / Basaltic Andesite","Subduction Zone / Oceanic Crust"
"290180","Zavaritzki Caldera","Russia","Kuril Islands","Caldera","Eruption Observed","1957 CE","46.925","151.95","624","Andesite / Basaltic Andesite","Subduction Zone / Oceanic Crust"
"290190","Prevo Peak","Russia","Kuril Islands","Stratovolcano","Eruption Observed","1825 CE","47.02","152.12","1360","Basalt / Picro-Basalt","Subduction Zone / Oceanic Crust"
"290191","Uratman","Russia","Kuril Islands","Stratovolcano","Evidence Credible","Unknown","47.12","152.25","678","Andesite / Basaltic Andesite","Subduction Zone / Oceanic Crust"
"290200","Ketoi","Russia","Kuril Islands","Stratovolcano","Eruption Observed","1960 CE","47.35","152.475","1172","Andesite / Basaltic Andesite","Subduction Zone / Oceanic Crust"
"290210","Ushishur","Russia","Kuril Islands","Caldera","Eruption Observed","1884 CE","47.52","152.8","401","Andesite / Basaltic Andesite","Subduction Zone / Oceanic Crust"
"290211","Srednii","Russia","Kuril Islands","Submarine","Evidence Credible","Unknown","47.6","152.92","36","No Data","Subduction Zone / Oceanic Crust"
"290220","Rasshua","Russia","Kuril Islands","Stratovolcano","Eruption Observed","1957 CE","47.77","153.02","956","Andesite / Basaltic Andesite","Subduction Zone / Oceanic Crust"
"290240","Sarychev Peak","Russia","Kuril Islands","Stratovolcano","Eruption Observed","2009 CE","48.092","153.2","1496","Andesite / Basaltic Andesite","Subduction Zone / Intermediate Crust"
"290250","Raikoke","Russia","Kuril Islands","Stratovolcano","Eruption Observed","1924 CE","48.292","153.25","551","Basalt / Picro-Basalt","Subduction Zone / Intermediate Crust"
"290260","Chirinkotan","Russia","Kuril Islands","Stratovolcano","Eruption Observed","2016 CE","48.98","153.48","724","Andesite / Basaltic Andesite","Subduction Zone / Intermediate Crust"
"290270","Ekarma","Russia","Kuril Islands","Stratovolcano","Eruption Observed","2010 CE","48.958","153.93","1170","Andesite / Basaltic Andesite","Subduction Zone / Intermediate Crust"
"290290","Sinarka","Russia","Kuril Islands","Stratovolcano","Eruption Observed","2014 CE","48.875","154.175","934","Andesite / Basaltic Andesite","Subduction Zone / Intermediate Crust"
"290300","Kharimkotan","Russia","Kuril Islands","Stratovolcano","Eruption Observed","1933 CE","49.12","154.508","1145","Andesite / Basaltic Andesite","Subduction Zone / Intermediate Crust"
"290310","Tao-Rusyr Caldera","Russia","Kuril Islands","Stratovolcano","Eruption Observed","1952 CE","49.35","154.7","1325","Andesite / Basaltic Andesite","Subduction Zone / Intermediate Crust"
"290320","Nemo Peak","Russia","Kuril Islands","Caldera","Eruption Observed","1938 CE","49.57","154.808","1018","Andesite / Basaltic Andesite","Subduction Zone / Intermediate Crust"
"290331","Shirinki","Russia","Kuril Islands","Stratovolcano","Evidence Credible","Unknown","50.2","154.98","761","Andesite / Basaltic Andesite","Subduction Zone / Continental Crust"
"290340","Fuss Peak","Russia","Kuril Islands","Stratovolcano","Eruption Observed","1854 CE","50.267","155.246","1742","Andesite / Basaltic Andesite","Subduction Zone / Continental Crust"
"290350","Karpinsky Group","Russia","Kuril Islands","Cone","Eruption Observed","1952 CE","50.148","155.373","1326","Andesite / Basaltic Andesite","Subduction Zone / Continental Crust"
"290360","Chikurachki","Russia","Kuril Islands","Stratovolcano","Eruption Observed","2016 CE","50.324","155.461","1781","Basalt / Picro-Basalt","Subduction Zone / Continental Crust"
"290370","Vernadskii Ridge","Russia","Kuril Islands","Pyroclastic cone","Evidence Credible","Unknown","50.55","155.97","1183","Andesite / Basaltic Andesite","Subduction Zone / Continental Crust"
"290380","Ebeko","Russia","Kuril Islands","Stratovolcano","Eruption Observed","2016 CE","50.686","156.014","1103","Andesite / Basaltic Andesite","Subduction Zone / Continental Crust"
"290390","Alaid","Russia","Kuril Islands","Stratovolcano","Eruption Observed","2016 CE","50.861","155.565","2285","Basalt / Picro-Basalt","Subduction Zone / Continental Crust"
"290808","Kuntomintar","Russia","Kuril Islands","Stratovolcano","Unrest / Pleistocene","Unknown","48.75","154.02","828","","Subduction Zone / Intermediate Crust"
"300001","Mashkovtsev","Russia","Kamchatka and Mainland Asia","Stratovolcano","Evidence Credible","Unknown","51.1","156.72","503","Basalt / Picro-Basalt","Subduction Zone / Continental Crust"
"300010","Kambalny","Russia","Kamchatka and Mainland Asia","Stratovolcano","Eruption Dated","1350 CE","51.306","156.875","2116","Basalt / Picro-Basalt","Subduction Zone / Continental Crust"
"300020","Koshelev","Russia","Kamchatka and Mainland Asia","Stratovolcano","Eruption Observed","1690 CE","51.356","156.753","1822","Basalt / Picro-Basalt","Subduction Zone / Continental Crust"
"300021","Yavinsky","Russia","Kamchatka and Mainland Asia","Stratovolcano","Eruption Dated","4050 BCE","51.533","156.629","646","Basalt / Picro-Basalt","Subduction Zone / Continental Crust"
"300022","Diky Greben","Russia","Kamchatka and Mainland Asia","Lava dome","Eruption Dated","350 CE","51.452","156.978","1040","Dacite","Subduction Zone / Continental Crust"
"300023","Kurile Lake","Russia","Kamchatka and Mainland Asia","Caldera","Eruption Dated","6440 BCE","51.45","157.12","81","Dacite","Subduction Zone / Continental Crust"
"300030","Iliinsky","Russia","Kamchatka and Mainland Asia","Stratovolcano","Eruption Observed","1901 CE","51.498","157.203","1555","Andesite / Basaltic Andesite","Subduction Zone / Continental Crust"
"300040","Zheltovsky","Russia","Kamchatka and Mainland Asia","Stratovolcano","Eruption Observed","1923 CE","51.577","157.328","1926","Basalt / Picro-Basalt","Subduction Zone / Continental Crust"
"300041","Kell","Russia","Kamchatka and Mainland Asia","Stratovolcano","Evidence Credible","Unknown","51.65","157.35","900","Basalt / Picro-Basalt","Subduction Zone / Continental Crust"
"300042","Belenkaya","Russia","Kamchatka and Mainland Asia","Stratovolcano","Evidence Credible","Unknown","51.75","157.27","892","Basalt / Picro-Basalt","Subduction Zone / Continental Crust"
"300050","Ksudach","Russia","Kamchatka and Mainland Asia","Stratovolcano","Eruption Observed","1907 CE","51.844","157.572","1079","Andesite / Basaltic Andesite","Subduction Zone / Continental Crust"
"300051","Ozernoy","Russia","Kamchatka and Mainland Asia","Shield","Evidence Credible","Unknown","51.88","157.38","562","Basalt / Picro-Basalt","Subduction Zone / Continental Crust"
"300052","Olkoviy Volcanic Group","Russia","Kamchatka and Mainland Asia","Volcanic field","Evidence Credible","Unknown","52.02","157.53","681","Basalt / Picro-Basalt","Subduction Zone / Continental Crust"
"300053","Khodutka","Russia","Kamchatka and Mainland Asia","Stratovolcano","Eruption Dated","300 BCE","52.062","157.711","2039","Andesite / Basaltic Andesite","Subduction Zone / Continental Crust"
"300054","Piratkovsky","Russia","Kamchatka and Mainland Asia","Stratovolcano","Evidence Credible","Unknown","52.113","157.849","1322","No Data","Subduction Zone / Continental Crust"
"300055","Ostanets","Russia","Kamchatka and Mainland Asia","Shield","Evidence Credible","Unknown","52.146","157.322","719","Basalt / Picro-Basalt","Subduction Zone / Continental Crust"
"300056","Otdelniy","Russia","Kamchatka and Mainland Asia","Shield","Evidence Credible","Unknown","52.22","157.428","791","Basalt / Picro-Basalt","Subduction Zone / Continental Crust"
"300057","Golaya","Russia","Kamchatka and Mainland Asia","Stratovolcano","Evidence Credible","Unknown","52.263","157.787","858","Basalt / Picro-Basalt","Subduction Zone / Continental Crust"
"300058","Asacha","Russia","Kamchatka and Mainland Asia","Complex","Evidence Credible","Unknown","52.355","157.827","1910","Basalt / Picro-Basalt","Subduction Zone / Continental Crust"
"300059","Visokiy","Russia","Kamchatka and Mainland Asia","Stratovolcano","Evidence Credible","Unknown","52.43","157.93","1234","Basalt / Picro-Basalt","Subduction Zone / Continental Crust"
"300060","Mutnovsky","Russia","Kamchatka and Mainland Asia","Complex","Eruption Observed","2000 CE","52.449","158.196","2288","Basalt / Picro-Basalt","Subduction Zone / Continental Crust"
"300070","Gorely","Russia","Kamchatka and Mainland Asia","Caldera","Eruption Observed","2010 CE","52.559","158.03","1799","Basalt / Picro-Basalt","Subduction Zone / Continental Crust"
"300080","Opala","Russia","Kamchatka and Mainland Asia","Caldera","Eruption Observed","1776 CE","52.543","157.339","2439","Basalt / Picro-Basalt","Subduction Zone / Continental Crust"
"300082","Tolmachev Dol","Russia","Kamchatka and Mainland Asia","Pyroclastic cone","Eruption Dated","300 CE","52.63","157.58","1021","Basalt / Picro-Basalt","Subduction Zone / Continental Crust"
"300083","Vilyuchik","Russia","Kamchatka and Mainland Asia","Stratovolcano","Eruption Dated","8050 BCE","52.7","158.28","2173","Andesite / Basaltic Andesite","Subduction Zone / Continental Crust"
"300084","Barkhatnaya Sopka","Russia","Kamchatka and Mainland Asia","Lava dome","Eruption Dated","3550 BCE","52.802","158.24","874","Basalt / Picro-Basalt","Subduction Zone / Continental Crust"
"300087","Bolshe-Bannaya","Russia","Kamchatka and Mainland Asia","Lava dome","Evidence Credible","Unknown","52.9","157.78","1200","Basalt / Picro-Basalt","Subduction Zone / Continental Crust"
"300090","Koryaksky","Russia","Kamchatka and Mainland Asia","Stratovolcano","Eruption Observed","2009 CE","53.321","158.712","3430","Andesite / Basaltic Andesite","Subduction Zone / Continental Crust"
"300100","Avachinsky","Russia","Kamchatka and Mainland Asia","Stratovolcano","Eruption Observed","2001 CE","53.256","158.836","2717","Andesite / Basaltic Andesite","Subduction Zone / Continental Crust"
"300110","Dzenzursky","Russia","Kamchatka and Mainland Asia","Compound","Evidence Credible","Unknown","53.637","158.922","2285","Andesite / Basaltic Andesite","Subduction Zone / Continental Crust"
"300120","Zhupanovsky","Russia","Kamchatka and Mainland Asia","Compound","Eruption Observed","2016 CE","53.589","159.15","2899","Andesite / Basaltic Andesite","Subduction Zone / Continental Crust"
"300121","Veer","Russia","Kamchatka and Mainland Asia","Pyroclastic cone","Eruption Dated","390 CE","53.75","158.45","520","Basalt / Picro-Basalt","Subduction Zone / Continental Crust"
"300122","Kostakan","Russia","Kamchatka and Mainland Asia","Pyroclastic cone","Eruption Dated","1350 CE","53.83","158.05","1150","Basalt / Picro-Basalt","Subduction Zone / Continental Crust"
"300123","Bakening","Russia","Kamchatka and Mainland Asia","Stratovolcano","Eruption Dated","550 BCE","53.905","158.07","2278","Andesite / Basaltic Andesite","Subduction Zone / Continental Crust"
"300124","Zavaritsky","Russia","Kamchatka and Mainland Asia","Pyroclastic cone","Eruption Dated","800 BCE","53.905","158.385","1567","Basalt / Picro-Basalt","Subduction Zone / Continental Crust"
"300125","Akademia Nauk","Russia","Kamchatka and Mainland Asia","Stratovolcano","Eruption Observed","1996 CE","53.98","159.45","1180","Andesite / Basaltic Andesite","Subduction Zone / Continental Crust"
"300130","Karymsky","Russia","Kamchatka and Mainland Asia","Stratovolcano","Eruption Observed","2016 CE","54.049","159.443","1513","Andesite / Basaltic Andesite","Subduction Zone / Continental Crust"
"300140","Maly Semyachik","Russia","Kamchatka and Mainland Asia","Caldera","Eruption Observed","1952 CE","54.135","159.674","1527","Basalt / Picro-Basalt","Subduction Zone / Continental Crust"
"300150","Bolshoi Semiachik","Russia","Kamchatka and Mainland Asia","Stratovolcano","Eruption Dated","4450 BCE","54.32","160.02","1720","Basalt / Picro-Basalt","Subduction Zone / Continental Crust"
"300160","Taunshits","Russia","Kamchatka and Mainland Asia","Stratovolcano","Eruption Dated","550 BCE","54.528","159.804","2301","Andesite / Basaltic Andesite","Subduction Zone / Continental Crust"
"300170","Uzon","Russia","Kamchatka and Mainland Asia","Caldera","Eruption Dated","200 CE","54.5","159.97","1617","Andesite / Basaltic Andesite","Subduction Zone / Continental Crust"
"300180","Kikhpinych","Russia","Kamchatka and Mainland Asia","Stratovolcano","Eruption Dated","1550 CE","54.489","160.251","1506","Basalt / Picro-Basalt","Subduction Zone / Continental Crust"
"300190","Krasheninnikov","Russia","Kamchatka and Mainland Asia","Caldera","Eruption Dated","1550 CE","54.596","160.27","1816","Basalt / Picro-Basalt","Subduction Zone / Continental Crust"
"300200","Kronotsky","Russia","Kamchatka and Mainland Asia","Stratovolcano","Eruption Observed","1923 CE","54.753","160.533","3482","Basalt / Picro-Basalt","Subduction Zone / Continental Crust"
"300201","Schmidt","Russia","Kamchatka and Mainland Asia","Shield","Evidence Credible","Unknown","54.92","160.63","2020","Basalt / Picro-Basalt","Subduction Zone / Continental Crust"
"300210","Gamchen","Russia","Kamchatka and Mainland Asia","Complex","Eruption Dated","550 BCE","54.974","160.703","2539","Basalt / Picro-Basalt","Subduction Zone / Continental Crust"
"300220","Komarov","Russia","Kamchatka and Mainland Asia","Stratovolcano","Eruption Dated","950 CE","55.033","160.725","2065","Basalt / Picro-Basalt","Subduction Zone / Continental Crust"
"300221","Vysoky","Russia","Kamchatka and Mainland Asia","Stratovolcano","Eruption Dated","550 BCE","55.064","160.765","2129","Andesite / Basaltic Andesite","Subduction Zone / Continental Crust"
"300230","Kizimen","Russia","Kamchatka and Mainland Asia","Stratovolcano","Eruption Observed","2013 CE","55.131","160.32","2334","Andesite / Basaltic Andesite","Subduction Zone / Continental Crust"
"300240","Tolbachik","Russia","Kamchatka and Mainland Asia","Shield","Eruption Observed","2013 CE","55.832","160.326","3611","Basalt / Picro-Basalt","Subduction Zone / Continental Crust"
"300241","Udina","Russia","Kamchatka and Mainland Asia","Stratovolcano","Evidence Credible","Unknown","55.755","160.527","2923","Andesite / Basaltic Andesite","Subduction Zone / Continental Crust"
"300242","Zimina","Russia","Kamchatka and Mainland Asia","Stratovolcano","Evidence Credible","Unknown","55.862","160.603","3081","Andesite / Basaltic Andesite","Subduction Zone / Continental Crust"
"300250","Bezymianny","Russia","Kamchatka and Mainland Asia","Stratovolcano","Eruption Observed","2016 CE","55.972","160.595","2882","Andesite / Basaltic Andesite","Subduction Zone / Continental Crust"
"300251","Kamen","Russia","Kamchatka and Mainland Asia","Stratovolcano","Evidence Credible","Unknown","56.02","160.593","4585","Basalt / Picro-Basalt","Subduction Zone / Continental Crust"
"300260","Klyuchevskoy","Russia","Kamchatka and Mainland Asia","Stratovolcano","Eruption Observed","2016 CE","56.056","160.642","4754","Basalt / Picro-Basalt","Subduction Zone / Continental Crust"
"300261","Ushkovsky","Russia","Kamchatka and Mainland Asia","Compound","Eruption Observed","1890 CE","56.113","160.509","3943","Basalt / Picro-Basalt","Subduction Zone / Continental Crust"
"300270","Sheveluch","Russia","Kamchatka and Mainland Asia","Stratovolcano","Eruption Observed","2016 CE","56.653","161.36","3283","Andesite / Basaltic Andesite","Subduction Zone / Continental Crust"
"300271","Piip","Russia","Kamchatka and Mainland Asia","Submarine","Eruption Dated","5050 BCE","55.42","167.33","-300","Dacite","Subduction Zone / Intermediate Crust"
"300272","Khangar","Russia","Kamchatka and Mainland Asia","Stratovolcano","Eruption Dated","1500 CE","54.761","157.407","1967","Dacite","Subduction Zone / Continental Crust"
"300273","Cherpuk Group","Russia","Kamchatka and Mainland Asia","Pyroclastic cone","Eruption Dated","4550 BCE","55.55","157.47","1868","Andesite / Basaltic Andesite","Subduction Zone / Continental Crust"
"300280","Ichinsky","Russia","Kamchatka and Mainland Asia","Stratovolcano","Eruption Observed","1740 CE","55.678","157.718","3596","Basalt / Picro-Basalt","Subduction Zone / Continental Crust"
"300290","Maly Payalpan","Russia","Kamchatka and Mainland Asia","Shield","Evidence Uncertain","Unknown","55.82","157.98","1802","Andesite / Basaltic Andesite","Subduction Zone / Continental Crust"
"300300","Bolshoi Payalpan","Russia","Kamchatka and Mainland Asia","Shield","Evidence Uncertain","Unknown","55.88","157.78","1906","Andesite / Basaltic Andesite","Subduction Zone / Continental Crust"
"300310","Plosky","Russia","Kamchatka and Mainland Asia","Shield","Evidence Uncertain","Unknown","55.2","158.47","1236","Basalt / Picro-Basalt","Subduction Zone / Continental Crust"
"300320","Akhtang","Russia","Kamchatka and Mainland Asia","Shield","Evidence Uncertain","Unknown","55.43","158.65","1956","Basalt / Picro-Basalt","Subduction Zone / Continental Crust"
"300330","Kozyrevsky","Russia","Kamchatka and Mainland Asia","Shield","Evidence Uncertain","Unknown","55.58","158.38","2016","Basalt / Picro-Basalt","Subduction Zone / Continental Crust"
"300340","Romanovka","Russia","Kamchatka and Mainland Asia","Stratovolcano","Evidence Uncertain","Unknown","55.65","158.8","1442","Basalt / Picro-Basalt","Subduction Zone / Continental Crust"
"300350","Uksichan","Russia","Kamchatka and Mainland Asia","Shield","Evidence Uncertain","Unknown","56.08","158.38","1692","Basalt / Picro-Basalt","Subduction Zone / Continental Crust"
"300360","Bolshoi-Kekuknaysky","Russia","Kamchatka and Mainland Asia","Shield","Eruption Dated","5310 BCE","56.483","157.917","1401","Basalt / Picro-Basalt","Subduction Zone / Continental Crust"
"300370","Kulkev","Russia","Kamchatka and Mainland Asia","Shield","Evidence Uncertain","Unknown","56.37","158.37","915","Basalt / Picro-Basalt","Subduction Zone / Continental Crust"
"300380","Geodesistoy","Russia","Kamchatka and Mainland Asia","Shield","Evidence Uncertain","Unknown","56.33","158.67","1170","Basalt / Picro-Basalt","Subduction Zone / Continental Crust"
"300390","Anaun","Russia","Kamchatka and Mainland Asia","Stratovolcano","Evidence Uncertain","Unknown","56.32","158.83","1828","Basalt / Picro-Basalt","Subduction Zone / Continental Crust"
"300400","Krainy","Russia","Kamchatka and Mainland Asia","Shield","Evidence Uncertain","Unknown","56.37","159.03","1554","Basalt / Picro-Basalt","Subduction Zone / Continental Crust"
"300410","Kekurny","Russia","Kamchatka and Mainland Asia","Shield","Evidence Uncertain","Unknown","56.4","158.85","1377","Basalt / Picro-Basalt","Subduction Zone / Continental Crust"
"300420","Eggella","Russia","Kamchatka and Mainland Asia","Shield","Evidence Uncertain","Unknown","56.57","158.52","1046","Basalt / Picro-Basalt","Subduction Zone / Continental Crust"
"300440","Verkhovoy","Russia","Kamchatka and Mainland Asia","Shield","Evidence Uncertain","Unknown","56.52","159.53","1400","Basalt / Picro-Basalt","Subduction Zone / Continental Crust"
"300450","Alney-Chashakondzha","Russia","Kamchatka and Mainland Asia","Stratovolcano","Eruption Dated","1600 CE","56.7","159.65","2598","Basalt / Picro-Basalt","Subduction Zone / Continental Crust"
"300460","Cherny","Russia","Kamchatka and Mainland Asia","Stratovolcano","Evidence Uncertain","Unknown","56.82","159.67","1778","Basalt / Picro-Basalt","Subduction Zone / Continental Crust"
"300470","Pogranychny","Russia","Kamchatka and Mainland Asia","Shield","Evidence Uncertain","Unknown","56.85","159.8","1427","Basalt / Picro-Basalt","Subduction Zone / Continental Crust"
"300480","Zaozerny","Russia","Kamchatka and Mainland Asia","Shield","Evidence Uncertain","Unknown","56.88","159.95","1349","Basalt / Picro-Basalt","Subduction Zone / Continental Crust"
"300490","Bliznets","Russia","Kamchatka and Mainland Asia","Stratovolcano","Evidence Uncertain","Unknown","56.97","159.78","1244","Basalt / Picro-Basalt","Subduction Zone / Continental Crust"
"300500","Kebeney","Russia","Kamchatka and Mainland Asia","Shield","Evidence Uncertain","Unknown","57.1","159.93","1527","Basalt / Picro-Basalt","Subduction Zone / Continental Crust"
"300510","Fedotych","Russia","Kamchatka and Mainland Asia","Shield","Evidence Uncertain","Unknown","57.13","160.4","965","Basalt / Picro-Basalt","Subduction Zone / Continental Crust"
"300511","Shisheika","Russia","Kamchatka and Mainland Asia","Lava dome","Eruption Dated","2240 BCE","57.15","161.08","379","Andesite / Basaltic Andesite","Subduction Zone / Continental Crust"
"300512","Terpuk","Russia","Kamchatka and Mainland Asia","Shield","Eruption Dated","800 BCE","57.2","159.83","765","Basalt / Picro-Basalt","Subduction Zone / Continental Crust"
"300520","Sedankinsky","Russia","Kamchatka and Mainland Asia","Shield","Eruption Dated","7050 BCE","57.27","160.08","1241","Basalt / Picro-Basalt","Subduction Zone / Continental Crust"
"300530","Leutongey","Russia","Kamchatka and Mainland Asia","Shield","Evidence Uncertain","Unknown","57.3","159.83","1333","Basalt / Picro-Basalt","Subduction Zone / Continental Crust"
"300540","Tuzovsky","Russia","Kamchatka and Mainland Asia","Shield","Evidence Uncertain","Unknown","57.32","159.97","1533","Basalt / Picro-Basalt","Subduction Zone / Continental Crust"
"300550","Gorny Institute","Russia","Kamchatka and Mainland Asia","Stratovolcano","Eruption Dated","1250 CE","57.33","160.2","2125","Andesite / Basaltic Andesite","Subduction Zone / Continental Crust"
"300551","Kinenin","Russia","Kamchatka and Mainland Asia","Maar","Eruption Dated","850 CE","57.35","160.97","583","Basalt / Picro-Basalt","Subduction Zone / Continental Crust"
"300552","Bliznetsy","Russia","Kamchatka and Mainland Asia","Lava cone","Eruption Dated","1060 BCE","57.35","161.37","265","Andesite / Basaltic Andesite","Subduction Zone / Continental Crust"
"300560","Titila","Russia","Kamchatka and Mainland Asia","Shield","Eruption Dated","550 BCE","57.4","160.1","1559","Basalt / Picro-Basalt","Subduction Zone / Continental Crust"
"300570","Mezhdusopochny","Russia","Kamchatka and Mainland Asia","Shield","Evidence Uncertain","Unknown","57.47","160.25","1641","Basalt / Picro-Basalt","Subduction Zone / Continental Crust"
"300580","Shishel","Russia","Kamchatka and Mainland Asia","Shield","Evidence Uncertain","Unknown","57.45","160.37","2525","Basalt / Picro-Basalt","Subduction Zone / Continental Crust"
"300590","Elovsky","Russia","Kamchatka and Mainland Asia","Shield","Eruption Dated","7550 BCE","57.55","160.53","1381","Basalt / Picro-Basalt","Subduction Zone / Continental Crust"
"300600","Alngey","Russia","Kamchatka and Mainland Asia","Stratovolcano","Evidence Uncertain","Unknown","57.7","160.4","1853","Basalt / Picro-Basalt","Subduction Zone / Continental Crust"
"300610","Uka","Russia","Kamchatka and Mainland Asia","Shield","Evidence Uncertain","Unknown","57.7","160.58","1643","Basalt / Picro-Basalt","Subduction Zone / Continental Crust"
"300620","Kaileney","Russia","Kamchatka and Mainland Asia","Shield","Evidence Uncertain","Unknown","57.8","160.67","1582","Basalt / Picro-Basalt","Subduction Zone / Continental Crust"
"300630","Plosky","Russia","Kamchatka and Mainland Asia","Shield","Evidence Uncertain","Unknown","57.83","160.25","1255","Basalt / Picro-Basalt","Subduction Zone / Continental Crust"
"300640","Bely","Russia","Kamchatka and Mainland Asia","Shield","Evidence Uncertain","Unknown","57.88","160.53","2080","Basalt / Picro-Basalt","Subduction Zone / Continental Crust"
"300650","Nylgimelkin","Russia","Kamchatka and Mainland Asia","Shield","Eruption Dated","3550 BCE","57.97","160.65","1764","Basalt / Picro-Basalt","Subduction Zone / Continental Crust"
"300660","Snezhniy","Russia","Kamchatka and Mainland Asia","Shield","Evidence Uncertain","Unknown","58.02","160.8","2169","Basalt / Picro-Basalt","Subduction Zone / Continental Crust"
"300670","Iktunup","Russia","Kamchatka and Mainland Asia","Shield","Evidence Uncertain","Unknown","58.08","160.77","2300","Basalt / Picro-Basalt","Subduction Zone / Continental Crust"
"300671","Spokoiny","Russia","Kamchatka and Mainland Asia","Stratovolcano","Eruption Dated","3450 BCE","58.13","160.82","2171","Dacite","Subduction Zone / Continental Crust"
"300680","Ostry","Russia","Kamchatka and Mainland Asia","Stratovolcano","Eruption Dated","2050 BCE","58.18","160.82","2552","Basalt / Picro-Basalt","Subduction Zone / Continental Crust"
"300690","Snegovoy","Russia","Kamchatka and Mainland Asia","Shield","Evidence Uncertain","Unknown","58.2","160.97","2169","Basalt / Picro-Basalt","Subduction Zone / Continental Crust"
"300700","Severny","Russia","Kamchatka and Mainland Asia","Shield","Eruption Dated","1550 BCE","58.28","160.87","1936","Basalt / Picro-Basalt","Subduction Zone / Continental Crust"
"300710","Iettunup","Russia","Kamchatka and Mainland Asia","Shield","Evidence Uncertain","Unknown","58.4","161.08","1340","Basalt / Picro-Basalt","Subduction Zone / Continental Crust"
"300720","Voyampolsky","Russia","Kamchatka and Mainland Asia","Shield","Evidence Uncertain","Unknown","58.37","160.62","1225","Basalt / Picro-Basalt","Subduction Zone / Continental Crust"
"302030","Udokan Plateau","Russia","Kamchatka and Mainland Asia","Pyroclastic cone","Eruption Dated","220 BCE","56.28","117.77","2180","Trachybasalt / Tephrite Basanite","Rift Zone / Continental Crust"
"302040","Vitim Plateau","Russia","Kamchatka and Mainland Asia","Pyroclastic cone","Evidence Credible","Unknown","53.7","113.3","1250","Basalt / Picro-Basalt","Unknown"
"302050","Tunkin Depression","Russia","Kamchatka and Mainland Asia","Volcanic field","Evidence Uncertain","Unknown","51.5","102.5","1200","Trachybasalt / Tephrite Basanite","Rift Zone / Continental Crust"
"302060","Jom-Bolok","Russia","Kamchatka and Mainland Asia","Volcanic field","Eruption Dated","5180 BCE","52.713","99.021","2047","Basalt / Picro-Basalt","Rift Zone / Continental Crust"
"302070","Azas Plateau","Russia","Kamchatka and Mainland Asia","Volcanic field","Evidence Credible","Unknown","52.433","98.303","2765","Trachybasalt / Tephrite Basanite","Rift Zone / Continental Crust"
"303010","Taryatu-Chulutu","Mongolia","Kamchatka and Mainland Asia","Volcanic field","Eruption Dated","2980 BCE","48.133","99.95","2326","Trachybasalt / Tephrite Basanite","Intraplate / Continental Crust"
"303020","Khanuy Gol","Mongolia","Kamchatka and Mainland Asia","Volcanic field","Evidence Credible","Unknown","48.67","102.75","1886","Trachyandesite / Basaltic Trachyandesite","Intraplate / Continental Crust"
"303030","Bus-Obo","Mongolia","Kamchatka and Mainland Asia","Pyroclastic cone","Evidence Uncertain","Unknown","46.995","109.355","1301","Basalt / Picro-Basalt","Intraplate / Continental Crust"
"303040","Dariganga Volcanic Field","Mongolia","Kamchatka and Mainland Asia","Pyroclastic cone","Evidence Credible","Unknown","45.754","114.279","1778","Basalt / Picro-Basalt","Intraplate / Continental Crust"
"303050","Middle Gobi","Mongolia","Kamchatka and Mainland Asia","Pyroclastic cone","Evidence Uncertain","Unknown","45.28","106.7","1120","Basalt / Picro-Basalt","Intraplate / Continental Crust"
"304020","Tianshan Volcanic Group","China","Kamchatka and Mainland Asia","Volcanic field","Eruption Observed","650 CE","42.5","82.5","0","No Data","Intraplate / Continental Crust"
"304030","Kunlun Volcanic Group","China","Kamchatka and Mainland Asia","Pyroclastic cone","Eruption Observed","1951 CE","35.52","80.2","5808","Trachyte / Trachydacite","Intraplate / Continental Crust"
"305010","Honggeertu","China","Kamchatka and Mainland Asia","Pyroclastic cone","Evidence Uncertain","Unknown","41.47","113","1700","Basalt / Picro-Basalt","Intraplate / Continental Crust"
"305011","Arshan","China","Kamchatka and Mainland Asia","Pyroclastic cone","Eruption Dated","0 CE","47.5","120.7","0","Basalt / Picro-Basalt","Intraplate / Continental Crust"
"305020","Keluo Group","China","Kamchatka and Mainland Asia","Pyroclastic cone","Evidence Credible","Unknown","49.37","125.92","670","Trachybasalt / Tephrite Basanite","Intraplate / Continental Crust"
"305030","Wudalianchi","China","Kamchatka and Mainland Asia","Volcanic field","Eruption Observed","1776 CE","48.72","126.12","597","Trachybasalt / Tephrite Basanite","Intraplate / Continental Crust"
"305040","Jingbo","China","Kamchatka and Mainland Asia","Volcanic field","Eruption Dated","520 BCE","44.08","128.83","1000","Trachybasalt / Tephrite Basanite","Intraplate / Continental Crust"
"305050","Longgang Group","China","Kamchatka and Mainland Asia","Pyroclastic cone","Eruption Dated","350 CE","42.33","126.5","1000","Basalt / Picro-Basalt","Intraplate / Continental Crust"
"305060","Changbaishan","China-North Korea","Kamchatka and Mainland Asia","Stratovolcano","Eruption Observed","1903 CE","41.98","128.08","2744","Trachyte / Trachydacite","Intraplate / Continental Crust"
"306010","Xianjindao","North Korea","Kamchatka and Mainland Asia","Unknown","Evidence Uncertain","Unknown","41.33","128","0","No Data","Intraplate / Continental Crust"
"306020","Ch'uga-ryong","North Korea-South Korea","Kamchatka and Mainland Asia","Shield","Evidence Uncertain","Unknown","38.33","127.33","452","Basalt / Picro-Basalt","Intraplate / Continental Crust"
"306030","Ulreung","South Korea","Kamchatka and Mainland Asia","Stratovolcano","Eruption Dated","2990 BCE","37.5","130.87","984","Trachyandesite / Basaltic Trachyandesite","Intraplate / Continental Crust"
"306040","Halla","South Korea","Kamchatka and Mainland Asia","Shield","Eruption Observed","1007 CE","33.361","126.53","1919","Basalt / Picro-Basalt","Intraplate / Continental Crust"
"311010","Buldir","United States","Alaska","Stratovolcano","Evidence Uncertain","Unknown","52.35","175.911","656","Basalt / Picro-Basalt","Subduction Zone / Intermediate Crust"
"311020","Kiska","United States","Alaska","Stratovolcano","Eruption Observed","1990 CE","52.103","177.602","1220","Andesite / Basaltic Andesite","Subduction Zone / Intermediate Crust"
"311030","Segula","United States","Alaska","Stratovolcano","Evidence Credible","Unknown","52.015","178.136","1160","Andesite / Basaltic Andesite","Subduction Zone / Intermediate Crust"
"311040","Davidof","United States","Alaska","Stratovolcano","Evidence Uncertain","Unknown","51.97","178.33","328","No Data","Subduction Zone / Intermediate Crust"
"311050","Little Sitkin","United States","Alaska","Stratovolcano","Eruption Observed","1830 CE","51.95","178.543","1174","Andesite / Basaltic Andesite","Subduction Zone / Intermediate Crust"
"311060","Semisopochnoi","United States","Alaska","Stratovolcano","Eruption Observed","1987 CE","51.93","179.58","1221","Basalt / Picro-Basalt","Subduction Zone / Intermediate Crust"
"311070","Gareloi","United States","Alaska","Stratovolcano","Eruption Observed","1989 CE","51.79","-178.794","1573","Basalt / Picro-Basalt","Subduction Zone / Intermediate Crust"
"311080","Tanaga","United States","Alaska","Stratovolcano","Eruption Observed","1914 CE","51.885","-178.146","1806","Basalt / Picro-Basalt","Subduction Zone / Intermediate Crust"
"311090","Takawangha","United States","Alaska","Stratovolcano","Eruption Dated","1550 CE","51.873","-178.006","1449","Basalt / Picro-Basalt","Subduction Zone / Intermediate Crust"
"311100","Bobrof","United States","Alaska","Stratovolcano","Evidence Uncertain","Unknown","51.91","-177.438","738","Basalt / Picro-Basalt","Subduction Zone / Intermediate Crust"
"311110","Kanaga","United States","Alaska","Stratovolcano","Eruption Observed","2012 CE","51.923","-177.168","1307","Andesite / Basaltic Andesite","Subduction Zone / Intermediate Crust"
"311111","Moffett","United States","Alaska","Stratovolcano","Eruption Dated","1600 BCE","51.944","-176.747","1196","Andesite / Basaltic Andesite","Subduction Zone / Intermediate Crust"
"311120","Great Sitkin","United States","Alaska","Stratovolcano","Eruption Observed","1974 CE","52.076","-176.13","1740","Andesite / Basaltic Andesite","Subduction Zone / Intermediate Crust"
"311130","Kasatochi","United States","Alaska","Stratovolcano","Eruption Observed","2008 CE","52.177","-175.508","314","Basalt / Picro-Basalt","Subduction Zone / Intermediate Crust"
"311140","Koniuji","United States","Alaska","Stratovolcano","Eruption Dated","1150 BCE","52.22","-175.13","273","Andesite / Basaltic Andesite","Subduction Zone / Intermediate Crust"
"311160","Atka","United States","Alaska","Stratovolcano","Eruption Observed","1812 CE","52.331","-174.139","1448","Basalt / Picro-Basalt","Subduction Zone / Intermediate Crust"
"311161","Korovin","United States","Alaska","Stratovolcano","Eruption Observed","2007 CE","52.381","-174.166","1518","Basalt / Picro-Basalt","Subduction Zone / Continental Crust"
"311180","Seguam","United States","Alaska","Stratovolcano","Eruption Observed","1993 CE","52.315","-172.51","1054","Andesite / Basaltic Andesite","Subduction Zone / Intermediate Crust"
"311190","Amukta","United States","Alaska","Stratovolcano","Eruption Observed","1997 CE","52.5","-171.252","1066","Andesite / Basaltic Andesite","Subduction Zone / Intermediate Crust"
"311200","Chagulak","United States","Alaska","Stratovolcano","Evidence Credible","Unknown","52.577","-171.13","1142","Andesite / Basaltic Andesite","Subduction Zone / Intermediate Crust"
"311210","Yunaska","United States","Alaska","Shield","Eruption Observed","1937 CE","52.643","-170.629","550","Andesite / Basaltic Andesite","Subduction Zone / Intermediate Crust"
"311220","Herbert","United States","Alaska","Stratovolcano","Evidence Credible","Unknown","52.742","-170.111","1280","Andesite / Basaltic Andesite","Subduction Zone / Intermediate Crust"
"311230","Carlisle","United States","Alaska","Stratovolcano","Eruption Observed","1828 CE","52.894","-170.054","1620","Andesite / Basaltic Andesite","Subduction Zone / Intermediate Crust"
"311240","Cleveland","United States","Alaska","Stratovolcano","Eruption Observed","2016 CE","52.825","-169.944","1730","Andesite / Basaltic Andesite","Subduction Zone / Intermediate Crust"
"311241","Tana","United States","Alaska","Stratovolcano","Evidence Credible","Unknown","52.83","-169.77","1170","Rhyolite","Subduction Zone / Intermediate Crust"
"311250","Uliaga","United States","Alaska","Stratovolcano","Evidence Credible","Unknown","53.065","-169.77","888","No Data","Subduction Zone / Intermediate Crust"
"311260","Kagamil","United States","Alaska","Stratovolcano","Eruption Observed","1929 CE","52.974","-169.72","893","No Data","Subduction Zone / Intermediate Crust"
"311270","Vsevidof","United States","Alaska","Stratovolcano","Eruption Observed","1878 CE","53.13","-168.693","2149","Andesite / Basaltic Andesite","Subduction Zone / Intermediate Crust"
"311280","Recheschnoi","United States","Alaska","Stratovolcano","Evidence Credible","Unknown","53.157","-168.539","1984","Andesite / Basaltic Andesite","Subduction Zone / Intermediate Crust"
"311290","Okmok","United States","Alaska","Shield","Eruption Observed","2008 CE","53.43","-168.13","1073","Basalt / Picro-Basalt","Subduction Zone / Intermediate Crust"
"311300","Bogoslof","United States","Alaska","Submarine","Eruption Observed","1992 CE","53.93","-168.03","150","Trachyandesite / Basaltic Trachyandesite","Subduction Zone / Intermediate Crust"
"311310","Makushin","United States","Alaska","Stratovolcano","Eruption Observed","1995 CE","53.891","-166.923","1800","Andesite / Basaltic Andesite","Subduction Zone / Intermediate Crust"
"311320","Akutan","United States","Alaska","Stratovolcano","Eruption Observed","1992 CE","54.134","-165.986","1303","Basalt / Picro-Basalt","Subduction Zone / Intermediate Crust"
"311340","Westdahl","United States","Alaska","Stratovolcano?","Eruption Observed","1992 CE","54.518","-164.65","1654","Basalt / Picro-Basalt","Subduction Zone / Continental Crust"
"311350","Fisher","United States","Alaska","Stratovolcano","Eruption Observed","1830 CE","54.65","-164.43","1112","Andesite / Basaltic Andesite","Subduction Zone / Continental Crust"
"311360","Shishaldin","United States","Alaska","Stratovolcano","Eruption Observed","2015 CE","54.756","-163.97","2857","Basalt / Picro-Basalt","Subduction Zone / Continental Crust"
"311370","Isanotski","United States","Alaska","Stratovolcano","Evidence Uncertain","Unknown","54.765","-163.723","2446","No Data","Subduction Zone / Continental Crust"
"311380","Roundtop","United States","Alaska","Stratovolcano","Eruption Dated","7600 BCE","54.8","-163.589","1871","Rhyolite","Subduction Zone / Continental Crust"
"311390","Amak","United States","Alaska","Stratovolcano","Eruption Observed","1796 CE","55.424","-163.149","488","Andesite / Basaltic Andesite","Subduction Zone / Continental Crust"
"311800","Adagdak","United States","Alaska","Stratovolcano","Unrest / Pleistocene","Unknown","51.988","-176.592","610","","Subduction Zone / Intermediate Crust"
"312010","Frosty","United States","Alaska","Stratovolcano","Evidence Credible","Unknown","55.067","-162.835","1728","Andesite / Basaltic Andesite","Subduction Zone / Continental Crust"
"312011","Dutton","United States","Alaska","Stratovolcano","Evidence Credible","Unknown","55.183","-162.276","1465","Andesite / Basaltic Andesite","Subduction Zone / Continental Crust"
"312020","Emmons Lake","United States","Alaska","Caldera","Evidence Credible","Unknown","55.341","-162.073","1436","Andesite / Basaltic Andesite","Subduction Zone / Continental Crust"
"312030","Pavlof","United States","Alaska","Stratovolcano","Eruption Observed","2016 CE","55.417","-161.894","2493","Andesite / Basaltic Andesite","Subduction Zone / Continental Crust"
"312040","Pavlof Sister","United States","Alaska","Stratovolcano","Evidence Credible","Unknown","55.457","-161.854","2142","Basalt / Picro-Basalt","Subduction Zone / Continental Crust"
"312050","Dana","United States","Alaska","Stratovolcano","Eruption Dated","1890 BCE","55.641","-161.214","1354","Andesite / Basaltic Andesite","Subduction Zone / Continental Crust"
"312051","Stepovak Bay 2","United States","Alaska","Pyroclastic cone","Evidence Credible","Unknown","55.913","-160.041","1323","Andesite / Basaltic Andesite","Subduction Zone / Continental Crust"
"312052","Stepovak Bay 3","United States","Alaska","Pyroclastic cone","Evidence Uncertain","Unknown","55.929","-160.002","1555","Andesite / Basaltic Andesite","Subduction Zone / Continental Crust"
"312053","Stepovak Bay 4","United States","Alaska","Stratovolcano","Evidence Credible","Unknown","55.954","-159.954","1557","No Data","Subduction Zone / Continental Crust"
"312060","Kupreanof","United States","Alaska","Stratovolcano","Eruption Observed","1987 CE","56.011","-159.797","1895","Andesite / Basaltic Andesite","Subduction Zone / Continental Crust"
"312070","Veniaminof","United States","Alaska","Stratovolcano","Eruption Observed","2013 CE","56.17","-159.38","2507","Andesite / Basaltic Andesite","Subduction Zone / Continental Crust"
"312080","Black Peak","United States","Alaska","Stratovolcano","Eruption Dated","1900 BCE","56.552","-158.785","1032","Andesite / Basaltic Andesite","Subduction Zone / Continental Crust"
"312090","Aniakchak","United States","Alaska","Caldera","Eruption Observed","1931 CE","56.88","-158.17","1341","Andesite / Basaltic Andesite","Subduction Zone / Continental Crust"
"312100","Yantarni","United States","Alaska","Stratovolcano","Eruption Dated","800 BCE","57.019","-157.185","1345","Andesite / Basaltic Andesite","Subduction Zone / Continental Crust"
"312110","Chiginagak","United States","Alaska","Stratovolcano","Eruption Observed","1998 CE","57.135","-156.99","2221","Andesite / Basaltic Andesite","Subduction Zone / Continental Crust"
"312120","Kialagvik","United States","Alaska","Stratovolcano","Evidence Credible","Unknown","57.203","-156.745","1677","Andesite / Basaltic Andesite","Subduction Zone / Continental Crust"
"312130","Ugashik-Peulik","United States","Alaska","Stratovolcano","Eruption Observed","1814 CE","57.751","-156.368","1474","Andesite / Basaltic Andesite","Subduction Zone / Continental Crust"
"312131","Ukinrek Maars","United States","Alaska","Maar","Eruption Observed","1977 CE","57.832","-156.51","91","Basalt / Picro-Basalt","Subduction Zone / Continental Crust"
"312132","Unnamed","United States","Alaska","Lava dome","Evidence Credible","Unknown","57.87","-155.411","402","No Data","Subduction Zone / Continental Crust"
"312140","Martin","United States","Alaska","Stratovolcano","Eruption Dated","1953 CE","58.172","-155.361","1863","Dacite","Subduction Zone / Continental Crust"
"312150","Mageik","United States","Alaska","Stratovolcano","Eruption Dated","500 BCE","58.195","-155.253","2165","Andesite / Basaltic Andesite","Subduction Zone / Continental Crust"
"312160","Trident","United States","Alaska","Stratovolcano","Eruption Observed","1974 CE","58.236","-155.1","1864","Andesite / Basaltic Andesite","Subduction Zone / Continental Crust"
"312170","Katmai","United States","Alaska","Stratovolcano","Eruption Observed","1912 CE","58.28","-154.963","2047","Andesite / Basaltic Andesite","Subduction Zone / Continental Crust"
"312180","Novarupta","United States","Alaska","Caldera","Eruption Observed","1912 CE","58.27","-155.157","841","Rhyolite","Subduction Zone / Continental Crust"
"312190","Griggs","United States","Alaska","Stratovolcano","Eruption Dated","1790 BCE","58.354","-155.092","2317","Andesite / Basaltic Andesite","Subduction Zone / Continental Crust"
"312200","Snowy Mountain","United States","Alaska","Stratovolcano","Eruption Dated","1710 CE","58.336","-154.682","2162","Andesite / Basaltic Andesite","Subduction Zone / Continental Crust"
"312210","Denison","United States","Alaska","Stratovolcano","Evidence Uncertain","Unknown","58.418","-154.449","2287","Andesite / Basaltic Andesite","Subduction Zone / Continental Crust"
"312220","Steller","United States","Alaska","Stratovolcano","Evidence Credible","Unknown","58.43","-154.4","2272","Andesite / Basaltic Andesite","Subduction Zone / Continental Crust"
"312230","Kukak","United States","Alaska","Stratovolcano","Unrest / Holocene","Unknown","58.453","-154.355","2043","Andesite / Basaltic Andesite","Subduction Zone / Continental Crust"
"312250","Kaguyak","United States","Alaska","Lava dome","Eruption Dated","3850 BCE","58.608","-154.028","901","Dacite","Subduction Zone / Continental Crust"
"312260","Fourpeaked","United States","Alaska","Stratovolcano","Eruption Observed","2006 CE","58.77","-153.672","2105","Andesite / Basaltic Andesite","Subduction Zone / Continental Crust"
"312270","Douglas","United States","Alaska","Stratovolcano","Evidence Credible","Unknown","58.855","-153.542","2140","Andesite / Basaltic Andesite","Subduction Zone / Continental Crust"
"313010","Augustine","United States","Alaska","Lava dome","Eruption Observed","2006 CE","59.363","-153.43","1252","Andesite / Basaltic Andesite","Subduction Zone / Continental Crust"
"313020","Iliamna","United States","Alaska","Stratovolcano","Eruption Observed","1876 CE","60.032","-153.09","3053","Andesite / Basaltic Andesite","Subduction Zone / Continental Crust"
"313030","Redoubt","United States","Alaska","Stratovolcano","Eruption Observed","2009 CE","60.485","-152.742","3108","Andesite / Basaltic Andesite","Subduction Zone / Continental Crust"
"313040","Spurr","United States","Alaska","Stratovolcano","Eruption Observed","1992 CE","61.299","-152.251","3374","Andesite / Basaltic Andesite","Subduction Zone / Continental Crust"
"313050","Hayes","United States","Alaska","Stratovolcano","Eruption Dated","1200 CE","61.64","-152.411","3034","Dacite","Subduction Zone / Continental Crust"
"314010","St. Paul Island","United States","Alaska","Shield","Eruption Dated","1280 BCE","57.18","-170.3","203","Trachybasalt / Tephrite Basanite","Intraplate / Continental Crust"
"314030","Ingakslugwat Hills","United States","Alaska","Pyroclastic cone","Evidence Credible","Unknown","61.43","-164.47","190","Basalt / Picro-Basalt","Intraplate / Continental Crust"
"314040","St. Michael","United States","Alaska","Shield","Evidence Credible","Unknown","63.45","-162.12","715","Basalt / Picro-Basalt","Intraplate / Continental Crust"
"314060","Imuruk Lake","United States","Alaska","Shield","Eruption Dated","300 CE","65.517","-163.45","610","Basalt / Picro-Basalt","Intraplate / Continental Crust"
"315001","Buzzard Creek","United States","Alaska","Tuff ring","Eruption Dated","1050 BCE","64.062","-148.433","830","Basalt / Picro-Basalt","Subduction Zone / Continental Crust"
"315020","Wrangell","United States","Alaska","Shield","Eruption Observed","2002 CE","62.006","-144.017","4278","Andesite / Basaltic Andesite","Intraplate / Continental Crust"
"315030","Churchill","United States","Alaska","Stratovolcano","Eruption Dated","847 CE","61.38","-141.75","5005","Dacite","Intraplate / Continental Crust"
"315040","Edgecumbe","United States","Alaska","Stratovolcano","Eruption Dated","2220 BCE","57.05","-135.75","970","Andesite / Basaltic Andesite","Intraplate / Continental Crust"
"315050","Duncan Canal","United States","Alaska","Volcanic field","Evidence Credible","Unknown","56.5","-133.1","15","Basalt / Picro-Basalt","Subduction Zone / Continental Crust"
"315060","Tlevak Strait-Suemez Is.","United States","Alaska","Volcanic field","Evidence Credible","Unknown","55.25","-133.3","50","Basalt / Picro-Basalt","Subduction Zone / Continental Crust"
"315070","Behm Canal-Rudyerd Bay","United States","Alaska","Pyroclastic cone","Evidence Uncertain","Unknown","55.32","-131.05","500","Basalt / Picro-Basalt","Intraplate / Continental Crust"
"320010","Fort Selkirk","Canada","Canada and Western USA","Volcanic field","Evidence Uncertain","Unknown","62.93","-137.38","1239","Trachybasalt / Tephrite Basanite","Intraplate / Continental Crust"
"320020","Alligator Lake","Canada","Canada and Western USA","Volcanic field","Evidence Credible","Unknown","60.42","-135.42","2217","Basalt / Picro-Basalt","Intraplate / Continental Crust"
"320030","Atlin Volcanic Field","Canada","Canada and Western USA","Pyroclastic cone","Evidence Credible","Unknown","59.68","-133.32","1880","Trachybasalt / Tephrite Basanite","Intraplate / Continental Crust"
"320031","Tuya Volcanic Field","Canada","Canada and Western USA","Volcanic field","Evidence Credible","Unknown","59.37","-130.58","2123","Basalt / Picro-Basalt","Intraplate / Continental Crust"
"320040","Heart Peaks","Canada","Canada and Western USA","Shield","Evidence Uncertain","Unknown","58.6","-131.97","2012","Basalt / Picro-Basalt","Intraplate / Continental Crust"
"320050","Level Mountain","Canada","Canada and Western USA","Shield","Evidence Uncertain","Unknown","58.42","-131.35","2190","Trachyte / Trachydacite","Intraplate / Continental Crust"
"320060","Edziza","Canada","Canada and Western USA","Stratovolcano","Eruption Dated","950 CE","57.72","-130.63","2786","Trachyte / Trachydacite","Intraplate / Continental Crust"
"320070","Spectrum Range","Canada","Canada and Western USA","Shield","Evidence Credible","Unknown","57.43","-130.68","2430","Rhyolite","Intraplate / Continental Crust"
"320080","Hoodoo Mountain","Canada","Canada and Western USA","Subglacial","Eruption Dated","7050 BCE","56.78","-131.28","1850","Phonolite","Intraplate / Continental Crust"
"320090","Iskut-Unuk River Cones","Canada","Canada and Western USA","Pyroclastic cone","Eruption Dated","1800 CE","56.58","-130.55","1880","Basalt / Picro-Basalt","Intraplate / Continental Crust"
"320100","Tseax River Cone","Canada","Canada and Western USA","Pyroclastic cone","Eruption Dated","1690 CE","55.12","-128.9","609","Basalt / Picro-Basalt","Intraplate / Continental Crust"
"320110","Crow Lagoon","Canada","Canada and Western USA","Pyroclastic cone","Evidence Credible","Unknown","54.7","-130.23","335","Basalt / Picro-Basalt","Intraplate / Continental Crust"
"320120","Milbanke Sound Group","Canada","Canada and Western USA","Pyroclastic cone","Evidence Credible","Unknown","52.5","-128.73","335","Basalt / Picro-Basalt","Intraplate / Continental Crust"
"320140","Nazko","Canada","Canada and Western USA","Pyroclastic cone","Eruption Dated","5220 BCE","52.928","-123.732","1238","Trachybasalt / Tephrite Basanite","Intraplate / Continental Crust"
"320150","Wells Gray-Clearwater","Canada","Canada and Western USA","Pyroclastic cone","Eruption Dated","1550 CE","52.33","-120.57","2576","Basalt / Picro-Basalt","Intraplate / Continental Crust"
"320160","Silverthrone","Canada","Canada and Western USA","Caldera","Evidence Credible","Unknown","51.43","-126.3","3160","Andesite / Basaltic Andesite","Subduction Zone / Continental Crust"
"320170","Bridge River Cones","Canada","Canada and Western USA","Volcanic field","Evidence Credible","Unknown","50.8","-123.4","2500","Basalt / Picro-Basalt","Subduction Zone / Continental Crust"
"320180","Meager","Canada","Canada and Western USA","Complex","Eruption Dated","410 BCE","50.63","-123.5","2680","Dacite","Subduction Zone / Continental Crust"
"320190","Garibaldi Lake","Canada","Canada and Western USA","Volcanic field","Evidence Credible","Unknown","49.92","-123.03","2316","Andesite / Basaltic Andesite","Subduction Zone / Continental Crust"
"320200","Garibaldi","Canada","Canada and Western USA","Stratovolcano","Eruption Dated","8060 BCE","49.85","-123","2678","Dacite","Subduction Zone / Continental Crust"
"320811","Cayley Volcanic Field","Canada","Canada and Western USA","Volcanic field","Evidence Credible","Unknown","50.12","-123.28","2375","Andesite / Basaltic Andesite","Subduction Zone / Continental Crust"
"321010","Baker","United States","Canada and Western USA","Stratovolcano","Eruption Observed","1880 CE","48.777","-121.813","3285","Andesite / Basaltic Andesite","Subduction Zone / Continental Crust"
"321020","Glacier Peak","United States","Canada and Western USA","Stratovolcano","Eruption Dated","1700 CE","48.112","-121.113","3213","Dacite","Subduction Zone / Continental Crust"
"321030","Rainier","United States","Canada and Western USA","Stratovolcano","Eruption Observed","1894 CE","46.853","-121.76","4392","Andesite / Basaltic Andesite","Subduction Zone / Continental Crust"
"321040","Adams","United States","Canada and Western USA","Stratovolcano","Eruption Dated","950 CE","46.206","-121.49","3742","Andesite / Basaltic Andesite","Subduction Zone / Continental Crust"
"321050","St. Helens","United States","Canada and Western USA","Stratovolcano","Eruption Observed","2008 CE","46.2","-122.18","2549","Dacite","Subduction Zone / Continental Crust"
"321060","West Crater","United States","Canada and Western USA","Volcanic field","Eruption Dated","5750 BCE","45.88","-122.08","1329","Andesite / Basaltic Andesite","Subduction Zone / Continental Crust"
"321070","Indian Heaven","United States","Canada and Western USA","Shield","Eruption Dated","6250 BCE","45.93","-121.82","1806","Basalt / Picro-Basalt","Subduction Zone / Continental Crust"
"322010","Hood","United States","Canada and Western USA","Stratovolcano","Eruption Observed","1866 CE","45.374","-121.695","3426","Andesite / Basaltic Andesite","Subduction Zone / Continental Crust"
